Jurisdicción,CUE Anexo,Nombre,Sector,Estado,Ámbito,Domicilio,CP,Teléfono,Código Localidad,Localidad,Departamento,E-mail,Ed. Común,Ed. Especial,Ed. de Jóvenes y Adultos,Ed. Artística,Ed. Hospitalaria Domiciliaria,Ed. Intercultural Bilingüe,Ed. Contexto de Encierro,Jardín maternal,Jardín de infantes,Primaria,Secundaria,Secundaria Técnica (INET),Superior no Universitario,Superior No Universitario (INET),dpto_link,Address,Address_2,Address_3,lng,lat,id
Buenos Aires,61771700,ESCUELA SECUNDARIA Nº77,Estatal,Activo,Urbano,44 Y 155 S/N  ,1900,479-9771,6441026,LA PLATA,LA PLATA,es45laplata@gmail.com; andreaagustoni@hotmail.com; obs0010045@abc.gov.ar,True,False,False,False,False,False,False,False,False,False,True,False,False,False,06441,"44 Y 155 S/N  , LA PLATA, LA PLATA, Buenos Aires, Argentina","44 Y 155 S/N  , LA PLATA, LA PLATA, Buenos Aires, Argentina","44 Y 155 , LA PLATA, Buenos Aires, Argentina",-57.947241,-34.9033732,Ei1Bdi4gNDQgMTU1LCBMYSBQbGF0YSwgQnVlbm9zIEFpcmVzLCBBcmdlbnRpbmE
Buenos Aires,61771701,ANEXO I DE ESCUELA SECUNDARIA Nº77,Estatal,Activo,Urbano,170 ESQ. 43 y 44 S/N  EL RETIRO,1900,479-0986,6441026,LA PLATA,LA PLATA,sebastiansandroni@gmail.com; obs0010038@abc.gov.ar,True,False,False,False,False,False,False,False,False,False,True,False,False,False,06441,"170 ESQ. 43 y 44 S/N  EL RETIRO, LA PLATA, LA PLATA, Buenos Aires, Argentina","170 ESQ. 43 y 44 S/N  EL RETIRO, LA PLATA, LA PLATA, Buenos Aires, Argentina","170 ESQ. 43 y 44 , LA PLATA, Buenos Aires, Argentina",-57.5517481,-38.0624381,Ej9HaWFjb2JpbmkgJiBQdcOhbiwgQjc2MDMgTWFyIGRlbCBQbGF0YSwgQnVlbm9zIEFpcmVzLCBBcmdlbnRpbmE
Buenos Aires,61772000,ESCUELA SECUNDARIA Nº42,Estatal,Activo,Urbano,452 Y 26 S/N  ,1896,472-4856,6441043,City Bell,LA PLATA,marcelavitiello@yahoo.com.ar,True,False,False,False,False,False,False,False,False,False,True,False,False,False,06441,"452 Y 26 S/N  , City Bell, LA PLATA, Buenos Aires, Argentina","452 Y 26 S/N  , City Bell, LA PLATA, Buenos Aires, Argentina","452 Y 26 , LA PLATA, Buenos Aires, Argentina",-58.0572973,-34.884629,EjZDYWxsZSAyNiA0NTIsIEIxODk2IENpdHkgQmVsbCwgQnVlbm9zIEFpcmVzLCBBcmdlbnRpbmE
Buenos Aires,61772100,ESCUELA SECUNDARIA Nº76,Estatal,Activo,Urbano,RUTA 36 KM 54 S/N  ,1903,491-7917,6441001,ABASTO,LA PLATA,escsecundaria49@yahoo.com.ar; obs0010049@abc.gov.ar,True,False,False,False,False,False,False,False,False,False,True,False,False,False,06441,"RUTA 36 KM 54 S/N  , ABASTO, LA PLATA, Buenos Aires, Argentina","RUTA 36 KM 54 S/N  , ABASTO, LA PLATA, Buenos Aires, Argentina","RUTA 36 KM 54 , LA PLATA, Buenos Aires, Argentina",-58.0564444,-34.9791766,EjFSUDM2IDU0LCBCMTkwM0FCTyBBYmFzdG8sIEJ1ZW5vcyBBaXJlcywgQXJnZW50aW5h
Buenos Aires,61772300,ESCUELA SECUNDARIA BASICA Nº49,Estatal,Activo,Urbano,137 Y 86 S/N  CAMPO BERRO,1900,450-2588,6441026,LA PLATA,LA PLATA,marcosrosenfeld11@gmail.com; secundaria49lp@hotmail.com,True,False,False,False,False,False,False,False,False,False,True,False,False,False,06441,"137 Y 86 S/N  CAMPO BERRO, LA PLATA, LA PLATA, Buenos Aires, Argentina","137 Y 86 S/N  CAMPO BERRO, LA PLATA, LA PLATA, Buenos Aires, Argentina","137 Y 86 , LA PLATA, Buenos Aires, Argentina",-57.9445654,-34.9704647,EjlDYWxsZSA4NiAmIENhbGxlIDEzNywgTG9zIEhvcm5vcywgQnVlbm9zIEFpcmVzLCBBcmdlbnRpbmE
Buenos Aires,61772400,ESCUELA DE EDUCACIÓN SECUNDARIA Nº89,Estatal,Activo,Urbano,140 E/ 43 Y 44 S/N  SAN CARLOS,1900,470-7918,6441026,LA PLATA,LA PLATA,irenesatas@hotmail.com; obs0010052@abc.gov.ar,True,False,False,False,False,False,False,False,False,False,True,False,False,False,06441,"140 E/ 43 Y 44 S/N  SAN CARLOS, LA PLATA, LA PLATA, Buenos Aires, Argentina","140 140 E/ 43 Y 44 S/N  SAN CARLOS, LA PLATA, LA PLATA, Buenos Aires, Argentina","140 140 E/ 43 Y 44 , LA PLATA, Buenos Aires, Argentina",-57.9895833,-34.9420519,EjdDYWxsZSAxNDAgJiBBdi4gNDQsIFNhbiBDYXJsb3MsIEJ1ZW5vcyBBaXJlcywgQXJnZW50aW5h
Buenos Aires,61772500,ESCUELA SECUNDARIA Nº84,Estatal,Activo,Urbano,508 E/157 Y 158 S/N  SAN VICENTE,1902,478-1532/1006,6441021,JOAQUIN GORINA,LA PLATA,esb53gorina@yahoo.com.ar; obs0010053@abc.gov.ar,True,False,False,False,False,False,False,False,False,False,True,False,False,False,06441,"508 E/157 Y 158 S/N  SAN VICENTE, JOAQUIN GORINA, LA PLATA, Buenos Aires, Argentina","508 508 E/157 Y 158 S/N  SAN VICENTE, JOAQUIN GORINA, LA PLATA, Buenos Aires, Argentina","508 508 E/157 Y 158 , LA PLATA, Buenos Aires, Argentina",-57.587472,-38.0133352,EjhJbnQuIENhbXVzc28gNTA4LCBNYXIgZGVsIFBsYXRhLCBCdWVub3MgQWlyZXMsIEFyZ2VudGluYQ
Buenos Aires,61772600,ESC. SECUNDARIA BASICA Nº54,Estatal,Activo,Urbano,526 BIS Y 16. S/N  ,1900,422-1885,6441026,LA PLATA,LA PLATA,esb54laplata@yahoo.com.ar; obs0010054@abc.gov.ar,True,False,False,False,False,False,False,False,False,False,True,False,False,False,06441,"526 BIS Y 16. S/N  , LA PLATA, LA PLATA, Buenos Aires, Argentina","526 BIS Y 16. S/N  , LA PLATA, LA PLATA, Buenos Aires, Argentina","526 BIS Y 16. , LA PLATA, Buenos Aires, Argentina",-57.9843906,-34.9043516,EjlDYWxsZSA1MjYgQmlzICYgQ2FsbGUgMTYsIFRvbG9zYSwgQnVlbm9zIEFpcmVzLCBBcmdlbnRpbmE
Buenos Aires,61772700,ESC. SECUNDARIA BASICA Nº55,Estatal,Activo,Urbano,42 E/ 12 Y 13 S/N  ,1900,4250374/4834879,6441026,LA PLATA,LA PLATA,marcela00_mm@hotmail.com; obs0010055@abc.gov.ar,True,False,False,False,False,False,False,False,False,False,True,False,False,False,06441,"42 E/ 12 Y 13 S/N  , LA PLATA, LA PLATA, Buenos Aires, Argentina","42 42 E/ 12 Y 13 S/N  , LA PLATA, LA PLATA, Buenos Aires, Argentina","42 42 E/ 12 Y 13 , LA PLATA, Buenos Aires, Argentina",-57.9729996,-34.9058206,Ei5DYWxsZSAxMiA0MiwgTGEgUGxhdGEsIEJ1ZW5vcyBBaXJlcywgQXJnZW50aW5h
Buenos Aires,61772900,ESCUELA SECUNDARIA Nº67,Estatal,Activo,Urbano,408 Y CNO. GRAL BELGRANO 2896  ,1894,474-2854,6441062,VILLA ELISA,LA PLATA,secundaria57@gmail.com; nancypanisal@hotmail.com; obs0010057@abc.gov.ar,True,False,False,False,False,False,False,False,False,False,True,False,False,False,06441,"408 Y CNO. GRAL BELGRANO 2896  , VILLA ELISA, LA PLATA, Buenos Aires, Argentina","408 Y CNO. GRAL BELGRANO 2896  , VILLA ELISA, LA PLATA, Buenos Aires, Argentina","408 Y CNO. GRAL BELGRANO 2896, LA PLATA, Buenos Aires, Argentina",-58.0923121,-34.8715397,Ej9DYW1pbm8gR3JhbC4gQmVsZ3Jhbm8gNDA4LCBWaWxsYSBFbGlzYSwgQnVlbm9zIEFpcmVzLCBBcmdlbnRpbmE
Buenos Aires,61773000,ESC. SECUNDARIA BASICA Nº58,Estatal,Activo,Urbano,510 Y 132 BIS S/N  ,1903,471-6736,6441022,JOSE HERNANDEZ,LA PLATA,esb58hernandez@yahoo.com.ar; obs0010058@abc.gov.ar,True,False,False,False,False,False,False,False,False,False,True,False,False,False,06441,"510 Y 132 BIS S/N  , JOSE HERNANDEZ, LA PLATA, Buenos Aires, Argentina","510 Y 132 BIS S/N  , JOSE HERNANDEZ, LA PLATA, Buenos Aires, Argentina","510 Y 132 BIS , LA PLATA, Buenos Aires, Argentina",-58.0206936,-34.9064721,EjpDYWxsZSAxMzIgQmlzICYgQ2FsbGUgNTEwLCBHb25uZXQsIEJ1ZW5vcyBBaXJlcywgQXJnZW50aW5h
Buenos Aires,61773100,ESCUELA DE EDUCACIÓN SECUNDARIA Nº90,Estatal,Activo,Urbano,CALLE 58 E/144 Y 145   ,1900,450-4216,6441026,LA PLATA,LA PLATA,obs0010059@abc.gov.ar,True,False,False,False,False,False,False,False,False,False,True,False,False,False,06441,"CALLE 58 E/144 Y 145   , LA PLATA, LA PLATA, Buenos Aires, Argentina","CALLE 58 58 E/144 Y 145   , LA PLATA, LA PLATA, Buenos Aires, Argentina","CALLE 58 58 E/144 Y 145, LA PLATA, Buenos Aires, Argentina",-57.9364856,-34.9126147,EjhDYWxsZSA1OCAxNDQsIEIxOTAwQlBMIExhIFBsYXRhLCBCdWVub3MgQWlyZXMsIEFyZ2VudGluYQ
Buenos Aires,61773200,ESCUELA SECUNDARIA Nº47,Estatal,Activo,Urbano,28 y 471 434  ,1896,472-1401,6441043,City Bell,LA PLATA,esc.secundaria47@gmail.com,True,False,False,False,False,False,False,False,False,False,True,False,False,False,06441,"28 y 471 434  , City Bell, LA PLATA, Buenos Aires, Argentina","28 y 471 434  , City Bell, LA PLATA, Buenos Aires, Argentina","28 y 471 434, LA PLATA, Buenos Aires, Argentina",-58.0587329,-34.8868745,Ej5DYWxsZSA0NzEgJiBDYWxsZSAyOCwgQjE4OTYgQ2l0eSBCZWxsLCBCdWVub3MgQWlyZXMsIEFyZ2VudGluYQ
Buenos Aires,61773300,ESCUELA SECUNDARIA Nº55,Estatal,Activo,Urbano,6 (E/ 72 Y 73) S/N  VILLA ELVIRA,1900,457-8742,6441026,LA PLATA,LA PLATA,mercedesromero@yahoo.com.ar; obs0010061@abc.gov.ar,True,False,False,False,False,False,False,False,False,False,True,False,False,False,06441,"6 (E/ 72 Y 73) S/N  VILLA ELVIRA, LA PLATA, LA PLATA, Buenos Aires, Argentina","6 (6 (E/ 72 Y 73) S/N  VILLA ELVIRA, LA PLATA, LA PLATA, Buenos Aires, Argentina","6 (6 (E/ 72 Y 73) , LA PLATA, Buenos Aires, Argentina",-57.9146229,-34.9191161,ChIJza6PaFXvopURZUvNQQHeLpo
Buenos Aires,61773400,ESCUELA DE EDUCACIÓN SECUNDARIA Nº72,Estatal,Activo,Urbano,"RUTA 2 - KM 44,500 S/N  ",1894,49-7936,6441011,EL PELIGRO,LA PLATA,tolof650@hotmail.com; obs0010062@abc.gov.ar,True,False,False,False,False,False,False,False,False,False,True,False,False,False,06441,"RUTA 2 - KM 44,500 S/N  , EL PELIGRO, LA PLATA, Buenos Aires, Argentina","RUTA 2 - KM 44,500 S/N  , EL PELIGRO, LA PLATA, Buenos Aires, Argentina","RUTA 2 - KM 44, LA PLATA, Buenos Aires, Argentina",-57.584014,-37.9428095,ChIJ3b4gBsfZhJURxCJPp0BUyfA
Buenos Aires,61773500,ESCUELA SECUNDARIA Nº50,Estatal,Activo,Urbano,120 E/523 Y 524 847  ,1900,588-1481,6441061,TOLOSA,LA PLATA,secundaria50complejolalaguna@yahoo.com.ar,True,False,True,False,False,False,False,False,False,False,True,False,False,False,06441,"120 E/523 Y 524 847  , TOLOSA, LA PLATA, Buenos Aires, Argentina","120 120 E/523 Y 524 847  , TOLOSA, LA PLATA, Buenos Aires, Argentina","120 120 E/523 Y 524 847, LA PLATA, Buenos Aires, Argentina",-57.9685639,-34.8832666,Ei5DYWxsZSA1MjMgMTIwLCBUb2xvc2EsIEJ1ZW5vcyBBaXJlcywgQXJnZW50aW5h
Buenos Aires,61774800,ESCUELA DE EDUCACIÓN SECUNDARIA Nº24,Estatal,Activo,Urbano,VIEYTES 1590  ISLA MACIEL,1871,2003-2554,6035006,DOCK SUD,AVELLANEDA,escuelasecundaria24islamaciel@hotmail.com,True,False,False,False,False,False,False,False,False,False,True,False,False,False,06035,"VIEYTES 1590  ISLA MACIEL, DOCK SUD, AVELLANEDA, Buenos Aires, Argentina","VIEYTES 1590  ISLA MACIEL, DOCK SUD, AVELLANEDA, Buenos Aires, Argentina","VIEYTES 1590, AVELLANEDA, Buenos Aires, Argentina",-58.3761197,-34.6516637,EiZWaWV5dGVzIDE1OTAsIEMxMjc1QUdQIENBQkEsIEFyZ2VudGluYQ
Buenos Aires,61774900,ESCUELA SECUNDARIA Nº27,Estatal,Activo,Urbano,AV. ROCA 325  VILLA TRANQUILA,1870,4201-9072,6035001,AVELLANEDA,AVELLANEDA,ees27avellaneda@gmail.com; escuelasecundaria19avellaneda@gmail.com,True,False,False,False,False,False,False,False,False,False,True,False,False,False,06035,"AV. ROCA 325  VILLA TRANQUILA, AVELLANEDA, AVELLANEDA, Buenos Aires, Argentina","AV. ROCA 325  VILLA TRANQUILA, AVELLANEDA, AVELLANEDA, Buenos Aires, Argentina","AV. ROCA 325, AVELLANEDA, Buenos Aires, Argentina",-58.3626953,-34.6541236,ChIJB2rxr1czo5URj7HP2JzDcvg
Buenos Aires,61775100,ESC. SECUNDARIA BASICA Nº23,Estatal,Activo,Urbano,BAHIA BLANCA E/ R. FRANCO Y SOREDA 585  ,1875,4353-1865,6035013,WILDE,AVELLANEDA,escuelasecundaria23wilde@yahoo.com; obs0050023@abc.gov.ar,True,False,False,False,False,False,False,False,False,False,True,False,False,False,06035,"BAHIA BLANCA E/ R. FRANCO Y SOREDA 585  , WILDE, AVELLANEDA, Buenos Aires, Argentina","BAHIA BLANCA 585  , WILDE, AVELLANEDA, Buenos Aires, Argentina","BAHIA BLANCA 585, AVELLANEDA, Buenos Aires, Argentina",-58.313976,-34.697136,EjpCYWjDrWEgQmxhbmNhIDU4NSwgQjE4NzVDWEsgV2lsZGUsIEJ1ZW5vcyBBaXJlcywgQXJnZW50aW5h
Buenos Aires,61775500,ESC. SECUNDARIA BASICA Nº28,Estatal,Activo,Urbano,AVDA. DEBENEDETTI E/BRIAND Y MAZZINI 1338  ,1871,4222-8365,6035006,DOCK SUD,AVELLANEDA,victoriaabenitez@gmail.com; obs0050028@abc.gov.ar,True,False,False,False,False,False,False,False,False,False,True,False,False,False,06035,"AVDA. DEBENEDETTI E/BRIAND Y MAZZINI 1338  , DOCK SUD, AVELLANEDA, Buenos Aires, Argentina","AVDA. DEBENEDETTI 1338  , DOCK SUD, AVELLANEDA, Buenos Aires, Argentina","AVDA. DEBENEDETTI 1338, AVELLANEDA, Buenos Aires, Argentina",-58.3435262,-34.6500267,EklBdi4gQWd1c3TDrW4gRGViZW5lZGV0dGkgMTMzOCwgQjE4NzFBQUUgRG9jayBTdWQsIEJ1ZW5vcyBBaXJlcywgQXJnZW50aW5h
Buenos Aires,61775700,ESCUELA DE EDUCACIÓN SECUNDARIA Nº30,Estatal,Activo,Urbano,REPÚBLICA DEL LÍBANO 1519  ,1870,4205-1997,6035007,GERLI,AVELLANEDA,30degerly@gmail.com; obs0050030@abc.gov.ar,True,False,False,False,False,False,False,False,False,False,True,False,False,False,06035,"REPÚBLICA DEL LÍBANO 1519  , GERLI, AVELLANEDA, Buenos Aires, Argentina","REPÚBLICA DEL LÍBANO 1519  , GERLI, AVELLANEDA, Buenos Aires, Argentina","REPÚBLICA DEL LÍBANO 1519, AVELLANEDA, Buenos Aires, Argentina",-58.371826,-34.6843349,EkNSZXB1YmxpY2EgZGVsIEzDrWJhbm8gMTUxOSwgQjE4NjlDU00gR2VybGksIEJ1ZW5vcyBBaXJlcywgQXJnZW50aW5h
Buenos Aires,61776300,ESCUELA SECUNDARIA Nº5,Estatal,Activo,Rural,MISSFELDER Y LINARI S/N  OLIDEN,1981,492-6003,6119014,OLIDEN,BRANDSEN,essoliden@gmail.com,True,False,False,False,False,False,False,False,False,False,True,False,False,False,06119,"MISSFELDER Y LINARI S/N  OLIDEN, OLIDEN, BRANDSEN, Buenos Aires, Argentina","MISSFELDER Y LINARI S/N  OLIDEN, OLIDEN, BRANDSEN, Buenos Aires, Argentina","MISSFELDER Y LINARI , BRANDSEN, Buenos Aires, Argentina",,,
Buenos Aires,61776400,ESC. SECUNDARIA BASICA Nº3,Estatal,Activo,Urbano,119 e/ 9 y 10 350  BARRIO LOS TILOS,1980,44-3664,6119003,CORONEL BRANDSEN,BRANDSEN,javierggarcia@hotmail.com; obs0140003@abc.gov.ar,True,False,False,False,False,False,False,False,False,False,True,False,False,False,06119,"119 e/ 9 y 10 350  BARRIO LOS TILOS, CORONEL BRANDSEN, BRANDSEN, Buenos Aires, Argentina","119 119 e/ 9 y 10 350  BARRIO LOS TILOS, CORONEL BRANDSEN, BRANDSEN, Buenos Aires, Argentina","119 119 e/ 9 y 10 350, BRANDSEN, Buenos Aires, Argentina",-58.358619,-34.6342511,ChIJj7fxvrk0o5URxjCMvPrsD90
Buenos Aires,61776900,ESCUELA SECUNDARIA Nº23,Estatal,Activo,Urbano,IGLESIAS 1671  ,1665,46-7546,6412001,JOSE C PAZ,JOSE C. PAZ,libertadnoemi@hotmail.com; obs1320007@abc.gov.ar,True,False,False,False,False,False,False,False,False,False,True,False,False,False,06412,"IGLESIAS 1671  , JOSE C PAZ, JOSE C. PAZ, Buenos Aires, Argentina","IGLESIAS 1671  , JOSE C PAZ, JOSE C. PAZ, Buenos Aires, Argentina","IGLESIAS 1671, JOSE C. PAZ, Buenos Aires, Argentina",-58.7596385,-34.5041072,EkBGLiBJZ2xlc2lhcyAxNjcxLCBCMTY2MElLSCBKb3PDqSBDLiBQYXosIEJ1ZW5vcyBBaXJlcywgQXJnZW50aW5h
Buenos Aires,61778100,ESCUELA DE EDUCACIÓN SECUNDARIA Nº53,Estatal,Activo,Urbano,JONTE E/ FINLAY Y 24 DE NOVIEMBRE S/N  ,1723,499-9516,6539004,MARIANO ACOSTA,MERLO,obs0710012@abc.gov.ar,True,False,False,False,False,False,False,False,False,False,True,False,False,False,06539,"JONTE E/ FINLAY Y 24 DE NOVIEMBRE S/N  , MARIANO ACOSTA, MERLO, Buenos Aires, Argentina","JONTE 24 DE NOVIEMBRE S/N  , MARIANO ACOSTA, MERLO, Buenos Aires, Argentina","JONTE 24 DE NOVIEMBRE , MERLO, Buenos Aires, Argentina",,,
Buenos Aires,61779100,ESCUELA SECUNDARIA Nº28,Estatal,Activo,Urbano,ITUZAINGO 1762  ,1824,4225-2086,6434004,LANUS (ESTE Y OESTE),LANUS,o.patriciaalfonso@yahoo.com.ar; obs1110028@abc.gov.ar,True,False,False,False,False,False,False,False,False,False,True,False,False,False,06434,"ITUZAINGO 1762  , LANUS (ESTE Y OESTE), LANUS, Buenos Aires, Argentina","ITUZAINGO 1762  , LANUS (ESTE Y OESTE), LANUS, Buenos Aires, Argentina","ITUZAINGO 1762, LANUS, Buenos Aires, Argentina",-58.3832497,-34.7114556,ChIJexNJCjrNvJURawvyog3nYQ0
Buenos Aires,61779700,ESC. SECUNDARIA BASICA Nº34,Estatal,Activo,Urbano,DR MERLO 4453  ,1826,4242-2021,6434007,REMEDIOS DE ESCALADA DE SAN MARTIN,LANUS,secundaria34lanus@yahoo.com; obs1110034@abc.gov.ar,True,False,False,False,False,False,False,False,False,False,True,False,False,False,06434,"DR MERLO 4453  , REMEDIOS DE ESCALADA DE SAN MARTIN, LANUS, Buenos Aires, Argentina","DR MERLO 4453  , REMEDIOS DE ESCALADA DE SAN MARTIN, LANUS, Buenos Aires, Argentina","DR MERLO 4453, LANUS, Buenos Aires, Argentina",-58.3977063,-34.7251907,EkhEci4gQS4gTWVsbyA0NDUzLCBCMTgyM0JRTCBSZW1lZGlvcyBkZSBFc2NhbGFkYSwgQnVlbm9zIEFpcmVzLCBBcmdlbnRpbmE
Buenos Aires,61779800,ESC. SECUNDARIA BASICA Nº26,Estatal,Activo,Urbano,PARAGUAY 2105  ,1824,4208-9075,6434008,VALENTIN ALSINA,LANUS,obs1110026@abc.gov.ar,True,False,False,False,False,False,False,False,False,False,True,False,False,False,06434,"PARAGUAY 2105  , VALENTIN ALSINA, LANUS, Buenos Aires, Argentina","PARAGUAY 2105  , VALENTIN ALSINA, LANUS, Buenos Aires, Argentina","PARAGUAY 2105, LANUS, Buenos Aires, Argentina",-58.3965399,-34.6737868,EjhQYXJhZ3VheSAyMTA1LCBWYWxlbnTDrW4gQWxzaW5hLCBCdWVub3MgQWlyZXMsIEFyZ2VudGluYQ
Buenos Aires,61779900,ESC. SECUNDARIA BASICA Nº29,Estatal,Activo,Urbano,BOUCHARD 370  GERLI,1824,4247-2916,6434012,LANUS,LANUS,esb29lanus@gmail.com; obs1110029@abc.gov.ar,True,False,False,False,False,False,False,False,False,False,True,False,False,False,06434,"BOUCHARD 370  GERLI, LANUS, LANUS, Buenos Aires, Argentina","BOUCHARD 370  GERLI, LANUS, LANUS, Buenos Aires, Argentina","BOUCHARD 370, LANUS, Buenos Aires, Argentina",-58.3848453,-34.690197,EjVCb3VjaGFyZCAzNzAsIEIxODIzQVRCIEdlcmxpLCBCdWVub3MgQWlyZXMsIEFyZ2VudGluYQ
Buenos Aires,61780000,ESC. SECUNDARIA BASICA Nº30,Estatal,Activo,Urbano,ANATOLE FRANCE E/ TUCUMAN Y MITRE 1660  ,1824,4247-2510,6434004,LANUS (ESTE Y OESTE),LANUS,esb30lanus@yahoo.com.ar; obs1110030@abc.gov.ar,True,False,False,False,False,False,False,False,False,False,True,False,False,False,06434,"ANATOLE FRANCE E/ TUCUMAN Y MITRE 1660  , LANUS (ESTE Y OESTE), LANUS, Buenos Aires, Argentina","ANATOLE FRANCE 1660  , LANUS (ESTE Y OESTE), LANUS, Buenos Aires, Argentina","ANATOLE FRANCE 1660, LANUS, Buenos Aires, Argentina",-58.3863862,-34.7059044,ChIJ-zsf-CTNvJURikCFhhN6y6s
Buenos Aires,61780100,ESC. SECUNDARIA BASICA Nº31,Estatal,Activo,Urbano,ARISTOBULO DEL VALLE 1503  V.ALVARIÑOS,1824,4241-2092,6434012,LANUS,LANUS,sb31lanus@gmail.com; obs1110031@abc.gov.ar,True,False,False,False,False,False,False,False,False,False,True,False,False,False,06434,"ARISTOBULO DEL VALLE 1503  V.ALVARIÑOS, LANUS, LANUS, Buenos Aires, Argentina","ARISTOBULO DEL VALLE 1503  V.ALVARIÑOS, LANUS, LANUS, Buenos Aires, Argentina","ARISTOBULO DEL VALLE 1503, LANUS, Buenos Aires, Argentina",-58.4127373,-34.7035112,EkpBcmlzdMOzYnVsbyBkZWwgVmFsbGUgMTUwMywgQjE4MjROQlUgTGFuw7pzIE9lc3RlLCBCdWVub3MgQWlyZXMsIEFyZ2VudGluYQ
Buenos Aires,61780200,ESC. SECUNDARIA BASICA Nº32,Estatal,Activo,Urbano,REMEDIOS DE ESCALADA 1480  VILLA LIBERTAD,1824,4208-3223,6434012,LANUS,LANUS,miriam-melo@hotmail.com; obs1110032@abc.gov.ar,True,False,False,False,False,False,False,False,False,False,True,False,False,False,06434,"REMEDIOS DE ESCALADA 1480  VILLA LIBERTAD, LANUS, LANUS, Buenos Aires, Argentina","REMEDIOS DE ESCALADA 1480  VILLA LIBERTAD, LANUS, LANUS, Buenos Aires, Argentina","REMEDIOS DE ESCALADA 1480, LANUS, Buenos Aires, Argentina",-58.3708224,-34.7486663,EjdMYW7DunMgMTQ4MCwgQjE4MjhLS0ogQmFuZmllbGQsIEJ1ZW5vcyBBaXJlcywgQXJnZW50aW5h
Buenos Aires,61780300,ESCUELA DE EDUCACIÓN SECUNDARIA Nº33,Estatal,Activo,Urbano,R.DE ESCALADA E/ PALCIOS Y JEAN JAURE 4231  ,1822,4208-7753,6434008,VALENTIN ALSINA,LANUS,secundaria-33@hotmail.com; obs1110033@abc.gov.ar,True,False,False,False,False,False,False,False,False,False,True,False,False,False,06434,"R.DE ESCALADA E/ PALCIOS Y JEAN JAURE 4231  , VALENTIN ALSINA, LANUS, Buenos Aires, Argentina","R.DE ESCALADA 4231  , VALENTIN ALSINA, LANUS, Buenos Aires, Argentina","R.DE ESCALADA 4231, LANUS, Buenos Aires, Argentina",-58.4579716,-34.6750811,EipBdi4gRXNjYWxhZGEgNDIzMSwgQnVlbm9zIEFpcmVzLCBBcmdlbnRpbmE
Buenos Aires,61780301,ANEXO Nº1 DE ESCUELA DE EDUCACIÓN SECUNDARIA Nº33,Estatal,Activo,Urbano,MADERO 1650  ,1822,4228-1627,6434008,VALENTIN ALSINA,LANUS,esb23lanus@gmail.com; obs1110023@abc.gov.ar,True,False,False,False,False,False,False,False,False,False,True,False,False,False,06434,"MADERO 1650  , VALENTIN ALSINA, LANUS, Buenos Aires, Argentina","MADERO 1650  , VALENTIN ALSINA, LANUS, Buenos Aires, Argentina","MADERO 1650, LANUS, Buenos Aires, Argentina",-58.4230244,-34.6704148,EkdFZHVhcmRvIE1hZGVybyAxNjUwLCBCMTgyNkVURyBWYWxlbnTDrW4gQWxzaW5hLCBCdWVub3MgQWlyZXMsIEFyZ2VudGluYQ
Buenos Aires,61780400,ESCUELA SECUNDARIA Nº24,Estatal,Activo,Urbano,GENERAL MADARIAGA Y NUEVE DE JULIO 1961  ,1824,4247-5621,6434004,LANUS (ESTE Y OESTE),LANUS,esb35lanus@gmail.com,True,False,False,False,False,False,False,False,False,False,True,False,False,False,06434,"GENERAL MADARIAGA Y NUEVE DE JULIO 1961  , LANUS (ESTE Y OESTE), LANUS, Buenos Aires, Argentina","GENERAL MADARIAGA Y NUEVE DE JULIO 1961  , LANUS (ESTE Y OESTE), LANUS, Buenos Aires, Argentina","GENERAL MADARIAGA Y NUEVE DE JULIO 1961, LANUS, Buenos Aires, Argentina",-58.3807757,-34.7146821,EkxBdi4gOSBkZSBKdWxpbyAmIEdyYWwuIE1hZGFyaWFnYSwgQjE4MjUgTGFuw7pzIEVzdGUsIEJ1ZW5vcyBBaXJlcywgQXJnZW50aW5h
Buenos Aires,61780500,ESC. SECUNDARIA BASICA Nº37,Estatal,Activo,Urbano,BOLAÑOS Y DONOVAN 672  ,1824,3653-6765,6434004,LANUS (ESTE Y OESTE),LANUS,esb37lanus@yahoo.com.ar; obs1110037@abc.gov.ar,True,False,False,False,False,False,False,False,False,False,True,False,False,False,06434,"BOLAÑOS Y DONOVAN 672  , LANUS (ESTE Y OESTE), LANUS, Buenos Aires, Argentina","BOLAÑOS Y DONOVAN 672  , LANUS (ESTE Y OESTE), LANUS, Buenos Aires, Argentina","BOLAÑOS Y DONOVAN 672, LANUS, Buenos Aires, Argentina",-58.381292,-34.695078,EkFHcmFsLiBEb25vdmFuICYgSi4gQm9sYcOxb3MsIEIxODIzIEdlcmxpLCBCdWVub3MgQWlyZXMsIEFyZ2VudGluYQ
Buenos Aires,61780600,ESCUELA SECUNDARIA Nº25,Estatal,Activo,Urbano,DEAN FUNES 4436  ,1824,4267-3272,6434012,LANUS,LANUS,0bs1110039@abc.gov.ar; obs1110039@abc.gov.ar,True,False,False,False,False,False,False,False,False,False,True,False,False,False,06434,"DEAN FUNES 4436  , LANUS, LANUS, Buenos Aires, Argentina","DEAN FUNES 4436  , LANUS, LANUS, Buenos Aires, Argentina","DEAN FUNES 4436, LANUS, Buenos Aires, Argentina",-58.4342913,-34.7039992,EkBEZcOhbiBGdW5lcyA0NDM2LCBCMTgyNkZPQSBMYW7DunMgT2VzdGUsIEJ1ZW5vcyBBaXJlcywgQXJnZW50aW5h
Buenos Aires,61780700,ESCUELA DE EDUCACIÓN SECUNDARIA Nº41,Estatal,Activo,Urbano,CARLOS GARDEL Y NOYA 1011  ,1824,4241-0925,6434012,LANUS,LANUS,esb41lanus@hotmail.com; obs1110041@abc.gov.ar,True,False,False,False,False,False,False,False,False,False,True,False,False,False,06434,"CARLOS GARDEL Y NOYA 1011  , LANUS, LANUS, Buenos Aires, Argentina","CARLOS GARDEL Y NOYA 1011  , LANUS, LANUS, Buenos Aires, Argentina","CARLOS GARDEL Y NOYA 1011, LANUS, Buenos Aires, Argentina",-58.415144,-34.6669799,ChIJZ8nKKYDMvJUR1EwNYC8BW3Q
Buenos Aires,61780800,ESCUELA DE EDUCACIÓN SECUNDARIA Nº43,Estatal,Activo,Urbano,ANDRADE E/URQUIZA Y 14 DE JULIO 740  ,1824,4357-2280,6434012,LANUS,LANUS,esb43lanus@yahoo.com.ar; esb43lanus@yahoo.com.ar; obs1110043@abc.gov.ar,True,False,False,False,False,False,False,False,False,False,True,False,False,False,06434,"ANDRADE E/URQUIZA Y 14 DE JULIO 740  , LANUS, LANUS, Buenos Aires, Argentina","ANDRADE 14 DE JULIO 740  , LANUS, LANUS, Buenos Aires, Argentina","ANDRADE 14 DE JULIO 740, LANUS, Buenos Aires, Argentina",-58.4041145,-34.7135185,ChIJLyMCdhDNvJURV2edbEXOM8s
Buenos Aires,61780900,ESCUELA DE EDUCACIÓN SECUNDARIA Nº38,Estatal,Activo,Urbano,PILCOMAYO E/M. PEDRAZA Y WARNES   ,1824,False,6434012,LANUS,LANUS,secundaria44delanus@hotmail.com; obs1110044@abc.gov.ar,True,False,False,False,False,False,False,False,False,False,True,False,False,False,06434,"PILCOMAYO E/M. PEDRAZA Y WARNES   , LANUS, LANUS, Buenos Aires, Argentina","PILCOMAYO E/M. PEDRAZA Y WARNES   , LANUS, LANUS, Buenos Aires, Argentina","PILCOMAYO E/M. PEDRAZA Y WARNES   , LANUS, LANUS, Buenos Aires, Argentina",,,
Buenos Aires,61781000,ESC. SECUNDARIA BASICA Nº45,Estatal,Activo,Urbano,EVA PERON 3800  VILLA BESADA,1825,4230-0322,6434005,MONTE CHINGOLO,LANUS,sb45lanus@gmail.com; obs1110045@abc.gov.ar,True,False,False,False,False,False,False,False,False,False,True,False,False,False,06434,"EVA PERON 3800  VILLA BESADA, MONTE CHINGOLO, LANUS, Buenos Aires, Argentina","EVA PERON 3800  VILLA BESADA, MONTE CHINGOLO, LANUS, Buenos Aires, Argentina","EVA PERON 3800, LANUS, Buenos Aires, Argentina",-58.3548538,-34.7307183,ChIJPw71y1gto5UR8xKbwyQIkgo
Buenos Aires,61781200,ESC. SECUNDARIA BASICA Nº47,Estatal,Activo,Urbano,JEAN JAURES Y FERNANDEZ 1502  ,1824,4208-9075,6434008,VALENTIN ALSINA,LANUS,coccomyrian@yahoo.com.ar; obs1110047@abc.gov.ar,True,False,False,False,False,False,False,False,False,False,True,False,False,False,06434,"JEAN JAURES Y FERNANDEZ 1502  , VALENTIN ALSINA, LANUS, Buenos Aires, Argentina","JEAN JAURES Y FERNANDEZ 1502  , VALENTIN ALSINA, LANUS, Buenos Aires, Argentina","JEAN JAURES Y FERNANDEZ 1502, LANUS, Buenos Aires, Argentina",-58.3961935,-34.6812477,EkZKZWFuIEphdXJlcyAmIEVucmlxdWUgRmVybsOhbmRleiwgQjE4MjMgR2VybGksIEJ1ZW5vcyBBaXJlcywgQXJnZW50aW5h
Buenos Aires,61781300,ESCUELA DE EDUCACIÓN SECUNDARIA Nº39,Estatal,Activo,Urbano,VILLEGAS E/ IBARLUCEA Y MELO 363  ,1826,4242-0275,6434007,REMEDIOS DE ESCALADA DE SAN MARTIN,LANUS,esb48_escalada@hotmail.com; obs1110048@abc.gov.ar,True,False,False,False,False,False,False,False,False,False,True,False,False,False,06434,"VILLEGAS E/ IBARLUCEA Y MELO 363  , REMEDIOS DE ESCALADA DE SAN MARTIN, LANUS, Buenos Aires, Argentina","VILLEGAS 363  , REMEDIOS DE ESCALADA DE SAN MARTIN, LANUS, Buenos Aires, Argentina","VILLEGAS 363, LANUS, Buenos Aires, Argentina",-58.3994425,-34.7336708,EkdHcmFsLiBWaWxsZWdhcyAzNjMsIEIxODIzIFJlbWVkaW9zIGRlIEVzY2FsYWRhLCBCdWVub3MgQWlyZXMsIEFyZ2VudGluYQ
Buenos Aires,61781500,ESCUELA DE EDUCACIÓN SECUNDARIA Nº40,Estatal,Activo,Urbano,BOUCHARD 4491  ,1825,4246-8642,6434005,MONTE CHINGOLO,LANUS,escb51@yahoo.com.ar; obs1110051@abc.gov.ar,True,False,False,False,False,False,False,False,False,False,True,False,False,False,06434,"BOUCHARD 4491  , MONTE CHINGOLO, LANUS, Buenos Aires, Argentina","BOUCHARD 4491  , MONTE CHINGOLO, LANUS, Buenos Aires, Argentina","BOUCHARD 4491, LANUS, Buenos Aires, Argentina",-58.3445513,-34.7222133,Ej9Cb3VjaGFyZCA0NDkxLCBCMTgyM0NGUiBNb250ZSBDaGluZ29sbywgQnVlbm9zIEFpcmVzLCBBcmdlbnRpbmE
Buenos Aires,61781600,ESCUELA SECUNDARIA Nº34,Estatal,Activo,Urbano,JOSE LEON SUAREZ 3942  ,1824,4267-2738,6434012,LANUS,LANUS,esb52lanus@yahoo.com.ar; obs1110052@abc.gov.ar,True,False,False,False,False,False,False,False,False,False,True,False,False,False,06434,"JOSE LEON SUAREZ 3942  , LANUS, LANUS, Buenos Aires, Argentina","JOSE LEON SUAREZ 3942  , LANUS, LANUS, Buenos Aires, Argentina","JOSE LEON SUAREZ 3942, LANUS, Buenos Aires, Argentina",-58.4333921,-34.7044783,Ek5DYWxsZSBKb3PDqSBMZcOzbiBTdcOhcmV6IDM5NDIsIEIxODI2QkFUIExhbsO6cyBPZXN0ZSwgQnVlbm9zIEFpcmVzLCBBcmdlbnRpbmE
Buenos Aires,61781700,ESC. SECUNDARIA BASICA Nº54,Estatal,Activo,Urbano,CORONEL PRINGLES 4290  ,1825,4230-2020,6434005,MONTE CHINGOLO,LANUS,esb54lanus@gmail.com.ar; obs1110054@abc.gov.ar,True,False,False,False,False,False,False,False,False,False,True,False,False,False,06434,"CORONEL PRINGLES 4290  , MONTE CHINGOLO, LANUS, Buenos Aires, Argentina","CORONEL PRINGLES 4290  , MONTE CHINGOLO, LANUS, Buenos Aires, Argentina","CORONEL PRINGLES 4290, LANUS, Buenos Aires, Argentina",-58.3524662,-34.7263902,EkVDbmVsLiBQcmluZ2xlcyA0MjkwLCBCMTgyNkRaQiBNb250ZSBDaGluZ29sbywgQnVlbm9zIEFpcmVzLCBBcmdlbnRpbmE
Buenos Aires,61781800,ESCUELA SECUNDARIA Nº29,Estatal,Activo,Urbano,SANTIAGO PLAUL E/ OCAMPO Y LINIERS 1832  VILLA INDUSTRIALES,1824,4262-1774,6434012,LANUS,LANUS,esb55lanus@gmail.com; obs1110055@abc.gov.ar,True,False,False,False,False,False,False,False,False,False,True,False,False,False,06434,"SANTIAGO PLAUL E/ OCAMPO Y LINIERS 1832  VILLA INDUSTRIALES, LANUS, LANUS, Buenos Aires, Argentina","SANTIAGO PLAUL 1832  VILLA INDUSTRIALES, LANUS, LANUS, Buenos Aires, Argentina","SANTIAGO PLAUL 1832, LANUS, Buenos Aires, Argentina",-58.4065868,-34.6888247,EkNTYW50aWFnbyBQbGF1bCAxODMyLCBCMTgyNEZFVCBMYW7DunMgT2VzdGUsIEJ1ZW5vcyBBaXJlcywgQXJnZW50aW5h
Buenos Aires,61781900,ESC. SECUNDARIA BASICA Nº56,Estatal,Activo,Urbano,PTE DERQUI E/ ROJAS Y SAN MARTIN 1665  POMPEO,1824,4240-4683,6434004,LANUS (ESTE Y OESTE),LANUS,esb56lanus@gmail.com; obs1110056@abc.gov.ar,True,False,False,False,False,False,False,False,False,False,True,False,False,False,06434,"PTE DERQUI E/ ROJAS Y SAN MARTIN 1665  POMPEO, LANUS (ESTE Y OESTE), LANUS, Buenos Aires, Argentina","PTE DERQUI 1665  POMPEO, LANUS (ESTE Y OESTE), LANUS, Buenos Aires, Argentina","PTE DERQUI 1665, LANUS, Buenos Aires, Argentina",-58.4157487,-34.7051302,ChIJe8Mevf_MvJUR_6wkXryde0E
Buenos Aires,61782000,ESC. SECUNDARIA BASICA Nº58,Estatal,Activo,Urbano,YATAY 2850  VILLA DIAMANTE,1824,4368-7062,6434012,LANUS,LANUS,sb58lanus@yahoo.com.ar; obs1110058@abc.gov.ar,True,False,False,False,False,False,False,False,False,False,True,False,False,False,06434,"YATAY 2850  VILLA DIAMANTE, LANUS, LANUS, Buenos Aires, Argentina","YATAY 2850  VILLA DIAMANTE, LANUS, LANUS, Buenos Aires, Argentina","YATAY 2850, LANUS, Buenos Aires, Argentina",-58.4348797,-34.6908472,ChIJGSQ8JGrMvJUR0X_RtZ7G7-o
Buenos Aires,61782100,ESCUELA SECUNDARIA Nº36,Estatal,Activo,Urbano,BOULEVAR DE LOS ITALIANOS Y PICHINCHA 3821  monte chingolo,1825,4289-2321,6434005,MONTE CHINGOLO,LANUS,esb59distritolanus@gmail.com; esb59delanus@gmail.com; obs1110059@abc.gov.ar,True,False,False,False,False,False,False,False,False,False,True,False,False,False,06434,"BOULEVAR DE LOS ITALIANOS Y PICHINCHA 3821  monte chingolo, MONTE CHINGOLO, LANUS, Buenos Aires, Argentina","BOULEVAR DE LOS ITALIANOS Y PICHINCHA 3821  monte chingolo, MONTE CHINGOLO, LANUS, Buenos Aires, Argentina","BOULEVAR DE LOS ITALIANOS Y PICHINCHA 3821, LANUS, Buenos Aires, Argentina",-58.3499779,-34.7168647,ChIJIZxNfL0yo5URJ8j34AFINBo
Buenos Aires,61782200,ESCUELA DE EDUCACIÓN SECUNDARIA Nº42,Estatal,Activo,Urbano,YAPEYÚ Y PICHINCHA 1155  VILLA OFELIA,1825,4289-2922,6434005,MONTE CHINGOLO,LANUS,sb60_lanus@yahoo.com.ar; obs1110060@abc.gov.ar,True,False,False,False,False,False,False,False,False,False,True,False,False,False,06434,"YAPEYÚ Y PICHINCHA 1155  VILLA OFELIA, MONTE CHINGOLO, LANUS, Buenos Aires, Argentina","YAPEYÚ Y PICHINCHA 1155  VILLA OFELIA, MONTE CHINGOLO, LANUS, Buenos Aires, Argentina","YAPEYÚ Y PICHINCHA 1155, LANUS, Buenos Aires, Argentina",-58.3410113,-34.732338,EkJQaWNoaW5jaGEgJiBZYXBlecO6LCBCMTgyNSBNb250ZSBDaGluZ29sbywgQnVlbm9zIEFpcmVzLCBBcmdlbnRpbmE
Buenos Aires,61782300,ESC. SECUNDARIA BASICA Nº61,Estatal,Activo,Urbano,JUAN FARREL 3334  Villa Giardino,1822,4218-3612,6434004,LANUS (ESTE Y OESTE),LANUS,esbsesentayuno@gmail.com; obs1110061@abc.gov.ar,True,False,False,False,False,False,False,False,False,False,True,False,False,False,06434,"JUAN FARREL 3334  Villa Giardino, LANUS (ESTE Y OESTE), LANUS, Buenos Aires, Argentina","JUAN FARREL 3334  Villa Giardino, LANUS (ESTE Y OESTE), LANUS, Buenos Aires, Argentina","JUAN FARREL 3334, LANUS, Buenos Aires, Argentina",-58.4348797,-34.6908472,ChIJGSQ8JGrMvJUR0X_RtZ7G7-o
Buenos Aires,61782400,ESCUELA DE EDUCACIÓN SECUNDARIA Nº44,Estatal,Activo,Urbano,3 DE FEBRERO 4127  ,1826,4267-3870,6434007,REMEDIOS DE ESCALADA DE SAN MARTIN,LANUS,esb63lanus@yahoo.com.ar; obs1110063@abc.gov.ar,True,False,False,False,False,False,False,False,False,False,True,False,False,False,06434,"3 DE FEBRERO 4127  , REMEDIOS DE ESCALADA DE SAN MARTIN, LANUS, Buenos Aires, Argentina","3 DE FEBRERO 4127  , REMEDIOS DE ESCALADA DE SAN MARTIN, LANUS, Buenos Aires, Argentina","3 DE FEBRERO 4127, LANUS, Buenos Aires, Argentina",-58.4154949,-34.7243267,EkkzIGRlIEZlYnJlcm8gNDEyNywgQjE4MjRLSlggUmVtZWRpb3MgZGUgRXNjYWxhZGEsIEJ1ZW5vcyBBaXJlcywgQXJnZW50aW5h
Buenos Aires,61784000,ESCUELA SECUNDARIA Nº7,Estatal,Activo,Urbano,9 y 14bis 363  ,1925,466-2014,6245010,PUNTA LARA,ENSENADA,patricia_g_06@hotmail.com,True,False,False,False,False,False,False,False,False,False,True,False,False,False,06245,"9 y 14bis 363  , PUNTA LARA, ENSENADA, Buenos Aires, Argentina","9 y 14bis 363  , PUNTA LARA, ENSENADA, Buenos Aires, Argentina","9 y 14bis 363, ENSENADA, Buenos Aires, Argentina",-57.9453339,-34.8392234,EjlDYWxsZSAxNCBCaXMgJiBDYWxsZSA5LCBFbnNlbmFkYSwgQnVlbm9zIEFpcmVzLCBBcmdlbnRpbmE
Buenos Aires,61784100,ESCUELA SECUNDARIA Nº6,Estatal,Activo,Urbano,Pte Illia y Saenz Peña S/N  ,1925,460-1929,6245005,ENSENADA,ENSENADA,ees6ensenada@gmail.com; obs1140008@abc.gov.ar,True,False,False,False,False,False,False,False,False,False,True,False,False,False,06245,"Pte Illia y Saenz Peña S/N  , ENSENADA, ENSENADA, Buenos Aires, Argentina","Pte Illia y Saenz Peña S/N  , ENSENADA, ENSENADA, Buenos Aires, Argentina","Pte Illia y Saenz Peña , ENSENADA, Buenos Aires, Argentina",-57.9175327,-34.863361,EkFEci4gQS4gVS4gSWxsaWEgJiBTw6FlbnogUGXDsWEsIEVuc2VuYWRhLCBCdWVub3MgQWlyZXMsIEFyZ2VudGluYQ
Buenos Aires,61784200,ESCUELA SECUNDARIA Nº5,Estatal,Activo,Urbano,J.V. GONZALEZ Y ROLDAN S/N  ,1925,469-0315,6245005,ENSENADA,ENSENADA,ees5ensenada@gmail.com; obs1140009@abc.gov.ar,True,False,False,False,False,False,False,False,False,False,True,False,False,False,06245,"J.V. GONZALEZ Y ROLDAN S/N  , ENSENADA, ENSENADA, Buenos Aires, Argentina","J.V. GONZALEZ Y ROLDAN S/N  , ENSENADA, ENSENADA, Buenos Aires, Argentina","J.V. GONZALEZ Y ROLDAN , ENSENADA, Buenos Aires, Argentina",-57.9154656,-34.8767467,EjxSb2xkw6FuICYgSi4gVi4gR29uesOhbGV6LCBFbnNlbmFkYSwgQnVlbm9zIEFpcmVzLCBBcmdlbnRpbmE
Buenos Aires,61784300,ESCUELA SECUNDARIA Nº3,Estatal,Activo,Urbano,123 y DIAGONAL 74 S/N  VILLA CATELA,1925,421-2997,6245005,ENSENADA,ENSENADA,False,True,False,False,False,False,False,False,False,False,False,True,False,False,False,06245,"123 y DIAGONAL 74 S/N  VILLA CATELA, ENSENADA, ENSENADA, Buenos Aires, Argentina","123 y DIAGONAL 74 S/N  VILLA CATELA, ENSENADA, ENSENADA, Buenos Aires, Argentina","123 y DIAGONAL 74 , ENSENADA, Buenos Aires, Argentina",-57.9575762,-34.8872861,ChIJRfqyl_7mopURDUm0XO0HGV8
Buenos Aires,61784301,EXTENSION I DE ESCUELA SECUNDARIA Nº3,Estatal,Activo,Urbano,126 y 38 bis. S/N  Villa Catella,1925,427-5480,6245005,ENSENADA,ENSENADA,False,True,False,False,False,False,False,False,False,False,False,True,False,False,False,06245,"126 y 38 bis. S/N  Villa Catella, ENSENADA, ENSENADA, Buenos Aires, Argentina","126 y 38 bis. S/N  Villa Catella, ENSENADA, ENSENADA, Buenos Aires, Argentina","126 y 38 bis. , ENSENADA, Buenos Aires, Argentina",-57.943454,-34.8895893,EjtDYWxsZSAzOCBCaXMgJiBDYWxsZSAxMjYsIEVuc2VuYWRhLCBCdWVub3MgQWlyZXMsIEFyZ2VudGluYQ
Buenos Aires,61785300,ESCUELA SECUNDARIA Nº39,Estatal,Activo,Urbano,PRESIDENTE PERON 367  ,1846,4214-6263,6028001,ALMIRANTE BROWN,ALMIRANTE BROWN,secbasica013@yahoo.com.ar; mjosefinallaurada@hotmail.com; obs0040013@abc.gov.ar,True,False,False,False,False,False,False,False,False,False,True,False,False,False,06028,"PRESIDENTE PERON 367  , ALMIRANTE BROWN, ALMIRANTE BROWN, Buenos Aires, Argentina","PRESIDENTE PERON 367  , ALMIRANTE BROWN, ALMIRANTE BROWN, Buenos Aires, Argentina","PRESIDENTE PERON 367, ALMIRANTE BROWN, Buenos Aires, Argentina",-58.4058016,-34.9219213,Ej5BbG10ZSBCcm93biAzNjcsIEIxODU4Rk1ZIFByZXMuIFBlcm9uLCBCdWVub3MgQWlyZXMsIEFyZ2VudGluYQ
Buenos Aires,61785400,ESC. SECUNDARIA BASICA Nº15,Estatal,Activo,Urbano,SEGUI Y CORDERO   ,1846,4214-1230,6028015,ADROGUE,ALMIRANTE BROWN,secbas15@yahoo.com.ar; obs0040015@abc.gov.ar,True,False,False,False,False,False,False,False,False,False,True,False,False,False,06028,"SEGUI Y CORDERO   , ADROGUE, ALMIRANTE BROWN, Buenos Aires, Argentina","SEGUI Y CORDERO   , ADROGUE, ALMIRANTE BROWN, Buenos Aires, Argentina","SEGUI Y CORDERO   , ADROGUE, ALMIRANTE BROWN, Buenos Aires, Argentina",-58.3964187,-34.8000042,EkNDb3JkZXJvICYgRnJhbmNpc2NvIFNlZ3XDrSwgQjE4NDYgQWRyb2d1w6ksIEJ1ZW5vcyBBaXJlcywgQXJnZW50aW5h
Buenos Aires,61785500,ESCUELA SECUNDARIA Nº31,Estatal,Activo,Urbano,FERRE E/CANALE Y SANCHEZ JOSE MARMOL 479  ,1846,4294-4643,6028007,JOSE MARMOL,ALMIRANTE BROWN,ees31@hotmail.com; obs0040004@abc.gov.ar,True,False,False,False,False,False,False,False,False,False,True,False,False,False,06028,"FERRE E/CANALE Y SANCHEZ JOSE MARMOL 479  , JOSE MARMOL, ALMIRANTE BROWN, Buenos Aires, Argentina","FERRE 479  , JOSE MARMOL, ALMIRANTE BROWN, Buenos Aires, Argentina","FERRE 479, ALMIRANTE BROWN, Buenos Aires, Argentina",-58.3745688,-34.786157,EjpGZXJyw6kgNDc5LCBCMTg0NUFYSiBKb3PDqSBNYXJtb2wsIEJ1ZW5vcyBBaXJlcywgQXJnZW50aW5h
Buenos Aires,61785600,ESCUELA DE EDUCACIÓN SECUNDARIA Nº57,Estatal,Activo,Urbano,LAHILLE 388  ,1854,4279-2855,6028011,MINISTRO RIVADAVIA,ALMIRANTE BROWN,ees57ministro@gmail.com; obs0040016@abc.gov.ar,True,False,False,False,False,False,False,False,False,False,True,False,False,False,06028,"LAHILLE 388  , MINISTRO RIVADAVIA, ALMIRANTE BROWN, Buenos Aires, Argentina","LAHILLE 388  , MINISTRO RIVADAVIA, ALMIRANTE BROWN, Buenos Aires, Argentina","LAHILLE 388, ALMIRANTE BROWN, Buenos Aires, Argentina",-58.3634682,-34.842906,EkpGZXJuYW5kbyBMYWhpbGxlIDM4OCwgQjE4NDhBV0ggTWluaXN0cm8gUml2YWRhdmlhLCBCdWVub3MgQWlyZXMsIEFyZ2VudGluYQ
Buenos Aires,61785900,ESCUELA DE EDUCACIÓN SECUNDARIA Nº55,Estatal,Activo,Urbano,AGUIRRE 2650  BARRIO LOS ALAMOS,1856,42-5362,6028006,GLEW,ALMIRANTE BROWN,esb26_glew@yahoo.com.ar; obs0040026@abc.gov.ar,True,False,False,False,False,False,False,False,False,False,True,False,False,False,06028,"AGUIRRE 2650  BARRIO LOS ALAMOS, GLEW, ALMIRANTE BROWN, Buenos Aires, Argentina","AGUIRRE 2650  BARRIO LOS ALAMOS, GLEW, ALMIRANTE BROWN, Buenos Aires, Argentina","AGUIRRE 2650, ALMIRANTE BROWN, Buenos Aires, Argentina",-58.3936632,-34.8777889,ChIJQ1WYxT_VvJURFodt1_QOmT4
Buenos Aires,61786000,ESCUELA SECUNDARIA Nº28,Estatal,Activo,Urbano,CAPILLA DEL SEÑOR 1656  ,1847,4294-8101,6028013,RAFAEL CALZADA,ALMIRANTE BROWN,brownsb28@yahoo.com.ar; obs0040028@abc.gov.ar,True,False,False,False,False,False,False,False,False,False,True,False,False,False,06028,"CAPILLA DEL SEÑOR 1656  , RAFAEL CALZADA, ALMIRANTE BROWN, Buenos Aires, Argentina","CAPILLA DEL SEÑOR 1656  , RAFAEL CALZADA, ALMIRANTE BROWN, Buenos Aires, Argentina","CAPILLA DEL SEÑOR 1656, ALMIRANTE BROWN, Buenos Aires, Argentina",-58.3711505,-34.802095,EklDYXBpbGxhIGRlbCBTZcOxb3IgMTY1NiwgQjE4NDdBRUQgUmFmYWVsIENhbHphZGEsIEJ1ZW5vcyBBaXJlcywgQXJnZW50aW5h
Buenos Aires,61786200,ESCUELA DE EDUCACION SECUNDARIA Nº25,Estatal,Activo,Urbano,M. CALDERON Y CANE - BO. GENDARMERIA 295  PJE. GENDARMERIA,1856,42-3162,6028006,GLEW,ALMIRANTE BROWN,secuandaria31@yahoo.com.ar; ees25glew@gmail.com,True,False,False,False,False,False,False,False,False,False,True,False,False,False,06028,"M. CALDERON Y CANE - BO. GENDARMERIA 295  PJE. GENDARMERIA, GLEW, ALMIRANTE BROWN, Buenos Aires, Argentina","M. CALDERON Y CANE - BO. GENDARMERIA 295  PJE. GENDARMERIA, GLEW, ALMIRANTE BROWN, Buenos Aires, Argentina","M. CALDERON Y CANE - BO. GENDARMERIA 295, ALMIRANTE BROWN, Buenos Aires, Argentina",,,
Buenos Aires,61786300,ESCUELA DE EDUCACIÓN SECUNDARIA Nº61,Estatal,Activo,Urbano,CATAMARCA Y AVELLANEDA   ,1847,4219-4247,6028013,RAFAEL CALZADA,ALMIRANTE BROWN,sec00432@yahoo.com; edale72@hotmail.com; obs0040032@abc.gov.ar,True,False,False,False,False,False,False,False,False,False,True,False,False,False,06028,"CATAMARCA Y AVELLANEDA   , RAFAEL CALZADA, ALMIRANTE BROWN, Buenos Aires, Argentina","CATAMARCA Y AVELLANEDA   , RAFAEL CALZADA, ALMIRANTE BROWN, Buenos Aires, Argentina","CATAMARCA Y AVELLANEDA   , RAFAEL CALZADA, ALMIRANTE BROWN, Buenos Aires, Argentina",-58.3581478,-34.7677063,EiJDYXRhbWFyY2EsIEJ1ZW5vcyBBaXJlcywgQXJnZW50aW5h
Buenos Aires,61786400,ESCUELA DE EDUCACIÓN SECUNDARIA Nº49,Estatal,Activo,Urbano,OBLIGADO E/ GORRITI Y E. DEL CAMPO 235  ,1856,42-4949,6028006,GLEW,ALMIRANTE BROWN,escb34@hotmail.com; maricardoso_60@yahoo.com.ar; obs0040034@abc.gov.ar,True,False,False,False,False,False,False,False,False,False,True,False,False,False,06028,"OBLIGADO E/ GORRITI Y E. DEL CAMPO 235  , GLEW, ALMIRANTE BROWN, Buenos Aires, Argentina","OBLIGADO 235  , GLEW, ALMIRANTE BROWN, Buenos Aires, Argentina","OBLIGADO 235, ALMIRANTE BROWN, Buenos Aires, Argentina",-58.3808321,-34.8894634,ChIJzUmX51DVvJURLDVPEw6h7_M
Buenos Aires,61786600,ESCUELA DE EDUCACION SECUNDARIA Nº26,Estatal,Activo,Urbano,SCALABRINI ORTIZ 2560  VILLA PARIS,1856,42-7786,6028006,GLEW,ALMIRANTE BROWN,ees266lew@gmail.com,True,False,False,False,False,False,False,False,False,False,True,False,False,False,06028,"SCALABRINI ORTIZ 2560  VILLA PARIS, GLEW, ALMIRANTE BROWN, Buenos Aires, Argentina","SCALABRINI ORTIZ 2560  VILLA PARIS, GLEW, ALMIRANTE BROWN, Buenos Aires, Argentina","SCALABRINI ORTIZ 2560, ALMIRANTE BROWN, Buenos Aires, Argentina",-58.3787429,-34.87909,ChIJl6v0P0nVvJUR8xBcfjslVUU
Buenos Aires,61786700,ESCUELA SECUNDARIA Nº29,Estatal,Activo,Urbano,JOSE HERNANDEZ Y (VILCAPUGIO) 2210  ,1849,4219-6001,6028004,CLAYPOLE,ALMIRANTE BROWN,esb.escuela38@yahoo.com.ar; obs0040038@abc.gov.ar,True,False,False,False,False,False,False,False,False,False,True,False,False,False,06028,"JOSE HERNANDEZ Y (VILCAPUGIO) 2210  , CLAYPOLE, ALMIRANTE BROWN, Buenos Aires, Argentina","JOSE HERNANDEZ Y (VILCAPUGIO) 2210  , CLAYPOLE, ALMIRANTE BROWN, Buenos Aires, Argentina","JOSE HERNANDEZ Y (VILCAPUGIO) 2210, ALMIRANTE BROWN, Buenos Aires, Argentina",-58.3520083,-34.8089347,EkBWaWxjYXB1Z2lvICYgSm9zw6kgSGVybsOhbmRleiwgQ2xheXBvbGUsIEJ1ZW5vcyBBaXJlcywgQXJnZW50aW5h
Buenos Aires,61786800,ESCUELA DE EDUCACIÓN SECUNDARIA Nº59,Estatal,Activo,Urbano,FRANKLIN 1356  BARRIO GORRITI,1856,43-3161,6028006,GLEW,ALMIRANTE BROWN,esbasica@gmail.com; obs0040039@abc.gov.ar,True,False,False,False,False,False,False,False,False,False,True,False,False,False,06028,"FRANKLIN 1356  BARRIO GORRITI, GLEW, ALMIRANTE BROWN, Buenos Aires, Argentina","FRANKLIN 1356  BARRIO GORRITI, GLEW, ALMIRANTE BROWN, Buenos Aires, Argentina","FRANKLIN 1356, ALMIRANTE BROWN, Buenos Aires, Argentina",-58.3953329,-34.9071443,Ej9CZW5qYW3DrW4gRnJhbmtsaW4gMTM1NiwgQjE4NTZFTEIgR2xldywgQnVlbm9zIEFpcmVzLCBBcmdlbnRpbmE
Buenos Aires,61786900,ESC. SECUNDARIA BASICA Nº40,Estatal,Activo,Urbano,AV.SAN MARTIN Y SAN MARCOS 1735  ,1847,4236-6641,6028013,RAFAEL CALZADA,ALMIRANTE BROWN,bs_0040_000@yahoo.com; obs0040040@abc.gov.ar,True,False,False,False,False,False,False,False,False,False,True,False,False,False,06028,"AV.SAN MARTIN Y SAN MARCOS 1735  , RAFAEL CALZADA, ALMIRANTE BROWN, Buenos Aires, Argentina","AV.SAN MARTIN Y SAN MARCOS 1735  , RAFAEL CALZADA, ALMIRANTE BROWN, Buenos Aires, Argentina","AV.SAN MARTIN Y SAN MARCOS 1735, ALMIRANTE BROWN, Buenos Aires, Argentina",-58.3393842,-34.7818366,EkVTYW4gTWFyY29zICYgQXYuIFNhbiBNYXJ0w61uLCBSYWZhZWwgQ2FsemFkYSwgQnVlbm9zIEFpcmVzLCBBcmdlbnRpbmE
Buenos Aires,61787000,ESC. SECUNDARIA BASICA Nº41,Estatal,Activo,Urbano,ROSALES E/ SAN JUAN Y MENDOZA 1903  ,1846,4219-5527,6028007,JOSE MARMOL,ALMIRANTE BROWN,esb41brown@hotmail.com; obs0040041@abc.gov.ar,True,False,False,False,False,False,False,False,False,False,True,False,False,False,06028,"ROSALES E/ SAN JUAN Y MENDOZA 1903  , JOSE MARMOL, ALMIRANTE BROWN, Buenos Aires, Argentina","ROSALES 1903  , JOSE MARMOL, ALMIRANTE BROWN, Buenos Aires, Argentina","ROSALES 1903, ALMIRANTE BROWN, Buenos Aires, Argentina",-58.380531,-34.7957589,EkZMZcOzbmFyZG8gUm9zYWxlcyAxOTAzLCBCMTg0NUNOQiBKb3PDqSBNYXJtb2wsIEJ1ZW5vcyBBaXJlcywgQXJnZW50aW5h
Buenos Aires,61787100,ESCUELA SECUNDARIA Nº21,Estatal,Activo,Urbano,ALAMO Y LAPACHO 3551  BARRIO LA LINDA,1852,4297-7969,6028003,BURZACO,ALMIRANTE BROWN,secundaria21abrown@gmail.com,True,False,False,False,False,False,False,False,False,False,True,False,False,False,06028,"ALAMO Y LAPACHO 3551  BARRIO LA LINDA, BURZACO, ALMIRANTE BROWN, Buenos Aires, Argentina","ALAMO Y LAPACHO 3551  BARRIO LA LINDA, BURZACO, ALMIRANTE BROWN, Buenos Aires, Argentina","ALAMO Y LAPACHO 3551, ALMIRANTE BROWN, Buenos Aires, Argentina",-58.4366818,-34.8317868,Ej5MYXBhY2hvICYgw4FsYW1vLCBNYWx2aW5hcyBBcmdlbnRpbmFzLCBCdWVub3MgQWlyZXMsIEFyZ2VudGluYQ
Buenos Aires,61787200,ESCUELA DE EDUCACIÓN SECUNDARIA Nº 58,Estatal,Activo,Urbano,LA CALANDRIA 2950  ,1833,4211-1884,6028014,SAN FRANCISCO SOLANO,ALMIRANTE BROWN,esb43brown@gmail.com; obs0040043@abc.gov.ar,True,False,False,False,False,False,False,False,False,False,True,False,False,False,06028,"LA CALANDRIA 2950  , SAN FRANCISCO SOLANO, ALMIRANTE BROWN, Buenos Aires, Argentina","LA CALANDRIA 2950  , SAN FRANCISCO SOLANO, ALMIRANTE BROWN, Buenos Aires, Argentina","LA CALANDRIA 2950, ALMIRANTE BROWN, Buenos Aires, Argentina",-58.3235867,-34.7785624,EklMYSBDYWxhbmRyaWEgMjk1MCwgQjE4NDNBU0ggU2FuIEZyYW5jaXNjbyBTb2xhbm8sIEJ1ZW5vcyBBaXJlcywgQXJnZW50aW5h
Buenos Aires,61787300,ESCUELA DE EDUCACION SECUNDARIA Nº51,Estatal,Activo,Urbano,PRIETO E/ ASAMBLEA Y DERQUI   ,1852,4294-5067,6028003,BURZACO,ALMIRANTE BROWN,secundariabasica44@hotmail.com; obs0040044@abc.gov.ar,True,False,False,False,False,False,False,False,False,False,True,False,False,False,06028,"PRIETO E/ ASAMBLEA Y DERQUI   , BURZACO, ALMIRANTE BROWN, Buenos Aires, Argentina","PRIETO E/ ASAMBLEA Y DERQUI   , BURZACO, ALMIRANTE BROWN, Buenos Aires, Argentina","PRIETO E/ ASAMBLEA Y DERQUI   , BURZACO, ALMIRANTE BROWN, Buenos Aires, Argentina",,,
Buenos Aires,61787400,ESCUELA DE EDUCACIÓN SECUNDARIA Nº53,Estatal,Activo,Urbano,LA CALANDRIA 3178  ,1843,4277-0052,6028014,SAN FRANCISCO SOLANO,ALMIRANTE BROWN,escsecb46@yahoo.com.ar; patricia-zanetti@hotmail.com; obs0040046@abc.gov.ar,True,False,False,False,False,False,False,False,False,False,True,False,False,False,06028,"LA CALANDRIA 3178  , SAN FRANCISCO SOLANO, ALMIRANTE BROWN, Buenos Aires, Argentina","LA CALANDRIA 3178  , SAN FRANCISCO SOLANO, ALMIRANTE BROWN, Buenos Aires, Argentina","LA CALANDRIA 3178, ALMIRANTE BROWN, Buenos Aires, Argentina",-58.3220559,-34.7802078,EklMYSBDYWxhbmRyaWEgMzE3OCwgQjE4NDNBU0wgU2FuIEZyYW5jaXNjbyBTb2xhbm8sIEJ1ZW5vcyBBaXJlcywgQXJnZW50aW5h
Buenos Aires,61787500,ESC. SECUNDARIA BASICA Nº47,Estatal,Activo,Urbano,EL GORRON Y SOLIS 2766  ,1847,4211-0183,6028013,RAFAEL CALZADA,ALMIRANTE BROWN,obs0040047@abc.gov.ar,True,False,False,False,False,False,False,False,False,False,True,False,False,False,06028,"EL GORRON Y SOLIS 2766  , RAFAEL CALZADA, ALMIRANTE BROWN, Buenos Aires, Argentina","EL GORRON Y SOLIS 2766  , RAFAEL CALZADA, ALMIRANTE BROWN, Buenos Aires, Argentina","EL GORRON Y SOLIS 2766, ALMIRANTE BROWN, Buenos Aires, Argentina",,,
Buenos Aires,61787600,ESC. SECUNDARIA BASICA Nº48,Estatal,Activo,Urbano,PARANA 3040  RAYO DE SOL,1854,4397-0851,6028008,LONGCHAMPS,ALMIRANTE BROWN,esb48_long@yahoo.com.ar; obs0040048@abc.gov.ar,True,False,False,False,False,False,False,False,False,False,True,False,False,False,06028,"PARANA 3040  RAYO DE SOL, LONGCHAMPS, ALMIRANTE BROWN, Buenos Aires, Argentina","PARANA 3040  RAYO DE SOL, LONGCHAMPS, ALMIRANTE BROWN, Buenos Aires, Argentina","PARANA 3040, ALMIRANTE BROWN, Buenos Aires, Argentina",-58.4081238,-34.8693461,ChIJMxU7hQTVvJUR56Gw6OzQlJI
Buenos Aires,61787700,ESCUELA SECUNDARIA Nº33,Estatal,Activo,Urbano,RETIRO 2565  ,1846,4297-8119,6028015,ADROGUE,ALMIRANTE BROWN,secretariaesb49@gmail.com; obs0040049@abc.gov.ar,True,False,False,False,False,False,False,False,False,False,True,False,False,False,06028,"RETIRO 2565  , ADROGUE, ALMIRANTE BROWN, Buenos Aires, Argentina","RETIRO 2565  , ADROGUE, ALMIRANTE BROWN, Buenos Aires, Argentina","RETIRO 2565, ALMIRANTE BROWN, Buenos Aires, Argentina",-58.4319811,-34.8197728,ChIJvawGtpHTvJURwUMP5P1whqc
Buenos Aires,61787800,ESC. SECUNDARIA BASICA Nº50,Estatal,Activo,Urbano,DI CARLO Y BUENOS AIRES S/N  BARRIO ALMAFUERTE,1856,437-405,6028006,GLEW,ALMIRANTE BROWN,obs0040050@abc.gov.ar,True,False,False,False,False,False,False,False,False,False,True,False,False,False,06028,"DI CARLO Y BUENOS AIRES S/N  BARRIO ALMAFUERTE, GLEW, ALMIRANTE BROWN, Buenos Aires, Argentina","DI CARLO Y BUENOS AIRES S/N  BARRIO ALMAFUERTE, GLEW, ALMIRANTE BROWN, Buenos Aires, Argentina","DI CARLO Y BUENOS AIRES , ALMIRANTE BROWN, Buenos Aires, Argentina",-58.3617378,-34.8899075,EktQY2lhIGRlIEJ1ZW5vcyBBaXJlcyAmIEFkZWxpYSBEaSBDYXJsbywgQjE4NTYgR2xldywgQnVlbm9zIEFpcmVzLCBBcmdlbnRpbmE
Buenos Aires,61787900,ESCUELA SECUNDARIA Nº19,Estatal,Activo,Urbano,LIBERTAD Y 2 DE ABRIL 3186  ,1849,5083-0461,6028004,CLAYPOLE,ALMIRANTE BROWN,False,True,False,False,False,False,False,False,False,False,False,True,False,False,False,06028,"LIBERTAD Y 2 DE ABRIL 3186  , CLAYPOLE, ALMIRANTE BROWN, Buenos Aires, Argentina","LIBERTAD Y 2 DE ABRIL 3186  , CLAYPOLE, ALMIRANTE BROWN, Buenos Aires, Argentina","LIBERTAD Y 2 DE ABRIL 3186, ALMIRANTE BROWN, Buenos Aires, Argentina",-58.3535031,-34.8141399,EjhMaWJlcnRhZCAmIDIgZGUgQWJyaWwsIENsYXlwb2xlLCBCdWVub3MgQWlyZXMsIEFyZ2VudGluYQ
Buenos Aires,61788000,ESCUELA DE EDUCACIÓN SECUNDARIA Nº52,Estatal,Activo,Urbano,LAPRIDA Y DE MICHELIS 907  ,1854,4279-2722,6028011,MINISTRO RIVADAVIA,ALMIRANTE BROWN,sb52ministro@gmail.com; obs0040052@abc.gov.ar,True,False,False,False,False,False,False,False,False,False,True,False,False,False,06028,"LAPRIDA Y DE MICHELIS 907  , MINISTRO RIVADAVIA, ALMIRANTE BROWN, Buenos Aires, Argentina","LAPRIDA Y DE MICHELIS 907  , MINISTRO RIVADAVIA, ALMIRANTE BROWN, Buenos Aires, Argentina","LAPRIDA Y DE MICHELIS 907, ALMIRANTE BROWN, Buenos Aires, Argentina",-58.3665562,-34.8495061,El9QLiBkZSBNaWNoZWxpcyAmIEZyYW5jaXNvIE5hcmNpc28gZGUgTGFwcmlkYSwgQjE4NDggTWluaXN0cm8gUml2YWRhdmlhLCBCdWVub3MgQWlyZXMsIEFyZ2VudGluYQ
Buenos Aires,61788100,ESCUELA SECUNDARIA Nº30,Estatal,Activo,Urbano,9 E/ 26 y FIGUEROA 1062  BARRIO DON ORIONE,1850,4268-7881,6028004,CLAYPOLE,ALMIRANTE BROWN,esb3brown@gmail.com; obs0040053@abc.gov.ar,True,False,False,False,False,False,False,False,False,False,True,False,False,False,06028,"9 E/ 26 y FIGUEROA 1062  BARRIO DON ORIONE, CLAYPOLE, ALMIRANTE BROWN, Buenos Aires, Argentina","9 9 E/ 26 y FIGUEROA 1062  BARRIO DON ORIONE, CLAYPOLE, ALMIRANTE BROWN, Buenos Aires, Argentina","9 9 E/ 26 y FIGUEROA 1062, ALMIRANTE BROWN, Buenos Aires, Argentina",-58.3552546,-34.8182888,EjlGaWd1ZXJvYSAyNiwgQjE4NDlCSUIgRG9uIE9yaW9uZSwgQnVlbm9zIEFpcmVzLCBBcmdlbnRpbmE
Buenos Aires,61788200,ESC. SECUNDARIA BASICA Nº54,Estatal,Activo,Urbano,RIO QUINTO 435  DON ORIONE,1849,4268-7563,6028004,CLAYPOLE,ALMIRANTE BROWN,escbs4@yahoo.com.ar; obs0040054@abc.gov.ar,True,False,False,False,False,False,False,False,False,False,True,False,False,False,06028,"RIO QUINTO 435  DON ORIONE, CLAYPOLE, ALMIRANTE BROWN, Buenos Aires, Argentina","RIO QUINTO 435  DON ORIONE, CLAYPOLE, ALMIRANTE BROWN, Buenos Aires, Argentina","RIO QUINTO 435, ALMIRANTE BROWN, Buenos Aires, Argentina",-58.3497012,-34.8162709,EjRSw61vIFF1aW50byA0MzUsIERvbiBPcmlvbmUsIEJ1ZW5vcyBBaXJlcywgQXJnZW50aW5h
Buenos Aires,61788300,ESC. SECUNDARIA BASICA Nº55,Estatal,Activo,Urbano,BALBOA Y PRIMAVERA 5690  ,1849,4277-2005,6028004,CLAYPOLE,ALMIRANTE BROWN,escb55claypde@hotmail.com; obs0040055@abc.gov.ar,True,False,False,False,False,False,False,False,False,False,True,False,False,False,06028,"BALBOA Y PRIMAVERA 5690  , CLAYPOLE, ALMIRANTE BROWN, Buenos Aires, Argentina","BALBOA Y PRIMAVERA 5690  , CLAYPOLE, ALMIRANTE BROWN, Buenos Aires, Argentina","BALBOA Y PRIMAVERA 5690, ALMIRANTE BROWN, Buenos Aires, Argentina",-58.3247295,-34.796234,EkFCYWxib2EgJiBQcmltYXZlcmEsIFNhbiBGcmFuY2lzY28gU29sYW5vLCBCdWVub3MgQWlyZXMsIEFyZ2VudGluYQ
Buenos Aires,61788400,ESCUELA DE EDUCACIÓN SECUNDARIA Nº48,Estatal,Activo,Urbano,RIO SEGUNDO 971  DON ORIONE,1850,4268-6959,6028004,CLAYPOLE,ALMIRANTE BROWN,escb56@yahoo.com.ar; obs0040056@abc.gov.ar,True,False,False,False,False,False,False,False,False,False,True,False,False,False,06028,"RIO SEGUNDO 971  DON ORIONE, CLAYPOLE, ALMIRANTE BROWN, Buenos Aires, Argentina","RIO SEGUNDO 971  DON ORIONE, CLAYPOLE, ALMIRANTE BROWN, Buenos Aires, Argentina","RIO SEGUNDO 971, ALMIRANTE BROWN, Buenos Aires, Argentina",-58.3456144,-34.8197315,EjVSw61vIFNlZ3VuZG8gOTcxLCBEb24gT3Jpb25lLCBCdWVub3MgQWlyZXMsIEFyZ2VudGluYQ
Buenos Aires,61788500,ESCUELA DE EDUCACIÓN SECUNDARIA Nº54,Estatal,Activo,Urbano,DUFAU 548  ,1849,4268-6316,6028022,DON ORIONE,ALMIRANTE BROWN,escuelasecundaria58@gmail.com; obs0040058@abc.gov.ar,True,False,False,False,False,False,False,False,False,False,True,False,False,False,06028,"DUFAU 548  , DON ORIONE, ALMIRANTE BROWN, Buenos Aires, Argentina","DUFAU 548  , DON ORIONE, ALMIRANTE BROWN, Buenos Aires, Argentina","DUFAU 548, ALMIRANTE BROWN, Buenos Aires, Argentina",-58.333805,-34.8105266,EjFKLiBEdWZhdSA1NDgsIERvbiBPcmlvbmUsIEJ1ZW5vcyBBaXJlcywgQXJnZW50aW5h
Buenos Aires,61788600,ESC. SECUNDARIA BASICA Nº59,Estatal,Activo,Urbano,AVDA SAN JUAN 1718  ,1847,4236-8311,6028013,RAFAEL CALZADA,ALMIRANTE BROWN,escuelasec59@hotmail.com; obs0040059@abc.gov.ar,True,False,False,False,False,False,False,False,False,False,True,False,False,False,06028,"AVDA SAN JUAN 1718  , RAFAEL CALZADA, ALMIRANTE BROWN, Buenos Aires, Argentina","AVDA SAN JUAN 1718  , RAFAEL CALZADA, ALMIRANTE BROWN, Buenos Aires, Argentina","AVDA SAN JUAN 1718, ALMIRANTE BROWN, Buenos Aires, Argentina",-58.3433104,-34.7869529,ChIJEaopnJQso5URwRnDYoa3Mhw
Buenos Aires,61788700,ESCUELA SECUNDARIA Nº34,Estatal,Activo,Urbano,SANTA ANA E/ MURATURE Y RAMIREZ   ,1847,4211-0038,6028013,RAFAEL CALZADA,ALMIRANTE BROWN,obs0040060@abc.gov.ar,True,False,False,False,False,False,False,False,False,False,True,False,False,False,06028,"SANTA ANA E/ MURATURE Y RAMIREZ   , RAFAEL CALZADA, ALMIRANTE BROWN, Buenos Aires, Argentina","SANTA ANA E/ MURATURE Y RAMIREZ   , RAFAEL CALZADA, ALMIRANTE BROWN, Buenos Aires, Argentina","SANTA ANA E/ MURATURE Y RAMIREZ   , RAFAEL CALZADA, ALMIRANTE BROWN, Buenos Aires, Argentina",,,
Buenos Aires,61788800,ESC. SECUNDARIA BASICA Nº62,Estatal,Activo,Urbano,10 ESQ 2- MANZANA 37   DON ORIONE,1849,4268-7079,6028004,CLAYPOLE,ALMIRANTE BROWN,sb62dedonorione@yahoo.com.ar; obs0040062@abc.gov.ar,True,False,False,False,False,False,False,False,False,False,True,False,False,False,06028,"10 ESQ 2- MANZANA 37   DON ORIONE, CLAYPOLE, ALMIRANTE BROWN, Buenos Aires, Argentina","10 ESQ 2- MANZANA 37   DON ORIONE, CLAYPOLE, ALMIRANTE BROWN, Buenos Aires, Argentina","10 ESQ 2- MANZANA 37, ALMIRANTE BROWN, Buenos Aires, Argentina",,,
Buenos Aires,61788900,ESCUELA DE EDUCACIÓN SECUNDARIA Nº47,Estatal,Activo,Urbano,CALLE 17 E/5 Y 6 - MANZANA 23 - FRENTE A MZ.27 S/N  BARRIO DON ORIONE,1849,4268-2631,6028004,CLAYPOLE,ALMIRANTE BROWN,obs0040063@abc.gov.ar,True,False,False,False,False,False,False,False,False,False,True,False,False,False,06028,"CALLE 17 E/5 Y 6 - MANZANA 23 - FRENTE A MZ.27 S/N  BARRIO DON ORIONE, CLAYPOLE, ALMIRANTE BROWN, Buenos Aires, Argentina","CALLE 17 17 E/5 Y 6 - MANZANA 23 - FRENTE A MZ.27 S/N  BARRIO DON ORIONE, CLAYPOLE, ALMIRANTE BROWN, Buenos Aires, Argentina","CALLE 17 17 E/5 Y 6 - MANZANA 23 - FRENTE A MZ.27 , ALMIRANTE BROWN, Buenos Aires, Argentina",,,
Buenos Aires,61789000,ESC. SECUNDARIA BASICA Nº64,Estatal,Activo,Urbano,PIEDRABUENA 5780  ,1846,4211-0101,6028002,BARRIO SAN JOSE,ALMIRANTE BROWN,escuela64@yahoo.com.ar; obs0040064@abc.gov.ar,True,False,False,False,False,False,False,False,False,False,True,False,False,False,06028,"PIEDRABUENA 5780  , BARRIO SAN JOSE, ALMIRANTE BROWN, Buenos Aires, Argentina","PIEDRABUENA 5780  , BARRIO SAN JOSE, ALMIRANTE BROWN, Buenos Aires, Argentina","PIEDRABUENA 5780, ALMIRANTE BROWN, Buenos Aires, Argentina",-58.3359667,-34.7711881,EkNMdWlzIFBpZWRyYSBCdWVuYSA1NzgwLCBCMTg0NCBKb3PDqSBNYXJtb2wsIEJ1ZW5vcyBBaXJlcywgQXJnZW50aW5h
Buenos Aires,61789100,ESCUELA DE EDUCACIÓN SECUNDARIA Nº45,Estatal,Activo,Urbano,MONTE SANTIAGO Y CASTILLO 654  BARRIO VIPLASTIC,1854,4233-1567,6028008,LONGCHAMPS,ALMIRANTE BROWN,escb65_long@hotmail.com; secundaria65ong@gmail.com; obs0040065@abc.gov.ar,True,False,False,False,False,False,False,False,False,False,True,False,False,False,06028,"MONTE SANTIAGO Y CASTILLO 654  BARRIO VIPLASTIC, LONGCHAMPS, ALMIRANTE BROWN, Buenos Aires, Argentina","MONTE SANTIAGO Y CASTILLO 654  BARRIO VIPLASTIC, LONGCHAMPS, ALMIRANTE BROWN, Buenos Aires, Argentina","MONTE SANTIAGO Y CASTILLO 654, ALMIRANTE BROWN, Buenos Aires, Argentina",-58.3883516,-34.8440333,ElJQcmVzLiBDYXN0aWxsbyBOb3J0ZSAmIENvbWJhdGUgZGUgTW9udGUgU2FudGlhZ28sIEJ1cnphY28sIEJ1ZW5vcyBBaXJlcywgQXJnZW50aW5h
Buenos Aires,61789900,ESCUELA DE EDUCACIÓN SECUNDARIA Nº26,Estatal,Activo,Urbano,MARIANO CASTEX 1492  ,1842,5075-0379,6260008,CANNING,ESTEBAN ECHEVERRIA,esb25echeverria@gmail.com; obs0300025@abc.gov.ar,True,False,False,False,False,False,False,False,False,False,True,False,False,False,06260,"MARIANO CASTEX 1492  , CANNING, ESTEBAN ECHEVERRIA, Buenos Aires, Argentina","MARIANO CASTEX 1492  , CANNING, ESTEBAN ECHEVERRIA, Buenos Aires, Argentina","MARIANO CASTEX 1492, ESTEBAN ECHEVERRIA, Buenos Aires, Argentina",-58.5024119,-34.8625884,EjVNYXJpYW5vIENhc3RleCAxNDkyLCBDYW5uaW5nLCBCdWVub3MgQWlyZXMsIEFyZ2VudGluYQ
Buenos Aires,61790000,ESC. SECUNDARIA BASICA Nº26,Estatal,Activo,Urbano,ING. HUERGO 6100  ,1839,4693-6319,6260001,9 DE ABRIL,ESTEBAN ECHEVERRIA,secundaria26distritoecheverria@gmail.com; obs0300026@abc.gov.ar,True,False,False,False,False,False,False,False,False,False,True,False,False,False,06260,"ING. HUERGO 6100  , 9 DE ABRIL, ESTEBAN ECHEVERRIA, Buenos Aires, Argentina","ING. HUERGO 6100  , 9 DE ABRIL, ESTEBAN ECHEVERRIA, Buenos Aires, Argentina","ING. HUERGO 6100, ESTEBAN ECHEVERRIA, Buenos Aires, Argentina",-58.4995083,-34.7616857,EkFBdi4gSW5nIEh1ZXJnbyA2MTAwLCBCMTgzOUlEVCA5IGRlIEFicmlsLCBCdWVub3MgQWlyZXMsIEFyZ2VudGluYQ
Buenos Aires,61790200,ESC. SECUNDARIA BASICA Nº29,Estatal,Activo,Urbano,SALTA ESQ. LINIERS S/N  ,1842,4284-1547,6260007,MONTE GRANDE,ESTEBAN ECHEVERRIA,secundariabasica29ee@gmail.com; obs0300029@abc.gov.ar,True,False,False,False,False,False,False,False,False,False,True,False,False,False,06260,"SALTA ESQ. LINIERS S/N  , MONTE GRANDE, ESTEBAN ECHEVERRIA, Buenos Aires, Argentina","SALTA ESQ. LINIERS S/N  , MONTE GRANDE, ESTEBAN ECHEVERRIA, Buenos Aires, Argentina","SALTA ESQ. LINIERS , ESTEBAN ECHEVERRIA, Buenos Aires, Argentina",-58.4501065,-34.8197463,EjxTYWx0YSAmIExpbmllcnMsIEIxODQyIE1vbnRlIEdyYW5kZSwgQnVlbm9zIEFpcmVzLCBBcmdlbnRpbmE
Buenos Aires,61790300,ESCUELA DE EDUCACIÓN SECUNDARIA Nº25,Estatal,Activo,Urbano,9 DE JULIO Y JEWETL   ,1842,4367-5911,6260007,MONTE GRANDE,ESTEBAN ECHEVERRIA,esb30ee@gmail.com; obs0300030@abc.gov.ar,True,False,False,False,False,False,False,False,False,False,True,False,False,False,06260,"9 DE JULIO Y JEWETL   , MONTE GRANDE, ESTEBAN ECHEVERRIA, Buenos Aires, Argentina","9 DE JULIO Y JEWETL   , MONTE GRANDE, ESTEBAN ECHEVERRIA, Buenos Aires, Argentina","9, ESTEBAN ECHEVERRIA, Buenos Aires, Argentina",-58.521623,-34.8523427,Ej9Fc3RlYmFuIEVjaGV2ZXJyw61hIDksIEIxODA0QUlCIEV6ZWl6YSwgQnVlbm9zIEFpcmVzLCBBcmdlbnRpbmE
Buenos Aires,61790400,ESC. SECUNDARIA BASICA Nº31,Estatal,Activo,Urbano,PARAGUAY E/ SAAVEDRA Y ALSINA 800  ALTOS DE MONTE GRANDE,1842,4389-0702,6260002,EL JAGÜEL,ESTEBAN ECHEVERRIA,escuela31echeverria@gmail.com; obs0300031@abc.gov.ar,True,False,False,False,False,False,False,False,False,False,True,False,False,False,06260,"PARAGUAY E/ SAAVEDRA Y ALSINA 800  ALTOS DE MONTE GRANDE, EL JAGÜEL, ESTEBAN ECHEVERRIA, Buenos Aires, Argentina","PARAGUAY 800  ALTOS DE MONTE GRANDE, EL JAGÜEL, ESTEBAN ECHEVERRIA, Buenos Aires, Argentina","PARAGUAY 800, ESTEBAN ECHEVERRIA, Buenos Aires, Argentina",-58.5028309,-34.8449663,EjFQYXJhZ3VheSA4MDAsIEVsIEphZ8O8ZWwsIEJ1ZW5vcyBBaXJlcywgQXJnZW50aW5h
Buenos Aires,61790500,ESCUELA DE EDUCACIÓN SECUNDARIA Nº18,Estatal,Activo,Urbano,LAS TIPAS ESQ. LOS TULIPANES 1500  ,1804,4386-3601,6270004,LA UNION,EZEIZA,esb11ezeiza@gmail.com; obs1300011@abc.gov.ar,True,False,False,False,False,False,False,False,False,False,True,False,False,False,06270,"LAS TIPAS ESQ. LOS TULIPANES 1500  , LA UNION, EZEIZA, Buenos Aires, Argentina","LAS TIPAS ESQ. LOS TULIPANES 1500  , LA UNION, EZEIZA, Buenos Aires, Argentina","LAS TIPAS ESQ. LOS TULIPANES 1500, EZEIZA, Buenos Aires, Argentina",-58.5526317,-34.8863124,EkNMYXMgVGlwYXMgJiBMb3MgVHVsaXBhbmVzLCBUcmlzdGFuIFN1w6FyZXosIEJ1ZW5vcyBBaXJlcywgQXJnZW50aW5h
Buenos Aires,61790600,ESCUELA DE EDUCACIÓN SECUNDARIA Nº15,Estatal,Activo,Urbano,JOAQUIN V. GONZALES 48  BARRIO I,1802,4480-0302,6270003,JOSE MARIA EZEIZA,EZEIZA,sb312ezeiza@gmail.com; obs1300012@abc.gov.ar,True,False,False,False,False,False,False,False,False,False,True,False,False,False,06270,"JOAQUIN V. GONZALES 48  BARRIO I, JOSE MARIA EZEIZA, EZEIZA, Buenos Aires, Argentina","JOAQUIN V. GONZALES 48  BARRIO I, JOSE MARIA EZEIZA, EZEIZA, Buenos Aires, Argentina","JOAQUIN V. GONZALES 48, EZEIZA, Buenos Aires, Argentina",-58.5222469,-34.7885113,EkJKb2FxdcOtbiBWLiBHb256w6FsZXogNDgsIEIxODAyQU5CIEV6ZWl6YSwgQnVlbm9zIEFpcmVzLCBBcmdlbnRpbmE
Buenos Aires,61790800,ESC. SECUNDARIA BASICA Nº34,Estatal,Activo,Urbano,FRAGA 2758  BARRIO SANTA ISABEL,1842,4235-1160,6260007,MONTE GRANDE,ESTEBAN ECHEVERRIA,sb34mg@hotmail.com; obs0300034@abc.gov.ar,True,False,False,False,False,False,False,False,False,False,True,False,False,False,06260,"FRAGA 2758  BARRIO SANTA ISABEL, MONTE GRANDE, ESTEBAN ECHEVERRIA, Buenos Aires, Argentina","FRAGA 2758  BARRIO SANTA ISABEL, MONTE GRANDE, ESTEBAN ECHEVERRIA, Buenos Aires, Argentina","FRAGA 2758, ESTEBAN ECHEVERRIA, Buenos Aires, Argentina",-58.4821548,-34.8519278,EjpGcmFnYSAyNzU4LCBCMTg0MUdORCBNb250ZSBHcmFuZGUsIEJ1ZW5vcyBBaXJlcywgQXJnZW50aW5h
Buenos Aires,61790900,ESC. SECUNDARIA BASICA Nº12,Estatal,Activo,Urbano,FILIBERTO ENTRE GUTIERREZ Y UGARTE 4037  AMERICA UNIDA,1862,4397-0704,6648001,GUERNICA,PRESIDENTE PERON,secundaria312@yahoo.com.ar; obs1290012@abc.gov.ar,True,False,False,False,False,False,False,False,False,False,True,False,False,False,06648,"FILIBERTO ENTRE GUTIERREZ Y UGARTE 4037  AMERICA UNIDA, GUERNICA, PRESIDENTE PERON, Buenos Aires, Argentina","FILIBERTO ENTRE GUTIERREZ Y UGARTE 4037  AMERICA UNIDA, GUERNICA, PRESIDENTE PERON, Buenos Aires, Argentina","FILIBERTO ENTRE GUTIERREZ Y UGARTE 4037, PRESIDENTE PERON, Buenos Aires, Argentina",,,
Buenos Aires,61791000,ESC. SECUNDARIA BASICA Nº22,Estatal,Activo,Urbano,SIERRA DE AMBATO E/ VERNET Y BENAVIDEZ 179  ,1842,4272-4015,6260001,9 DE ABRIL,ESTEBAN ECHEVERRIA,esb22echeverria@yahoo.com.ar; obs0300022@abc.gov.ar,True,False,False,False,False,False,False,False,False,False,True,False,False,False,06260,"SIERRA DE AMBATO E/ VERNET Y BENAVIDEZ 179  , 9 DE ABRIL, ESTEBAN ECHEVERRIA, Buenos Aires, Argentina","SIERRA DE AMBATO 179  , 9 DE ABRIL, ESTEBAN ECHEVERRIA, Buenos Aires, Argentina","SIERRA DE AMBATO 179, ESTEBAN ECHEVERRIA, Buenos Aires, Argentina",-58.4942505,-34.7770636,EkJTaWVycmEgZGUgQW1iYXRvIDE3OSwgQjE4MzlCTEMgOSBkZSBBYnJpbCwgQnVlbm9zIEFpcmVzLCBBcmdlbnRpbmE
Buenos Aires,61791400,ESC. SECUNDARIA BASICA Nº25,Estatal,Activo,Urbano,AVDA. LOS INMIGRANTES E/1363 Y 1374 3574  VILLA SAN LUIS,1888,4213-8101,6274005,FLORENCIO VARELA,FLORENCIO VARELA,sb25sanluis@yahoo.com; obs0320025@abc.gov.ar,True,False,False,False,False,False,False,False,False,False,True,False,False,False,06274,"AVDA. LOS INMIGRANTES E/1363 Y 1374 3574  VILLA SAN LUIS, FLORENCIO VARELA, FLORENCIO VARELA, Buenos Aires, Argentina","AVDA. LOS INMIGRANTES 1363 Y 1374 3574  VILLA SAN LUIS, FLORENCIO VARELA, FLORENCIO VARELA, Buenos Aires, Argentina","AVDA. LOS INMIGRANTES 1363 Y 1374 3574, FLORENCIO VARELA, Buenos Aires, Argentina",-58.255601,-34.8478616,EkVDYWxsZSAxMzYzICYgTG9zIElubWlncmFudGVzLCBWaWxsYSBTYW4gTHVpcywgQnVlbm9zIEFpcmVzLCBBcmdlbnRpbmE
Buenos Aires,61791600,ESCUELA DE EDUCACIÓN SECUNDARIA Nº28,Estatal,Activo,Urbano,NEUQUEN E/SUCRE Y GARIBALDI 380  VILLA DEL PLATA,1888,4355-7479,6274005,FLORENCIO VARELA,FLORENCIO VARELA,esb28fciovarela@gmail.com; obs0320028@abc.gov.ar,True,False,False,False,False,False,False,False,False,False,True,False,False,False,06274,"NEUQUEN E/SUCRE Y GARIBALDI 380  VILLA DEL PLATA, FLORENCIO VARELA, FLORENCIO VARELA, Buenos Aires, Argentina","NEUQUEN 380  VILLA DEL PLATA, FLORENCIO VARELA, FLORENCIO VARELA, Buenos Aires, Argentina","NEUQUEN 380, FLORENCIO VARELA, Buenos Aires, Argentina",-58.2540328,-34.79803,ChIJK_YDgmopo5URCWx1HtSFHuI
Buenos Aires,61791700,ESCUELA DE EDUCACIÓN SECUNDARIA Nº26,Estatal,Activo,Urbano,NUEVA DHELI 1373  DON ORIONE,1888,20020278,6274005,FLORENCIO VARELA,FLORENCIO VARELA,secundaria30fv@gmail.com; obs0320030@abc.gov.ar,True,False,False,False,False,False,False,False,False,False,True,False,False,False,06274,"NUEVA DHELI 1373  DON ORIONE, FLORENCIO VARELA, FLORENCIO VARELA, Buenos Aires, Argentina","NUEVA DHELI 1373  DON ORIONE, FLORENCIO VARELA, FLORENCIO VARELA, Buenos Aires, Argentina","NUEVA DHELI 1373, FLORENCIO VARELA, Buenos Aires, Argentina",,,
Buenos Aires,61791800,ESCUELA DE EDUCACIÓN SECUNDARIA Nº37,Estatal,Activo,Urbano,ANDORRA 137  ,1888,4355-5313,6274042,SANTA ROSA,FLORENCIO VARELA,ebs_31_fv@hotmail.com; obs0320031@abc.gov.ar,True,False,False,False,False,False,False,False,False,False,True,False,False,False,06274,"ANDORRA 137  , SANTA ROSA, FLORENCIO VARELA, Buenos Aires, Argentina","ANDORRA 137  , SANTA ROSA, FLORENCIO VARELA, Buenos Aires, Argentina","ANDORRA 137, FLORENCIO VARELA, Buenos Aires, Argentina",-58.2800732,-34.8221522,EjlBbmRvcnJhIDEzNywgQjE4NjdERkMgU2FudGEgUm9zYSwgQnVlbm9zIEFpcmVzLCBBcmdlbnRpbmE
Buenos Aires,61791900,ESCUELA SECUNDARIA Nº23,Estatal,Activo,Urbano,LARREA E/ G. NACIONAL Y P. MORAN 1218  ,1888,4255-4156,6274035,LA SIRENA,FLORENCIO VARELA,ineslicca@hotmail.com; obs0320032@abc.gov.ar,True,False,False,False,False,False,False,False,False,False,True,False,False,False,06274,"LARREA E/ G. NACIONAL Y P. MORAN 1218  , LA SIRENA, FLORENCIO VARELA, Buenos Aires, Argentina","LARREA 1218  , LA SIRENA, FLORENCIO VARELA, Buenos Aires, Argentina","LARREA 1218, FLORENCIO VARELA, Buenos Aires, Argentina",-58.2933497,-34.7819434,EkRKdWFuIExhcnJlYSAxMjE4LCBCMTg4N0RPWiBGbG9yZW5jaW8gVmFyZWxhLCBCdWVub3MgQWlyZXMsIEFyZ2VudGluYQ
Buenos Aires,61792000,ESCUELA SECUNDARIA Nº17,Estatal,Activo,Urbano,CIUDADELA 2565  ,1888,1526303560,6274027,CAROLINA II,FLORENCIO VARELA,esn36fv@hotmail.com; obs0320036@abc.gov.ar,True,False,False,False,False,False,False,False,False,False,True,False,False,False,06274,"CIUDADELA 2565  , CAROLINA II, FLORENCIO VARELA, Buenos Aires, Argentina","CIUDADELA 2565  , CAROLINA II, FLORENCIO VARELA, Buenos Aires, Argentina","CIUDADELA 2565, FLORENCIO VARELA, Buenos Aires, Argentina",-58.5669275,-34.6746118,EkJGbG9yZW5jaW8gVmFyZWxhIDI1NjUsIEIxNzU0SkVPIFNhbiBKdXN0bywgQnVlbm9zIEFpcmVzLCBBcmdlbnRpbmE
Buenos Aires,61792100,ESCUELA SECUNDARIA Nº25,Estatal,Activo,Urbano,37 E/ 14 Y 16   LA SIRENA,1888,4237-0376,6274005,FLORENCIO VARELA,FLORENCIO VARELA,secbasica38@yahoo.com.ar; obs0320038@abc.gov.ar,True,False,False,False,False,False,False,False,False,False,True,False,False,False,06274,"37 E/ 14 Y 16   LA SIRENA, FLORENCIO VARELA, FLORENCIO VARELA, Buenos Aires, Argentina","37 37 E/ 14 Y 16   LA SIRENA, FLORENCIO VARELA, FLORENCIO VARELA, Buenos Aires, Argentina","37 37 E/ 14 Y 16, FLORENCIO VARELA, Buenos Aires, Argentina",-58.2930056,-34.7829958,ChIJf-FqmQ8so5URPPAcsa-t_ZY
Buenos Aires,61792200,ESC. SECUNDARIA BASICA Nº39,Estatal,Activo,Urbano,D'ANUNCIO Y L. DE LA TORRE 772  BOSQUES,1888,4221-1467,6274005,FLORENCIO VARELA,FLORENCIO VARELA,esb39fv@gmail.com; obs0320039@abc.gov.ar,True,False,False,False,False,False,False,False,False,False,True,False,False,False,06274,"D'ANUNCIO Y L. DE LA TORRE 772  BOSQUES, FLORENCIO VARELA, FLORENCIO VARELA, Buenos Aires, Argentina","D'ANUNCIO Y L. DE LA TORRE 772  BOSQUES, FLORENCIO VARELA, FLORENCIO VARELA, Buenos Aires, Argentina","D'ANUNCIO Y L. DE LA TORRE 772, FLORENCIO VARELA, Buenos Aires, Argentina",,,
Buenos Aires,61792300,ESCUELA SECUNDARIA Nº20,Estatal,Activo,Urbano,COMBATE DE LOS POZOS Y CESAR CANTU. S/N  SANTA ANA,1888,False,6274005,FLORENCIO VARELA,FLORENCIO VARELA,es18fvarela@gmail.com; obs0320018@abc.gov.ar,True,False,False,False,False,False,False,False,False,False,True,False,False,False,06274,"COMBATE DE LOS POZOS Y CESAR CANTU. S/N  SANTA ANA, FLORENCIO VARELA, FLORENCIO VARELA, Buenos Aires, Argentina","COMBATE DE LOS POZOS Y CESAR CANTU. S/N  SANTA ANA, FLORENCIO VARELA, FLORENCIO VARELA, Buenos Aires, Argentina","COMBATE DE LOS POZOS Y CESAR CANTU. , FLORENCIO VARELA, Buenos Aires, Argentina",,,
Buenos Aires,61792400,ESC. SECUNDARIA BASICA Nº41,Estatal,Activo,Urbano,1280 ESQ.1213 699  BARRIO EL PARQUE,1891,49-3630,6274007,INGENIERO JUAN ALLAN,FLORENCIO VARELA,esb41pv2005@yahoo.com.ar; obs0320041@abc.gov.ar,True,False,False,False,False,False,False,False,False,False,True,False,False,False,06274,"1280 ESQ.1213 699  BARRIO EL PARQUE, INGENIERO JUAN ALLAN, FLORENCIO VARELA, Buenos Aires, Argentina","1280 ESQ.1213 699  BARRIO EL PARQUE, INGENIERO JUAN ALLAN, FLORENCIO VARELA, Buenos Aires, Argentina","1280 ESQ.1213 699, FLORENCIO VARELA, Buenos Aires, Argentina",-58.1866789,-34.8633445,EkRDYWxsZSAxMjgwICYgQ2FsbGUgMTIxMywgSW5nZW5pZXJvIEouIEFsbGFuLCBCdWVub3MgQWlyZXMsIEFyZ2VudGluYQ
Buenos Aires,61792500,ESCUELA DE EDUCACIÓN SECUNDARIA Nº27,Estatal,Activo,Urbano,RIO BERMEJO 1839  VILLA MONICA,1888,4274-1335,6274005,FLORENCIO VARELA,FLORENCIO VARELA,sb42villamonica@yahoo.com.ar; ees27fvarela@yahoo.com.ar; obs0320042@abc.gov.ar,True,False,False,False,False,False,False,False,False,False,True,False,False,False,06274,"RIO BERMEJO 1839  VILLA MONICA, FLORENCIO VARELA, FLORENCIO VARELA, Buenos Aires, Argentina","RIO BERMEJO 1839  VILLA MONICA, FLORENCIO VARELA, FLORENCIO VARELA, Buenos Aires, Argentina","RIO BERMEJO 1839, FLORENCIO VARELA, Buenos Aires, Argentina",-58.2677324,-34.8325821,EkNSw61vIEJlcm1lam8gMTgzOSwgQjE4NTNHWEcgVmlsbGEgVmF0dGVvbmUsIEJ1ZW5vcyBBaXJlcywgQXJnZW50aW5h
Buenos Aires,61792600,ESCUELA DE EDUCACIÓN SECUNDARIA Nº30,Estatal,Activo,Urbano,CALLE 56 926  ,1888,False,6274040,SAN NICOLAS,FLORENCIO VARELA,sec.sup.30fu@gmail.com; obs0320044@abc.gov.ar,True,False,False,False,False,False,False,False,False,False,True,False,False,False,06274,"CALLE 56 926  , SAN NICOLAS, FLORENCIO VARELA, Buenos Aires, Argentina","CALLE 56 926  , SAN NICOLAS, FLORENCIO VARELA, Buenos Aires, Argentina","CALLE 56 926, FLORENCIO VARELA, Buenos Aires, Argentina",-58.2942436,-34.7955303,EkBDYWxsZSA1NiA5MjYsIEIxODg3RkVOIEZsb3JlbmNpbyBWYXJlbGEsIEJ1ZW5vcyBBaXJlcywgQXJnZW50aW5h
Buenos Aires,61792700,ESC. SECUNDARIA BASICA Nº45,Estatal,Activo,Urbano,552 E/ 519 Y 521 1022  GOBERNADOR JULIO COST,1888,4237-9060,6274005,FLORENCIO VARELA,FLORENCIO VARELA,andymarcusvaldez@yahoo.com.ar; esb345varela@yahoo.com.ar; obs0320045@abc.gov.ar,True,False,False,False,False,False,False,False,False,False,True,False,False,False,06274,"552 E/ 519 Y 521 1022  GOBERNADOR JULIO COST, FLORENCIO VARELA, FLORENCIO VARELA, Buenos Aires, Argentina","552 552 E/ 519 Y 521 1022  GOBERNADOR JULIO COST, FLORENCIO VARELA, FLORENCIO VARELA, Buenos Aires, Argentina","552 552 E/ 519 Y 521 1022, FLORENCIO VARELA, Buenos Aires, Argentina",-58.2691108,-34.8022348,Eko5IGRlIEp1bGlvIGRlIDE4MTYgNTUyLCBCMTg4OElFTCBGbG9yZW5jaW8gVmFyZWxhLCBCdWVub3MgQWlyZXMsIEFyZ2VudGluYQ
Buenos Aires,61792800,ESCUELA SECUNDARIA Nº16 EVITA,Estatal,Activo,Urbano,ONCATIVO E/IBERA Y BROCHERO 2691  BARRIO HUDSON,1888,4213-9265,6274005,FLORENCIO VARELA,FLORENCIO VARELA,ees16varela@yahoo.com.ar,True,False,False,False,False,False,False,False,False,False,True,False,False,False,06274,"ONCATIVO E/IBERA Y BROCHERO 2691  BARRIO HUDSON, FLORENCIO VARELA, FLORENCIO VARELA, Buenos Aires, Argentina","ONCATIVO 2691  BARRIO HUDSON, FLORENCIO VARELA, FLORENCIO VARELA, Buenos Aires, Argentina","ONCATIVO 2691, FLORENCIO VARELA, Buenos Aires, Argentina",-58.2315435,-34.840205,EkNCYXRhbGxhIGRlIE9uY2F0aXZvIDI2OTEsIEIxODg5RUlPIEJvc3F1ZXMsIEJ1ZW5vcyBBaXJlcywgQXJnZW50aW5h
Buenos Aires,61792900,ESC. SECUNDARIA BASICA Nº48,Estatal,Activo,Urbano,V. DE LA PLAZA 263  ,1888,4237-1051,6274005,FLORENCIO VARELA,FLORENCIO VARELA,basicasecundaria48@yahoo.com.ar; obs0320048@abc.gov.ar,True,False,False,False,False,False,False,False,False,False,True,False,False,False,06274,"V. DE LA PLAZA 263  , FLORENCIO VARELA, FLORENCIO VARELA, Buenos Aires, Argentina","V. DE LA PLAZA 263  , FLORENCIO VARELA, FLORENCIO VARELA, Buenos Aires, Argentina","V. DE LA PLAZA 263, FLORENCIO VARELA, Buenos Aires, Argentina",-58.2156273,-34.7976442,Ei1DYWxsZSAyNjMsIFNvdXJpZ3VlcywgQnVlbm9zIEFpcmVzLCBBcmdlbnRpbmE
Buenos Aires,61793000,ESCUELA DE EDUCACIÓN SECUNDARIA Nº49,Estatal,Activo,Urbano,MAIPU E/ POSADAS Y V.GOMEZ 1245  ,1888,4255-9176,6274005,FLORENCIO VARELA,FLORENCIO VARELA,secundariabasica49v@hotmail.com; obs0320049@abc.gov.ar,True,False,False,False,False,False,False,False,False,False,True,False,False,False,06274,"MAIPU E/ POSADAS Y V.GOMEZ 1245  , FLORENCIO VARELA, FLORENCIO VARELA, Buenos Aires, Argentina","MAIPU 1245  , FLORENCIO VARELA, FLORENCIO VARELA, Buenos Aires, Argentina","MAIPU 1245, FLORENCIO VARELA, Buenos Aires, Argentina",-58.3327098,-34.8003023,EjdNYWlww7ogMTI0NSwgQjE4NDlHSFMgQ2xheXBvbGUsIEJ1ZW5vcyBBaXJlcywgQXJnZW50aW5h
Buenos Aires,61793100,ESC. SECUNDARIA BASICA Nº51,Estatal,Activo,Urbano,509 ESQ. 546 S/N  VILLA ARGENTINA,1888,False,6274005,FLORENCIO VARELA,FLORENCIO VARELA,esb51fv@yahoo.com.ar; obs0320051@abc.gov.ar,True,False,False,False,False,False,False,False,False,False,True,False,False,False,06274,"509 ESQ. 546 S/N  VILLA ARGENTINA, FLORENCIO VARELA, FLORENCIO VARELA, Buenos Aires, Argentina","509 ESQ. 546 S/N  VILLA ARGENTINA, FLORENCIO VARELA, FLORENCIO VARELA, Buenos Aires, Argentina","509 ESQ. 546 , FLORENCIO VARELA, Buenos Aires, Argentina",-58.2971984,-34.8125574,EkFDYWxsZSA1MDkgJiBDYWxsZSA1NDYsIEIxODU5IEdkb3IuIENvc3RhLCBCdWVub3MgQWlyZXMsIEFyZ2VudGluYQ
Buenos Aires,61793200,ESCUELA DE EDUCACIÓN SECUNDARIA Nº31,Estatal,Activo,Urbano,AV. LUJAN y 909 1524  BOSQUES,1888,False,6274005,FLORENCIO VARELA,FLORENCIO VARELA,esb_n52@hotmail.com; obs0320052@abc.gov.ar,True,False,False,False,False,False,False,False,False,False,True,False,False,False,06274,"AV. LUJAN y 909 1524  BOSQUES, FLORENCIO VARELA, FLORENCIO VARELA, Buenos Aires, Argentina","AV. LUJAN y 909 1524  BOSQUES, FLORENCIO VARELA, FLORENCIO VARELA, Buenos Aires, Argentina","AV. LUJAN y 909 1524, FLORENCIO VARELA, Buenos Aires, Argentina",-58.2296479,-34.8300983,ChIJx-8aL0ooo5URmmxZiAR8k0M
Buenos Aires,61793300,ESCUELA DE EDUCACIÓN SECUNDARIA SECUNDARIA Nº44,Estatal,Activo,Urbano,EL APERO Y DONATO ÁLVAREZ 820  ,1888,4213-5628,6274029,DON JOSE,FLORENCIO VARELA,esb54_820@hotmail.com; esb354fv@gmail.com; obs0320054@abc.gov.ar,True,False,False,False,False,False,False,False,False,False,True,False,False,False,06274,"EL APERO Y DONATO ÁLVAREZ 820  , DON JOSE, FLORENCIO VARELA, Buenos Aires, Argentina","EL APERO Y DONATO ÁLVAREZ 820  , DON JOSE, FLORENCIO VARELA, Buenos Aires, Argentina","EL APERO Y DONATO ÁLVAREZ 820, FLORENCIO VARELA, Buenos Aires, Argentina",-58.3070819,-34.797158,EkRFbCBBcGVybyAmIEF2LiBEb25hdG8gw4FsdmFyZXosIEdkb3IuIENvc3RhLCBCdWVub3MgQWlyZXMsIEFyZ2VudGluYQ
Buenos Aires,61793800,ESCUELA DE EDUCACIÓN SECUNDARIA Nº 49,Estatal,Activo,Urbano,BELGRANO E/ URUGUAY Y SAN MARTIN 3740  ,1650,4508-9112,6371007,GENERAL SAN MARTIN,GENERAL SAN MARTIN,ignacio.fnachogonzalez@hotmail.com; obs0450012@abc.gov.ar,True,False,False,False,False,False,False,False,False,False,True,False,False,False,06371,"BELGRANO E/ URUGUAY Y SAN MARTIN 3740  , GENERAL SAN MARTIN, GENERAL SAN MARTIN, Buenos Aires, Argentina","BELGRANO 3740  , GENERAL SAN MARTIN, GENERAL SAN MARTIN, Buenos Aires, Argentina","BELGRANO 3740, GENERAL SAN MARTIN, Buenos Aires, Argentina",-58.5084073,-34.548632,EjBVcnVndWF5LCBWaWxsYSBNYXJ0ZWxsaSwgQnVlbm9zIEFpcmVzLCBBcmdlbnRpbmE
Buenos Aires,61793900,ESCUELA DE EDUCACIÓN SECUNDARIA Nº 46,Estatal,Activo,Urbano,DIAG. 180 E/ ARTIGAS Y S. DEL ESTERO 3528  ,1655,4729-5931,6371008,JOSE LEON SUAREZ,GENERAL SAN MARTIN,0045bs0017@gmail.com; 0045bs0017@gmail.com; obs0450017@abc.gov.ar,True,False,False,False,False,False,False,False,False,False,True,False,False,False,06371,"DIAG. 180 E/ ARTIGAS Y S. DEL ESTERO 3528  , JOSE LEON SUAREZ, GENERAL SAN MARTIN, Buenos Aires, Argentina","DIAG. 180 180 E/ ARTIGAS Y S. DEL ESTERO 3528  , JOSE LEON SUAREZ, GENERAL SAN MARTIN, Buenos Aires, Argentina","DIAG. 180 180 E/ ARTIGAS Y S. DEL ESTERO 3528, GENERAL SAN MARTIN, Buenos Aires, Argentina",,,
Buenos Aires,61794000,ESCUELA SECUNDARIA Nº33,Estatal,Activo,Urbano,MENDOZA 1069  BARRIO MI ESPERANZA,1651,4713-4532,6371035,VILLA ZAGALA,GENERAL SAN MARTIN,18secundaria@gmail.com,True,False,False,False,False,False,False,False,False,False,True,False,False,False,06371,"MENDOZA 1069  BARRIO MI ESPERANZA, VILLA ZAGALA, GENERAL SAN MARTIN, Buenos Aires, Argentina","MENDOZA 1069  BARRIO MI ESPERANZA, VILLA ZAGALA, GENERAL SAN MARTIN, Buenos Aires, Argentina","MENDOZA 1069, GENERAL SAN MARTIN, Buenos Aires, Argentina",-58.521961,-34.5554097,EjFNZW5kb3phIDEwNjksIFNhbiBBbmRyZXMsIEJ1ZW5vcyBBaXJlcywgQXJnZW50aW5h
Buenos Aires,61794100,ESCUELA SECUNDARIA Nº26,Estatal,Activo,Urbano,AVDA. 9 DE JULIO ESQ. MONACO 6351  ,1655,4589-8824,6371008,JOSE LEON SUAREZ,GENERAL SAN MARTIN,0045ms0026@gmail.com,True,False,False,False,False,False,False,False,False,False,True,False,False,False,06371,"AVDA. 9 DE JULIO ESQ. MONACO 6351  , JOSE LEON SUAREZ, GENERAL SAN MARTIN, Buenos Aires, Argentina","AVDA. 9 DE JULIO ESQ. MONACO 6351  , JOSE LEON SUAREZ, GENERAL SAN MARTIN, Buenos Aires, Argentina","AVDA. 9 DE JULIO ESQ. MONACO 6351, GENERAL SAN MARTIN, Buenos Aires, Argentina",-58.5800224,-34.5499911,EkZNw7NuYWNvICYgQXYuIDEwMSA5IGRlIEp1bGlvLCBWaWxsYSBCYWxsZXN0ZXIsIEJ1ZW5vcyBBaXJlcywgQXJnZW50aW5h
Buenos Aires,61794200,ESCUELA SECUNDARIA Nº25,Estatal,Activo,Urbano,CASTRO 3319  BARRIO INDEPENDENCIA,1655,4589-8839,6371008,JOSE LEON SUAREZ,GENERAL SAN MARTIN,0045ms0025@gmail.com,True,False,False,False,False,False,False,False,False,False,True,False,False,False,06371,"CASTRO 3319  BARRIO INDEPENDENCIA, JOSE LEON SUAREZ, GENERAL SAN MARTIN, Buenos Aires, Argentina","CASTRO 3319  BARRIO INDEPENDENCIA, JOSE LEON SUAREZ, GENERAL SAN MARTIN, Buenos Aires, Argentina","CASTRO 3319, GENERAL SAN MARTIN, Buenos Aires, Argentina",-58.5640603,-34.578577,EjJDYXN0cm8gMzMxOSwgQmlsbGluZ2h1cnN0LCBCdWVub3MgQWlyZXMsIEFyZ2VudGluYQ
Buenos Aires,61794300,ESCUELA DE EDUCACIÓN SECUNDARIA Nº 35,Estatal,Activo,Urbano,JULIO A. ROCA ESQ. RIVADAVIA 2400  ,1650,4755-0066,6371028,VILLA MAIPU,GENERAL SAN MARTIN,0045bs0033@gmail.com; obs0450033@abc.gov.ar,True,False,False,False,False,False,False,False,False,False,True,False,False,False,06371,"JULIO A. ROCA ESQ. RIVADAVIA 2400  , VILLA MAIPU, GENERAL SAN MARTIN, Buenos Aires, Argentina","JULIO A. ROCA ESQ. RIVADAVIA 2400  , VILLA MAIPU, GENERAL SAN MARTIN, Buenos Aires, Argentina","JULIO A. ROCA ESQ. RIVADAVIA 2400, GENERAL SAN MARTIN, Buenos Aires, Argentina",-58.5237756,-34.5607925,EjxKLkEuIFJvY2EgJiBSaXZhZGF2aWEsIFZpbGxhIE1haXDDuiwgQnVlbm9zIEFpcmVzLCBBcmdlbnRpbmE
Buenos Aires,61794400,ESCUELA DE EDUCACIÓN SECUNDARIA Nº24,Estatal,Activo,Urbano,URIARTE E/ A. DEL VALLE Y TRES MARIAS 251  BARRIO TRUJUY,1663,4465-4638,6760005,SAN MIGUEL,SAN MIGUEL,delfycardozo@yahoo.com.ar,True,False,False,False,False,False,False,False,False,False,True,False,False,False,06760,"URIARTE E/ A. DEL VALLE Y TRES MARIAS 251  BARRIO TRUJUY, SAN MIGUEL, SAN MIGUEL, Buenos Aires, Argentina","URIARTE 251  BARRIO TRUJUY, SAN MIGUEL, SAN MIGUEL, Buenos Aires, Argentina","URIARTE 251, SAN MIGUEL, Buenos Aires, Argentina",-58.7319858,-34.5821266,EkVQZWRybyBGLiBkZSBVcmlhcnRlIDI1MSwgQjE2NjNCSkkgU2FuIE1pZ3VlbCwgQnVlbm9zIEFpcmVzLCBBcmdlbnRpbmE
Buenos Aires,61795000,ESC. SECUNDARIA BASICA Nº5,Estatal,Activo,Urbano,AV. EVA PERON 599  ,1834,4392-2692,6490007,TEMPERLEY,LOMAS DE ZAMORA,estadiocultural@yahoo.com.ar; obs0620005@abc.gov.ar,True,False,False,False,False,False,False,False,False,False,True,False,False,False,06490,"AV. EVA PERON 599  , TEMPERLEY, LOMAS DE ZAMORA, Buenos Aires, Argentina","AV. EVA PERON 599  , TEMPERLEY, LOMAS DE ZAMORA, Buenos Aires, Argentina","AV. EVA PERON 599, LOMAS DE ZAMORA, Buenos Aires, Argentina",-58.3889614,-34.7756693,EjZBdi4gRXZhIFBlcsOzbiA1OTksIFRlbXBlcmxleSwgQnVlbm9zIEFpcmVzLCBBcmdlbnRpbmE
Buenos Aires,61795300,ESCUELA DE EDUCACIÓN SECUNDARIA N° 59,Estatal,Activo,Urbano,CASTELLI 816  ,1832,4392-2675,6490005,LOMAS DE ZAMORA,LOMAS DE ZAMORA,obs0620008@abc.gov.ar,True,False,False,False,False,False,False,False,False,False,True,False,False,False,06490,"CASTELLI 816  , LOMAS DE ZAMORA, LOMAS DE ZAMORA, Buenos Aires, Argentina","CASTELLI 816  , LOMAS DE ZAMORA, LOMAS DE ZAMORA, Buenos Aires, Argentina","CASTELLI 816, LOMAS DE ZAMORA, Buenos Aires, Argentina",-58.4072625,-34.7525108,EkpKdWFuIEpvc8OpIENhc3RlbGxpIDgxNiwgQjE4MzJJR1IgTG9tYXMgZGUgWmFtb3JhLCBCdWVub3MgQWlyZXMsIEFyZ2VudGluYQ
Buenos Aires,61795400,ESC. SECUNDARIA BASICA Nº9,Estatal,Activo,Urbano,AV. HIPOLITO YRIGOYEN 689  ,1828,4242-20865,6490001,BANFIELD,LOMAS DE ZAMORA,esbvieytes@yahoo.com; obs0620009@abc.gov.ar,True,False,False,False,False,False,False,False,False,False,True,False,False,False,06490,"AV. HIPOLITO YRIGOYEN 689  , BANFIELD, LOMAS DE ZAMORA, Buenos Aires, Argentina","AV. HIPOLITO YRIGOYEN 689  , BANFIELD, LOMAS DE ZAMORA, Buenos Aires, Argentina","AV. HIPOLITO YRIGOYEN 689, LOMAS DE ZAMORA, Buenos Aires, Argentina",-58.3988297,-34.7425321,EitIaXDDs2xpdG8gWXJpZ295ZW4sIEJ1ZW5vcyBBaXJlcywgQXJnZW50aW5h
Buenos Aires,61795500,ESC. SECUNDARIA BASICA Nº10,Estatal,Activo,Urbano,MEXICO Y BARILARI S/N  ,1828,4260-7311,6490001,BANFIELD,LOMAS DE ZAMORA,mercedesylulu@gmail.com; obs0620010@abc.gov.ar,True,False,False,False,False,False,False,False,False,False,True,False,False,False,06490,"MEXICO Y BARILARI S/N  , BANFIELD, LOMAS DE ZAMORA, Buenos Aires, Argentina","MEXICO Y BARILARI S/N  , BANFIELD, LOMAS DE ZAMORA, Buenos Aires, Argentina","MEXICO Y BARILARI , LOMAS DE ZAMORA, Buenos Aires, Argentina",-58.3511044,-34.7407833,EkNKZXPDunMgUiBPbGl2YW4gJiBCYXJpbGFyaSwgQjE4MjUgQmFuZmllbGQsIEJ1ZW5vcyBBaXJlcywgQXJnZW50aW5h
Buenos Aires,61795600,ESCUELA SECUNDARIA Nº34,Estatal,Activo,Urbano,JOSE M PENNA Y BOEDO 99  ,1832,4392-2646,6490005,LOMAS DE ZAMORA,LOMAS DE ZAMORA,esb311@yahoo.com.ar,True,False,False,False,False,False,False,False,False,False,True,False,False,False,06490,"JOSE M PENNA Y BOEDO 99  , LOMAS DE ZAMORA, LOMAS DE ZAMORA, Buenos Aires, Argentina","JOSE M PENNA Y BOEDO 99  , LOMAS DE ZAMORA, LOMAS DE ZAMORA, Buenos Aires, Argentina","JOSE M PENNA Y BOEDO 99, LOMAS DE ZAMORA, Buenos Aires, Argentina",-58.4102228,-34.754645,ChIJ2yws84XSvJURYQsBAkLsUQE
Buenos Aires,61795800,ESC. SECUNDARIA BASICA Nº13,Estatal,Activo,Urbano,MOLINA ARROTEA Y 24 DE MAYO 1505  ,1832,4282-2013,6490005,LOMAS DE ZAMORA,LOMAS DE ZAMORA,escb13.lz@gmail.com; escb13.lz@gmail.com; obs0620013@abc.gov.ar,True,False,False,False,False,False,False,False,False,False,True,False,False,False,06490,"MOLINA ARROTEA Y 24 DE MAYO 1505  , LOMAS DE ZAMORA, LOMAS DE ZAMORA, Buenos Aires, Argentina","MOLINA ARROTEA Y 24 DE MAYO 1505  , LOMAS DE ZAMORA, LOMAS DE ZAMORA, Buenos Aires, Argentina","MOLINA ARROTEA Y 24 DE MAYO 1505, LOMAS DE ZAMORA, Buenos Aires, Argentina",-58.4204345,-34.7663825,ElEyNCBkZSBNYXlvICYgQ2FsbGUgTW9saW5hIEFycm90ZWEsIEIxODMyIExvbWFzIGRlIFphbW9yYSwgQnVlbm9zIEFpcmVzLCBBcmdlbnRpbmE
Buenos Aires,61796000,ESCUELA SECUNDARIA Nº37,Estatal,Activo,Urbano,MASCAGNI 347  LAPRIDA,1832,4282-3515,6490005,LOMAS DE ZAMORA,LOMAS DE ZAMORA,escuelasecundaria37ldz@yahoo.com.ar,True,False,False,False,False,False,False,False,False,False,True,False,False,False,06490,"MASCAGNI 347  LAPRIDA, LOMAS DE ZAMORA, LOMAS DE ZAMORA, Buenos Aires, Argentina","MASCAGNI 347  LAPRIDA, LOMAS DE ZAMORA, LOMAS DE ZAMORA, Buenos Aires, Argentina","MASCAGNI 347, LOMAS DE ZAMORA, Buenos Aires, Argentina",-58.4329738,-34.7517896,EkVQZWRybyBNYXNjYWduaSAzNDcsIEIxODMyQ1pFIExvbWFzIGRlIFphbW9yYSwgQnVlbm9zIEFpcmVzLCBBcmdlbnRpbmE
Buenos Aires,61796100,ESCUELA SECUNDARIA Nº33,Estatal,Activo,Urbano,HOMERO Y CAFAYATE 3870  VILLA ALBERTINA,1832,4273-7773/7772,6490001,BANFIELD,LOMAS DE ZAMORA,False,True,False,False,False,False,False,False,False,False,False,True,False,False,False,06490,"HOMERO Y CAFAYATE 3870  VILLA ALBERTINA, BANFIELD, LOMAS DE ZAMORA, Buenos Aires, Argentina","HOMERO Y CAFAYATE 3870  VILLA ALBERTINA, BANFIELD, LOMAS DE ZAMORA, Buenos Aires, Argentina","HOMERO Y CAFAYATE 3870, LOMAS DE ZAMORA, Buenos Aires, Argentina",-58.4653222,-34.730683,EkFDYWZheWF0ZSAmIEhvbWVybywgQjE4MjcgSW5nZW5pZXJvIEJ1ZGdlLCBCdWVub3MgQWlyZXMsIEFyZ2VudGluYQ
Buenos Aires,61796101,EXTENSION DE ESCUELA SECUNDARIA Nº33,Estatal,Activo,Urbano,HOMERO 3870  VILLA ALBERTINA,1832,42737772,6490005,LOMAS DE ZAMORA,LOMAS DE ZAMORA,secconformada33@gmail.com,True,False,False,False,False,False,False,False,False,False,True,False,False,False,06490,"HOMERO 3870  VILLA ALBERTINA, LOMAS DE ZAMORA, LOMAS DE ZAMORA, Buenos Aires, Argentina","HOMERO 3870  VILLA ALBERTINA, LOMAS DE ZAMORA, LOMAS DE ZAMORA, Buenos Aires, Argentina","HOMERO 3870, LOMAS DE ZAMORA, Buenos Aires, Argentina",-58.4658475,-34.7301228,Ej5Ib21lcm8gMzg3MCwgQjE4MjdDRkogSW5nZW5pZXJvIEJ1ZGdlLCBCdWVub3MgQWlyZXMsIEFyZ2VudGluYQ
Buenos Aires,61796200,ESC. SECUNDARIA BASICA Nº18,Estatal,Activo,Urbano,HEREDIA Y JURAMENTO 250  ,1834,4264-7991,6490007,TEMPERLEY,LOMAS DE ZAMORA,esb062318@gmail.com; obs0620018@abc.gov.ar,True,False,False,False,False,False,False,False,False,False,True,False,False,False,06490,"HEREDIA Y JURAMENTO 250  , TEMPERLEY, LOMAS DE ZAMORA, Buenos Aires, Argentina","HEREDIA Y JURAMENTO 250  , TEMPERLEY, LOMAS DE ZAMORA, Buenos Aires, Argentina","HEREDIA Y JURAMENTO 250, LOMAS DE ZAMORA, Buenos Aires, Argentina",-58.3607789,-34.7711499,EkdKb3PDqSBNYXLDrWEgZGUgSGVyZWRpYSAmIEp1cmFtZW50bywgVGVtcGVybGV5LCBCdWVub3MgQWlyZXMsIEFyZ2VudGluYQ
Buenos Aires,61796400,ESC. SECUNDARIA BASICA Nº21,Estatal,Activo,Urbano,RIBERA SUR 1750  I. BUDGE,1773,4273-7789,6490001,BANFIELD,LOMAS DE ZAMORA,gitatios@yahoo.com.ar; obs0620021@abc.gov.ar,True,False,False,False,False,False,False,False,False,False,True,False,False,False,06490,"RIBERA SUR 1750  I. BUDGE, BANFIELD, LOMAS DE ZAMORA, Buenos Aires, Argentina","RIBERA SUR 1750  I. BUDGE, BANFIELD, LOMAS DE ZAMORA, Buenos Aires, Argentina","RIBERA SUR 1750, LOMAS DE ZAMORA, Buenos Aires, Argentina",-58.3685445,-34.6209899,ChIJR-pKU9I0o5URzwNpqDzLtXY
Buenos Aires,61796600,ESCUELA SECUNDARIA Nº57,Estatal,Activo,Urbano,B.DE IRIGOYEN E/14 DE JULIO Y ANCHOREN 750  ,1834,4243-1686,6490007,TEMPERLEY,LOMAS DE ZAMORA,esb326@hotmail.com; obs0620026@abc.gov.ar,True,False,False,False,False,False,False,False,False,False,True,False,False,False,06490,"B.DE IRIGOYEN E/14 DE JULIO Y ANCHOREN 750  , TEMPERLEY, LOMAS DE ZAMORA, Buenos Aires, Argentina","B.DE IRIGOYEN 14 DE JULIO Y ANCHOREN 750  , TEMPERLEY, LOMAS DE ZAMORA, Buenos Aires, Argentina","B.DE IRIGOYEN 14 DE JULIO Y ANCHOREN 750, LOMAS DE ZAMORA, Buenos Aires, Argentina",,,
Buenos Aires,61796700,ESCUELA SECUNDARIA Nº40,Estatal,Activo,Urbano,LUIS SICILIANO Y GORDILLO 1551  ,1828,4276-4109,6490005,LOMAS DE ZAMORA,LOMAS DE ZAMORA,False,True,False,False,False,False,False,False,False,False,False,True,False,False,False,06490,"LUIS SICILIANO Y GORDILLO 1551  , LOMAS DE ZAMORA, LOMAS DE ZAMORA, Buenos Aires, Argentina","LUIS SICILIANO Y GORDILLO 1551  , LOMAS DE ZAMORA, LOMAS DE ZAMORA, Buenos Aires, Argentina","LUIS SICILIANO Y GORDILLO 1551, LOMAS DE ZAMORA, Buenos Aires, Argentina",-58.4292804,-34.7389926,ElJMdWlzIFNpY2lsaWFubyAmIFRpbW90ZW8gR29yZGlsbG8sIEIxODI4IFZpbGxhIENlbnRlbmFyaW8sIEJ1ZW5vcyBBaXJlcywgQXJnZW50aW5h
Buenos Aires,61796701,EXTENSION I DE ESCUELA SECUNDARIA Nº40,Estatal,Activo,Urbano,CELINA L.DE MINETTO 1455  ,1838,4286-2737,6490001,BANFIELD,LOMAS DE ZAMORA,escuelasecundaria_40@hotmail.com,True,False,False,False,False,False,False,False,False,False,True,False,False,False,06490,"CELINA L.DE MINETTO 1455  , BANFIELD, LOMAS DE ZAMORA, Buenos Aires, Argentina","CELINA L.DE MINETTO 1455  , BANFIELD, LOMAS DE ZAMORA, Buenos Aires, Argentina","CELINA L.DE MINETTO 1455, LOMAS DE ZAMORA, Buenos Aires, Argentina",-58.433551,-34.7373381,EltDZWxpbmEgSGlsZGEgTGl2ZXJhbm9tZSBkZSBNaW5ldHRvIDE0NTUsIEIxODI4RlBRIFZpbGxhIENlbnRlbmFyaW8sIEJ1ZW5vcyBBaXJlcywgQXJnZW50aW5h
Buenos Aires,61796900,ESCUELA SECUNDARIA Nº47,Estatal,Activo,Urbano,HORNERO Y CONCEPCION   ,1834,4212-5419,6490007,TEMPERLEY,LOMAS DE ZAMORA,obs0620030@abc.gov.ar,True,False,False,False,False,False,False,False,False,False,True,False,False,False,06490,"HORNERO Y CONCEPCION   , TEMPERLEY, LOMAS DE ZAMORA, Buenos Aires, Argentina","HORNERO Y CONCEPCION   , TEMPERLEY, LOMAS DE ZAMORA, Buenos Aires, Argentina","HORNERO Y CONCEPCION   , TEMPERLEY, LOMAS DE ZAMORA, Buenos Aires, Argentina",-58.3404311,-34.7531935,EjxDb25jZXBjacOzbiAmIEVsIEhvcm5lcm8sIFRlbXBlcmxleSwgQnVlbm9zIEFpcmVzLCBBcmdlbnRpbmE
Buenos Aires,61797200,ESC. SECUNDARIA BASICA Nº33,Estatal,Activo,Urbano,EJERCITO DE LOS ANDES 1318  FIORITO,1831,4286-8865,6490001,BANFIELD,LOMAS DE ZAMORA,esb333lz@yahoo.com.ar; obs0620033@abc.gov.ar,True,False,False,False,False,False,False,False,False,False,True,False,False,False,06490,"EJERCITO DE LOS ANDES 1318  FIORITO, BANFIELD, LOMAS DE ZAMORA, Buenos Aires, Argentina","EJERCITO DE LOS ANDES 1318  FIORITO, BANFIELD, LOMAS DE ZAMORA, Buenos Aires, Argentina","EJERCITO DE LOS ANDES 1318, LOMAS DE ZAMORA, Buenos Aires, Argentina",-58.4431863,-34.7216329,EkxFasOpcmNpdG8gZGUgbG9zIEFuZGVzIDEzMTgsIEIxODIxQlhCIFZpbGxhIEZpb3JpdG8sIEJ1ZW5vcyBBaXJlcywgQXJnZW50aW5h
Buenos Aires,61797300,ESC. SECUNDARIA BASICA Nº34,Estatal,Activo,Urbano,VUCETICH ESQ.PERGAMINO 4834  VILLA LAMADRID,1832,4273-8263,6490001,BANFIELD,LOMAS DE ZAMORA,obs0620034@abc.gov.ar,True,False,False,False,False,False,False,False,False,False,True,False,False,False,06490,"VUCETICH ESQ.PERGAMINO 4834  VILLA LAMADRID, BANFIELD, LOMAS DE ZAMORA, Buenos Aires, Argentina","VUCETICH ESQ.PERGAMINO 4834  VILLA LAMADRID, BANFIELD, LOMAS DE ZAMORA, Buenos Aires, Argentina","VUCETICH ESQ.PERGAMINO 4834, LOMAS DE ZAMORA, Buenos Aires, Argentina",-58.4803049,-34.7262412,EklKdWFuIFZ1Y2V0aWNoICYgUGVyZ2FtaW5vLCBCMTgyNyBJbmdlbmllcm8gQnVkZ2UsIEJ1ZW5vcyBBaXJlcywgQXJnZW50aW5h
Buenos Aires,61797700,ESCUELA SECUNDARIA Nº113,Estatal,Activo,Urbano,MARIANO ACOSTA 2793  BARRIO LA SALLE,1759,43-6834,6427005,GONZALEZ CATAN,LA MATANZA,False,True,False,False,False,False,False,False,False,False,False,True,False,False,False,06427,"MARIANO ACOSTA 2793  BARRIO LA SALLE, GONZALEZ CATAN, LA MATANZA, Buenos Aires, Argentina","MARIANO ACOSTA 2793  BARRIO LA SALLE, GONZALEZ CATAN, LA MATANZA, Buenos Aires, Argentina","MARIANO ACOSTA 2793, LA MATANZA, Buenos Aires, Argentina",-58.6354928,-34.7851044,ChIJ3XEc9JnEvJUR1jMo2WRzyjo
Buenos Aires,61797800,ESCUELA SECUNDARIA Nº66,Estatal,Activo,Urbano,DR.EQUIZA 5296  ,1759,43-8052,6427005,GONZALEZ CATAN,LA MATANZA,silviprietogara@hotmail.com,True,False,False,False,False,False,False,False,False,False,True,False,False,False,06427,"DR.EQUIZA 5296  , GONZALEZ CATAN, LA MATANZA, Buenos Aires, Argentina","DR.EQUIZA 5296  , GONZALEZ CATAN, LA MATANZA, Buenos Aires, Argentina","DR.EQUIZA 5296, LA MATANZA, Buenos Aires, Argentina",-58.6374314,-34.77738,EklBdi4gSm9zw6kgRXF1aXphIDUyOTYsIEIxNzU5TFVUIEdvbnrDoWxleiBDYXTDoW4sIEJ1ZW5vcyBBaXJlcywgQXJnZW50aW5h
Buenos Aires,61797900,ESC. SECUNDARIA BASICA Nº18,Estatal,Activo,Urbano,FACUNDO Y BUCHARDO 239  ,1754,4485-4652/4639,6427014,VILLA LUZURIAGA,LA MATANZA,obs0690018@abc.gov.ar,True,False,False,False,False,False,False,False,False,False,True,False,False,False,06427,"FACUNDO Y BUCHARDO 239  , VILLA LUZURIAGA, LA MATANZA, Buenos Aires, Argentina","FACUNDO Y BUCHARDO 239  , VILLA LUZURIAGA, LA MATANZA, Buenos Aires, Argentina","FACUNDO Y BUCHARDO 239, LA MATANZA, Buenos Aires, Argentina",-58.602526,-34.6700596,EjxGYWN1bmRvICYgQnVjaGFyZG8sIFZpbGxhIEx1enVyaWFnYSwgQnVlbm9zIEFpcmVzLCBBcmdlbnRpbmE
Buenos Aires,61798000,ESCUELA SECUNDARIA Nº67,Estatal,Activo,Urbano,EL JAZMIN E/ACHIRA Y BAEZ LLORENTE S/N  LA LOMA,1759,43-6607,6427005,GONZALEZ CATAN,LA MATANZA,ees67catan@gmail.com,True,False,False,False,False,False,False,False,False,False,True,False,False,False,06427,"EL JAZMIN E/ACHIRA Y BAEZ LLORENTE S/N  LA LOMA, GONZALEZ CATAN, LA MATANZA, Buenos Aires, Argentina","EL JAZMIN E/ACHIRA Y BAEZ LLORENTE S/N  LA LOMA, GONZALEZ CATAN, LA MATANZA, Buenos Aires, Argentina","EL JAZMIN E/ACHIRA Y BAEZ LLORENTE , LA MATANZA, Buenos Aires, Argentina",,,
Buenos Aires,61798100,ESCUELA SECUNDARIA Nº121,Estatal,Activo,Urbano,CRISTIANIA Y DEL BAÑADO S/N  ,1755,4625-3357,6427010,RAFAEL CASTILLO,LA MATANZA,ansole950@hotmail.com,True,False,False,False,False,False,False,False,False,False,True,False,False,False,06427,"CRISTIANIA Y DEL BAÑADO S/N  , RAFAEL CASTILLO, LA MATANZA, Buenos Aires, Argentina","CRISTIANIA Y DEL BAÑADO S/N  , RAFAEL CASTILLO, LA MATANZA, Buenos Aires, Argentina","CRISTIANIA Y DEL BAÑADO , LA MATANZA, Buenos Aires, Argentina",-58.6090466,-34.6916768,EkdEZWwgQmHDsWFkbyAmIEF2LiBDcmlzdGlhbsOtYSwgVmlsbGEgTHV6dXJpYWdhLCBCdWVub3MgQWlyZXMsIEFyZ2VudGluYQ
Buenos Aires,61798300,ESC. SECUNDARIA BASICA Nº67,Estatal,Activo,Urbano,2 DE ABRIL Y MANUEL ARIAS 6125  ,1759,42-7199,6427005,GONZALEZ CATAN,LA MATANZA,obs0690067@abc.gov.ar,True,False,False,False,False,False,False,False,False,False,True,False,False,False,06427,"2 DE ABRIL Y MANUEL ARIAS 6125  , GONZALEZ CATAN, LA MATANZA, Buenos Aires, Argentina","2 DE ABRIL Y MANUEL ARIAS 6125  , GONZALEZ CATAN, LA MATANZA, Buenos Aires, Argentina","2 DE ABRIL Y MANUEL ARIAS 6125, LA MATANZA, Buenos Aires, Argentina",-58.6209133,-34.7662605,EkoyIGRlIEFicmlsICYgTWFudWVsIEFyaWFzLCBCMTc1OSBHb256w6FsZXogQ2F0w6FuLCBCdWVub3MgQWlyZXMsIEFyZ2VudGluYQ
Buenos Aires,61798500,ESCUELA SECUNDARIA Nº140,Estatal,Activo,Urbano,BLOMBERG Y TITANIC 1850  BARRIO SAN CAYETANO,1755,4690-9279,6427010,RAFAEL CASTILLO,LA MATANZA,cristina17572@argentina.com; obs0690072@abc.gov.ar,True,False,False,False,False,False,False,False,False,False,True,False,False,False,06427,"BLOMBERG Y TITANIC 1850  BARRIO SAN CAYETANO, RAFAEL CASTILLO, LA MATANZA, Buenos Aires, Argentina","BLOMBERG Y TITANIC 1850  BARRIO SAN CAYETANO, RAFAEL CASTILLO, LA MATANZA, Buenos Aires, Argentina","BLOMBERG Y TITANIC 1850, LA MATANZA, Buenos Aires, Argentina",-58.6271901,-34.7162292,EklIZWN0b3IgQmxvbWJlcmcgJiBUaXRhbmljLCBCMTc1NSBSYWZhZWwgQ2FzdGlsbG8sIEJ1ZW5vcyBBaXJlcywgQXJnZW50aW5h
Buenos Aires,61798700,ESCUELA SECUNDARIA Nº25,Estatal,Activo,Urbano,AV. REAL 47  ,1723,486-7638,6539005,MERLO,MERLO,adrimayo58@yahoo.com.ar,True,False,False,False,False,False,False,False,False,False,True,False,False,False,06539,"AV. REAL 47  , MERLO, MERLO, Buenos Aires, Argentina","AV. REAL 47  , MERLO, MERLO, Buenos Aires, Argentina","AV. REAL 47, MERLO, Buenos Aires, Argentina",-58.7232317,-34.6734979,ChIJU3T_sve_vJURN7J8J_1xpcM
Buenos Aires,61798800,ESCUELA SECUNDARIA Nº32,Estatal,Activo,Urbano,JUAN MANUEL DE ROSAS 840  ,1722,482-6030,6539005,MERLO,MERLO,sb23merlo@gmail.com; obs0710023@abc.gov.ar,True,False,False,False,False,False,False,False,False,False,True,False,False,False,06539,"JUAN MANUEL DE ROSAS 840  , MERLO, MERLO, Buenos Aires, Argentina","JUAN MANUEL DE ROSAS 840  , MERLO, MERLO, Buenos Aires, Argentina","JUAN MANUEL DE ROSAS 840, MERLO, Buenos Aires, Argentina",-58.7299569,-34.6666263,ChIJG9nryOS_vJURa8vXTMAWCvM
Buenos Aires,61798900,ESC. SECUNDARIA BASICA Nº24,Estatal,Activo,Urbano,PEHUAJO Y CHASCOMUS S/N  BARRIO NUEVO,1716,494-2396,6539003,LIBERTAD,MERLO,secundariabasica24@hotmail.com; obs0710024@abc.gov.ar,True,False,False,False,False,False,False,False,False,False,True,False,False,False,06539,"PEHUAJO Y CHASCOMUS S/N  BARRIO NUEVO, LIBERTAD, MERLO, Buenos Aires, Argentina","PEHUAJO Y CHASCOMUS S/N  BARRIO NUEVO, LIBERTAD, MERLO, Buenos Aires, Argentina","PEHUAJO Y CHASCOMUS , MERLO, Buenos Aires, Argentina",-58.6659121,-34.7071733,Ej5QZWh1YWrDsyAmIENoYXNjb23DunMsIEIxNzE2IExpYmVydGFkLCBCdWVub3MgQWlyZXMsIEFyZ2VudGluYQ
Buenos Aires,61799000,ESC. SECUNDARIA BASICA Nº26,Estatal,Activo,Urbano,UGARTECHE S/N  SANTA ISABEL,1723,498-3322,6539004,MARIANO ACOSTA,MERLO,sanjoa2006@hotmail.com; obs0710026@abc.gov.ar,True,False,False,False,False,False,False,False,False,False,True,False,False,False,06539,"UGARTECHE S/N  SANTA ISABEL, MARIANO ACOSTA, MERLO, Buenos Aires, Argentina","UGARTECHE S/N  SANTA ISABEL, MARIANO ACOSTA, MERLO, Buenos Aires, Argentina","UGARTECHE , MERLO, Buenos Aires, Argentina",-58.7688798,-34.7524606,ChIJlYZzmDnqvJURUBOHaSePoQ4
Buenos Aires,61799100,ESCUELA SECUNDARIA Nº35,Estatal,Activo,Urbano,MARCOS SASTRE E/ AYACUCHO Y MAZA S/N  BARRIO LOS PARAISOS,1722,486-0346,6539005,MERLO,MERLO,perla_lombardo@hotmail.com; obs0710027@abc.gov.ar,True,False,False,False,False,False,False,False,False,False,True,False,False,False,06539,"MARCOS SASTRE E/ AYACUCHO Y MAZA S/N  BARRIO LOS PARAISOS, MERLO, MERLO, Buenos Aires, Argentina","MARCOS SASTRE E/ AYACUCHO Y MAZA S/N  BARRIO LOS PARAISOS, MERLO, MERLO, Buenos Aires, Argentina","MARCOS SASTRE E/ AYACUCHO Y MAZA , MERLO, Buenos Aires, Argentina",,,
Buenos Aires,61799200,ºESC. SECUNDARIA BASICA Nº28,Estatal,Activo,Urbano,ALIPPI E/ PAGANO Y O'CONNORS S/N  Agustin Ferrari,1723,498-6263,6539005,MERLO,MERLO,eduardorandes@yahoo.com.ar; obs0710028@abc.gov.ar,True,False,False,False,False,False,False,False,False,False,True,False,False,False,06539,"ALIPPI E/ PAGANO Y O'CONNORS S/N  Agustin Ferrari, MERLO, MERLO, Buenos Aires, Argentina","ALIPPI E/ PAGANO Y O'CONNORS S/N  Agustin Ferrari, MERLO, MERLO, Buenos Aires, Argentina","ALIPPI E/ PAGANO Y O'CONNORS , MERLO, Buenos Aires, Argentina",,,
Buenos Aires,61799300,ESCUELA DE EDUCACIÓN SECUNDARIA Nº47 ABRAZO DE NACIONES,Estatal,Activo,Urbano,HEREDIA E/ MARIMONIAS Y JONTE 548  A: FERRARI,1723,498-4046,6539005,MERLO,MERLO,fernandoluissi@hotmail.com; obs0710029@abc.gov.ar,True,False,False,False,False,False,False,False,False,False,True,False,False,False,06539,"HEREDIA E/ MARIMONIAS Y JONTE 548  A: FERRARI, MERLO, MERLO, Buenos Aires, Argentina","HEREDIA 548  A: FERRARI, MERLO, MERLO, Buenos Aires, Argentina","HEREDIA 548, MERLO, Buenos Aires, Argentina",-58.7699948,-34.706038,Ej1IZXJlZGlhIDU0OCwgQjE3MjRFT0wgTWFyaWFubyBBY29zdGEsIEJ1ZW5vcyBBaXJlcywgQXJnZW50aW5h
Buenos Aires,61799400,ESCUELA SECUNDARIA Nº43,Estatal,Activo,Urbano,MILLER 696  ,1716,494-3686,6539003,LIBERTAD,MERLO,institutocoloresperanza@hotmail.com; obs0710030@abc.gov.ar,True,False,False,False,False,False,False,False,False,False,True,False,False,False,06539,"MILLER 696  , LIBERTAD, MERLO, Buenos Aires, Argentina","MILLER 696  , LIBERTAD, MERLO, Buenos Aires, Argentina","MILLER 696, MERLO, Buenos Aires, Argentina",-58.6802276,-34.687005,ChIJgz6HC_LAvJUREsKjlYj_KhQ
Buenos Aires,61799500,ESC. SECUNDARIA BASICA Nº31,Estatal,Activo,Urbano,MADARIAGA ( Esq. Jose Marti) 291  LOMA FLORIDA,1722,489-6518,6539005,MERLO,MERLO,obs0710031@abc.gov.ar,True,False,False,False,False,False,False,False,False,False,True,False,False,False,06539,"MADARIAGA ( Esq. Jose Marti) 291  LOMA FLORIDA, MERLO, MERLO, Buenos Aires, Argentina","MADARIAGA ( Esq. Jose Marti) 291  LOMA FLORIDA, MERLO, MERLO, Buenos Aires, Argentina","MADARIAGA ( Esq. Jose Marti) 291, MERLO, Buenos Aires, Argentina",-58.7608781,-34.6776817,Ej5NYWRhcmlhZ2EgJiBKb3PDqSBNYXJ0w60sIEIxNzIyIE1lcmxvLCBCdWVub3MgQWlyZXMsIEFyZ2VudGluYQ
Buenos Aires,61799600,ESCUELA SECUNDARIA Nº39,Estatal,Activo,Urbano,LUIS VIALE Y ALBARIÑOS S/N  LAS CAMPANILLAS,1761,498-0461,6539007,PONTEVEDRA,MERLO,adrimayo58@yahoo.com.ar; obs0710032@abc.gov.ar,True,False,False,False,False,False,False,False,False,False,True,False,False,False,06539,"LUIS VIALE Y ALBARIÑOS S/N  LAS CAMPANILLAS, PONTEVEDRA, MERLO, Buenos Aires, Argentina","LUIS VIALE Y ALBARIÑOS S/N  LAS CAMPANILLAS, PONTEVEDRA, MERLO, Buenos Aires, Argentina","LUIS VIALE Y ALBARIÑOS , MERLO, Buenos Aires, Argentina",-58.7393705,-34.7199276,EjZMdWlzIFZpYWxlICYgQWxiYXJpbm9zLCBNZXJsbywgQnVlbm9zIEFpcmVzLCBBcmdlbnRpbmE
Buenos Aires,61799700,ESCUELA DE EDUCACIÓN SECUNDARIA Nº48,Estatal,Activo,Urbano,PAGOLA ESQ. BALASTRO 795  ,1722,493-0562,6539001,BARRIO PARQUE SAN MARTIN,MERLO,direccionsb33@yahoo.com.ar; obs0710033@abc.gov.ar,True,False,False,False,False,False,False,False,False,False,True,False,False,False,06539,"PAGOLA ESQ. BALASTRO 795  , BARRIO PARQUE SAN MARTIN, MERLO, Buenos Aires, Argentina","PAGOLA ESQ. BALASTRO 795  , BARRIO PARQUE SAN MARTIN, MERLO, Buenos Aires, Argentina","PAGOLA ESQ. BALASTRO 795, MERLO, Buenos Aires, Argentina",,,
Buenos Aires,61799800,ESC. SECUNDARIA BASICA Nº34,Estatal,Activo,Urbano,BENAVENTE 1373  BARRIO TOBAL,1722,4875236,6539005,MERLO,MERLO,monzondaniel@hotmail.com; obs0710034@abc.gov.ar,True,False,False,False,False,False,False,False,False,False,True,False,False,False,06539,"BENAVENTE 1373  BARRIO TOBAL, MERLO, MERLO, Buenos Aires, Argentina","BENAVENTE 1373  BARRIO TOBAL, MERLO, MERLO, Buenos Aires, Argentina","BENAVENTE 1373, MERLO, Buenos Aires, Argentina",-58.7537026,-34.6801139,ChIJDbDOEkyVvJUR3xiIGJjVC4A
Buenos Aires,61799900,ESCUELA SECUNDARIA Nº36,Estatal,Activo,Urbano,ROMA Y RIVERA INDARTE S/N  SANTA JULIA,1761,492-0424,6539007,PONTEVEDRA,MERLO,ale_dire36@hotmail.com; obs0710036@abc.gov.ar,True,False,False,False,False,False,False,False,False,False,True,False,False,False,06539,"ROMA Y RIVERA INDARTE S/N  SANTA JULIA, PONTEVEDRA, MERLO, Buenos Aires, Argentina","ROMA Y RIVERA INDARTE S/N  SANTA JULIA, PONTEVEDRA, MERLO, Buenos Aires, Argentina","ROMA Y RIVERA INDARTE , MERLO, Buenos Aires, Argentina",-58.6937485,-34.7410509,EkNSaXZlcmEgSW5kYXJ0ZSAmIERlIFJvbWEsIEIxNzYxIFBvbnRldmVkcmEsIEJ1ZW5vcyBBaXJlcywgQXJnZW50aW5h
Buenos Aires,61800000,ESCUELA SECUNDARIA Nº41,Estatal,Activo,Urbano,SERRANO 1702  BARRIO OLIVETTI,1722,483-7410,6539005,MERLO,MERLO,0bs0710037@abc.gov.ar; obs0710037@abc.gov.ar,True,False,False,False,False,False,False,False,False,False,True,False,False,False,06539,"SERRANO 1702  BARRIO OLIVETTI, MERLO, MERLO, Buenos Aires, Argentina","SERRANO 1702  BARRIO OLIVETTI, MERLO, MERLO, Buenos Aires, Argentina","SERRANO 1702, MERLO, Buenos Aires, Argentina",-58.7428942,-34.6642622,EixTZXJyYW5vIDE3MDIsIE1lcmxvLCBCdWVub3MgQWlyZXMsIEFyZ2VudGluYQ
Buenos Aires,61800100,ESCUELA DE EDUCACIÓN SECUNDARIA Nº51,Estatal,Activo,Urbano,JUANA AZURDUY 1420  LOS VASCOS,1722,486-2692,6539005,MERLO,MERLO,hbentui@gmail.com; obs0710040@abc.gov.ar,True,False,False,False,False,False,False,False,False,False,True,False,False,False,06539,"JUANA AZURDUY 1420  LOS VASCOS, MERLO, MERLO, Buenos Aires, Argentina","JUANA AZURDUY 1420  LOS VASCOS, MERLO, MERLO, Buenos Aires, Argentina","JUANA AZURDUY 1420, MERLO, Buenos Aires, Argentina",-58.7343319,-34.6807299,EjtKdWFuYSBBenVyZHV5IDE0MjAsIEIxNzIxRE5GIE1lcmxvLCBCdWVub3MgQWlyZXMsIEFyZ2VudGluYQ
Buenos Aires,61800300,ESCUELA SECUNDARIA Nº22,Estatal,Activo,Urbano,CONSTITUCION 352  ,1722,485-5798,6539005,MERLO,MERLO,esecundaria22@gmail.com,True,False,False,False,False,False,False,False,False,False,True,False,False,False,06539,"CONSTITUCION 352  , MERLO, MERLO, Buenos Aires, Argentina","CONSTITUCION 352  , MERLO, MERLO, Buenos Aires, Argentina","CONSTITUCION 352, MERLO, Buenos Aires, Argentina",-58.7306491,-34.6752471,ChIJzfyS2_i_vJUR7oEK0hBO3Lg
Buenos Aires,61800500,ESCUELAS DE EDUCACIÓN SECUNDARIA Nº54,Estatal,Activo,Urbano,PERDRIEL Y CORVALÁN 3050  ,1722,485-8749,6539032,MERLO NORTE,MERLO,obs0710054@abc.gov.ar,True,False,False,False,False,False,False,False,False,False,True,False,False,False,06539,"PERDRIEL Y CORVALÁN 3050  , MERLO NORTE, MERLO, Buenos Aires, Argentina","PERDRIEL Y CORVALÁN 3050  , MERLO NORTE, MERLO, Buenos Aires, Argentina","PERDRIEL Y CORVALÁN 3050, MERLO, Buenos Aires, Argentina",-58.7298118,-34.648921,EjlDb3J2YWxhbiAmIFBlcmRyaWVsLCBCMTcyMiBNZXJsbywgQnVlbm9zIEFpcmVzLCBBcmdlbnRpbmE
Buenos Aires,61800600,ESCUELA DE EDUCACIÓN SECUNDARIA Nº55,Estatal,Activo,Urbano,MADRID 88  EL MIRADOR,1722,497-8050,6539001,BARRIO PARQUE SAN MARTIN,MERLO,obs0710055@abc.gov.ar,True,False,False,False,False,False,False,False,False,False,True,False,False,False,06539,"MADRID 88  EL MIRADOR, BARRIO PARQUE SAN MARTIN, MERLO, Buenos Aires, Argentina","MADRID 88  EL MIRADOR, BARRIO PARQUE SAN MARTIN, MERLO, Buenos Aires, Argentina","MADRID 88, MERLO, Buenos Aires, Argentina",-58.7093468,-34.6941982,EjJNYWRyaWQgODgsIEIxNzIxS0dEIE1lcmxvLCBCdWVub3MgQWlyZXMsIEFyZ2VudGluYQ
Buenos Aires,61800700,ESCUELA DE EDUCACIÓN SECUNDARIA Nº56,Estatal,Activo,Urbano,DOBLAS 1851  BARRIO EL CORTIJO,1716,495-0715,6539003,LIBERTAD,MERLO,obs0710056@abc.gov.ar,True,False,False,False,False,False,False,False,False,False,True,False,False,False,06539,"DOBLAS 1851  BARRIO EL CORTIJO, LIBERTAD, MERLO, Buenos Aires, Argentina","DOBLAS 1851  BARRIO EL CORTIJO, LIBERTAD, MERLO, Buenos Aires, Argentina","DOBLAS 1851, MERLO, Buenos Aires, Argentina",-58.6562458,-34.697401,EjdEb2JsYXMgMTg1MSwgQjE3MTZJS0kgTGliZXJ0YWQsIEJ1ZW5vcyBBaXJlcywgQXJnZW50aW5h
Buenos Aires,61800800,ESC. SECUNDARIA BASICA Nº57,Estatal,Activo,Urbano,DAVILA ESQ. BURELA S/N  BARRIO ALBATROS,1722,489-0111,6539005,MERLO,MERLO,esb57merlo@gmail.com; obs0710057@abc.gov.ar,True,False,False,False,False,False,False,False,False,False,True,False,False,False,06539,"DAVILA ESQ. BURELA S/N  BARRIO ALBATROS, MERLO, MERLO, Buenos Aires, Argentina","DAVILA ESQ. BURELA S/N  BARRIO ALBATROS, MERLO, MERLO, Buenos Aires, Argentina","DAVILA ESQ. BURELA , MERLO, Buenos Aires, Argentina",-58.7824617,-34.6795167,EjVCdXJlbGEgJiBEYXZpbGEsIEIxNzIyIE1lcmxvLCBCdWVub3MgQWlyZXMsIEFyZ2VudGluYQ
Buenos Aires,61800900,ESC. SECUNDARIA BASICA Nº58,Estatal,Activo,Urbano,IBERA 3950  LA NEGRITA,1723,498-5462,6539004,MARIANO ACOSTA,MERLO,sb58merlo@gmail.com; obs0710058@abc.gov.ar,True,False,False,False,False,False,False,False,False,False,True,False,False,False,06539,"IBERA 3950  LA NEGRITA, MARIANO ACOSTA, MERLO, Buenos Aires, Argentina","IBERA 3950  LA NEGRITA, MARIANO ACOSTA, MERLO, Buenos Aires, Argentina","IBERA 3950, MERLO, Buenos Aires, Argentina",-58.7915761,-34.7293182,EjxJYmVyYSAzOTUwLCBCMTcyNEVVRCBNYXJpYW5vIEFjb3N0YSwgQnVlbm9zIEFpcmVzLCBBcmdlbnRpbmE
Buenos Aires,61801000,ESC. SECUNDARIA BASICA Nº60,Estatal,Activo,Urbano,MUÑIZ 1709  BARRIO EL ZORZAL,1761,492-2022,6539007,PONTEVEDRA,MERLO,toffolom@yahoo.com.ar; obs0710060@abc.gov.ar,True,False,False,False,False,False,False,False,False,False,True,False,False,False,06539,"MUÑIZ 1709  BARRIO EL ZORZAL, PONTEVEDRA, MERLO, Buenos Aires, Argentina","MUÑIZ 1709  BARRIO EL ZORZAL, PONTEVEDRA, MERLO, Buenos Aires, Argentina","MUÑIZ 1709, MERLO, Buenos Aires, Argentina",-58.7112653,-34.7306248,EjlNdcOxaXogMTcwOSwgQjE3NjFDSUkgUG9udGV2ZWRyYSwgQnVlbm9zIEFpcmVzLCBBcmdlbnRpbmE
Buenos Aires,61801100,ESC. SECUNDARIA BASICA Nº61,Estatal,Activo,Urbano,FEVAL E/ FRAGA Y DEAN FUNES 651  BARRIO SAN EDUARDO,1722,489-2050,6539005,MERLO,MERLO,jluesoterico@yahoo.com.ar; obs0710061@abc.gov.ar,True,False,False,False,False,False,False,False,False,False,True,False,False,False,06539,"FEVAL E/ FRAGA Y DEAN FUNES 651  BARRIO SAN EDUARDO, MERLO, MERLO, Buenos Aires, Argentina","FEVAL 651  BARRIO SAN EDUARDO, MERLO, MERLO, Buenos Aires, Argentina","FEVAL 651, MERLO, Buenos Aires, Argentina",-58.772154,-34.682755,EilGZXZhbCA2NTEsIE1lcmxvLCBCdWVub3MgQWlyZXMsIEFyZ2VudGluYQ
Buenos Aires,61801200,ESC. SECUNDARIA BASICA Nº62,Estatal,Activo,Urbano,PLAZA Y J. CELMAN S/N  BARRIO LAS TORRES,1761,492-5553,6539007,PONTEVEDRA,MERLO,silviaeguerrero@live.com.ar; obs0710062@abc.gov.ar,True,False,False,False,False,False,False,False,False,False,True,False,False,False,06539,"PLAZA Y J. CELMAN S/N  BARRIO LAS TORRES, PONTEVEDRA, MERLO, Buenos Aires, Argentina","PLAZA Y J. CELMAN S/N  BARRIO LAS TORRES, PONTEVEDRA, MERLO, Buenos Aires, Argentina","PLAZA Y J. CELMAN , MERLO, Buenos Aires, Argentina",-58.8190119,-34.6761789,ChIJd1xarJuUvJURJ1CU4rRN3fI
Buenos Aires,61801600,ESCUELA SECUNDARIA Nº26,Estatal,Activo,Urbano,AV.844 (E/ 893 Y 894) 2270  ,1881,4212-3210,6658009,SAN FRANCISCO SOLANO,QUILMES,secundariabasica44@gmail.com; obs0850044@abc.gov.ar,True,False,False,False,False,False,False,False,False,False,True,False,False,False,06658,"AV.844 (E/ 893 Y 894) 2270  , SAN FRANCISCO SOLANO, QUILMES, Buenos Aires, Argentina","AV.844 (844 (E/ 893 Y 894) 2270  , SAN FRANCISCO SOLANO, QUILMES, Buenos Aires, Argentina","AV.844 (844 (E/ 893 Y 894) 2270, QUILMES, Buenos Aires, Argentina",-58.3082333,-34.777852,Ek1Bdi4gR3VpbGxlcm1vIEh1ZHNvbiAmIEF2LiA4NDQsIFNhbiBGcmFuY2lzY28gU29sYW5vLCBCdWVub3MgQWlyZXMsIEFyZ2VudGluYQ
Buenos Aires,61801800,ESCUELA DE EDUCACIÓN SECUNDARIA Nº28,Estatal,Activo,Urbano,AVDA LA PLATA E/SAN MAURO Y 1º DE MAYO 1751  ,1879,4280-8336,6658008,QUILMES,QUILMES,secundaria28quilmes@gmail.com; obs0850028@abc.gov.ar,True,False,False,False,False,False,False,False,False,False,True,False,False,False,06658,"AVDA LA PLATA E/SAN MAURO Y 1º DE MAYO 1751  , QUILMES, QUILMES, Buenos Aires, Argentina","AVDA LA PLATA 1º DE MAYO 1751  , QUILMES, QUILMES, Buenos Aires, Argentina","AVDA LA PLATA 1º DE MAYO 1751, QUILMES, Buenos Aires, Argentina",,,
Buenos Aires,61801900,ESC. SECUNDARIA BASICA Nº29,Estatal,Activo,Urbano,MENDOZA Y MORENO 187  ,1882,4224-9206,6658005,EZPELETA,QUILMES,esb0029@gmail.com; obs0850029@abc.gov.ar,True,False,False,False,False,False,False,False,False,False,True,False,False,False,06658,"MENDOZA Y MORENO 187  , EZPELETA, QUILMES, Buenos Aires, Argentina","MENDOZA Y MORENO 187  , EZPELETA, QUILMES, Buenos Aires, Argentina","MENDOZA Y MORENO 187, QUILMES, Buenos Aires, Argentina",-58.2407959,-34.7446023,EjNNZW5kb3phICYgTW9yZW5vLCBFenBlbGV0YSwgQnVlbm9zIEFpcmVzLCBBcmdlbnRpbmE
Buenos Aires,61802000,ESC. SECUNDARIA BASICA Nº30,Estatal,Activo,Urbano,LUIS MARIA DRAGO 375  ,1876,4251-6181,6658001,BERNAL,QUILMES,sb30bernal@hotmail.com; obs0850030@abc.gov.ar,True,False,False,False,False,False,False,False,False,False,True,False,False,False,06658,"LUIS MARIA DRAGO 375  , BERNAL, QUILMES, Buenos Aires, Argentina","LUIS MARIA DRAGO 375  , BERNAL, QUILMES, Buenos Aires, Argentina","LUIS MARIA DRAGO 375, QUILMES, Buenos Aires, Argentina",-58.282679,-34.7123457,EjZMdWlzIE1hcsOtYSBEcmFnbyAzNzUsIEJlcm5hbCwgQnVlbm9zIEFpcmVzLCBBcmdlbnRpbmE
Buenos Aires,61802100,ESC. SECUNDARIA BASICA Nº32,Estatal,Activo,Urbano,381 2323  ,1879,4250-8759,6658008,QUILMES,QUILMES,sec32quilmes@hotmail.com; obs0850032@abc.gov.ar,True,False,False,False,False,False,False,False,False,False,True,False,False,False,06658,"381 2323  , QUILMES, QUILMES, Buenos Aires, Argentina","381 2323  , QUILMES, QUILMES, Buenos Aires, Argentina","381 2323, QUILMES, Buenos Aires, Argentina",-58.2375952,-34.7451391,EjNCdWVub3MgQWlyZXMgMzgxLCBFenBlbGV0YSwgQnVlbm9zIEFpcmVzLCBBcmdlbnRpbmE
Buenos Aires,61802200,ESCUELA DE EDUCACIÓN SECUNDARIA Nº37,Estatal,Activo,Urbano,CALLE 835 2450  ,1881,4212-7077,6658009,SAN FRANCISCO SOLANO,QUILMES,esb5quilmes@yahoo.com.ar; obs0850005@abc.gov.ar,True,False,False,False,False,False,False,False,False,False,True,False,False,False,06658,"CALLE 835 2450  , SAN FRANCISCO SOLANO, QUILMES, Buenos Aires, Argentina","CALLE 835 2450  , SAN FRANCISCO SOLANO, QUILMES, Buenos Aires, Argentina","CALLE 835 2450, QUILMES, Buenos Aires, Argentina",-58.2008417,-34.7538754,EjRDYWxsZSAxNTlBIDgzNSwgQmVyYXphdGVndWksIEJ1ZW5vcyBBaXJlcywgQXJnZW50aW5h
Buenos Aires,61802300,ESC. SECUNDARIA BASICA Nº35,Estatal,Activo,Urbano,12 DE OCTUBRE E/ BARANDA Y ALVEAR 758  ,1878,4257-5872,6658008,QUILMES,QUILMES,esb35quilmes@yahoo.com.ar; obs0850035@abc.gov.ar,True,False,False,False,False,False,False,False,False,False,True,False,False,False,06658,"12 DE OCTUBRE E/ BARANDA Y ALVEAR 758  , QUILMES, QUILMES, Buenos Aires, Argentina","12 DE OCTUBRE 12 DE OCTUBRE E/ BARANDA Y ALVEAR 758  , QUILMES, QUILMES, Buenos Aires, Argentina","12 DE OCTUBRE 12 DE OCTUBRE E/ BARANDA Y ALVEAR 758, QUILMES, Buenos Aires, Argentina",,,
Buenos Aires,61802400,ESC. SECUNDARIA BASICA Nº6,Estatal,Activo,Urbano,BROWN 5233  ,1882,4356-2072,6658005,EZPELETA,QUILMES,085escb6@gmail.com; obs0850006@abc.gov.ar,True,False,False,False,False,False,False,False,False,False,True,False,False,False,06658,"BROWN 5233  , EZPELETA, QUILMES, Buenos Aires, Argentina","BROWN 5233  , EZPELETA, QUILMES, Buenos Aires, Argentina","BROWN 5233, QUILMES, Buenos Aires, Argentina",-58.2330292,-34.7505991,EjNBbG10ZSBCcm93biA1MjMzLCBFenBlbGV0YSwgQnVlbm9zIEFpcmVzLCBBcmdlbnRpbmE
Buenos Aires,61802500,ESCUELA DE EDUCACIÓN SECUNDARIA Nº30,Estatal,Activo,Urbano,OTTO BEMBERG E/ TRIUNVIRATO E IRALA 293  VILLA ARGENTINA,1878,4257-5829,6658008,QUILMES,QUILMES,esb43quilmes@yahoo.com.ar; obs0850043@abc.gov.ar,True,False,False,False,False,False,False,False,False,False,True,False,False,False,06658,"OTTO BEMBERG E/ TRIUNVIRATO E IRALA 293  VILLA ARGENTINA, QUILMES, QUILMES, Buenos Aires, Argentina","OTTO BEMBERG 293  VILLA ARGENTINA, QUILMES, QUILMES, Buenos Aires, Argentina","OTTO BEMBERG 293, QUILMES, Buenos Aires, Argentina",-58.2587583,-34.7340297,ChIJ7_X4c2cuo5URzzC4rUX9eDE
Buenos Aires,61802600,ESC. SECUNDARIA BASICA Nº17,Estatal,Activo,Urbano,ECUADOR E/ MINUTO Y BARADERO 938  VILLA AUGUSTA,1882,4216-9061,6658005,EZPELETA,QUILMES,sb17quilmes@gmail.com; obs0850017@abc.gov.ar,True,False,False,False,False,False,False,False,False,False,True,False,False,False,06658,"ECUADOR E/ MINUTO Y BARADERO 938  VILLA AUGUSTA, EZPELETA, QUILMES, Buenos Aires, Argentina","ECUADOR 938  VILLA AUGUSTA, EZPELETA, QUILMES, Buenos Aires, Argentina","ECUADOR 938, QUILMES, Buenos Aires, Argentina",-58.2454313,-34.7544296,Ei5FY3VhZG9yIDkzOCwgRXpwZWxldGEsIEJ1ZW5vcyBBaXJlcywgQXJnZW50aW5h
Buenos Aires,61802700,ESC. SECUNDARIA BASICA Nº65,Estatal,Activo,Urbano,AVDA. PROVINCIAL ESQ. 849 S/N  ,1881,4213-0357,6658009,SAN FRANCISCO SOLANO,QUILMES,sb00850065@yahoo.com.ar; obs0850065@abc.gov.ar,True,False,False,False,False,False,False,False,False,False,True,False,False,False,06658,"AVDA. PROVINCIAL ESQ. 849 S/N  , SAN FRANCISCO SOLANO, QUILMES, Buenos Aires, Argentina","AVDA. PROVINCIAL ESQ. 849 S/N  , SAN FRANCISCO SOLANO, QUILMES, Buenos Aires, Argentina","AVDA. PROVINCIAL ESQ. 849 , QUILMES, Buenos Aires, Argentina",,,
Buenos Aires,61802800,ESC. SECUNDARIA BASICA Nº24,Estatal,Activo,Urbano,891 3121  ,1881,4212-3043,6658009,SAN FRANCISCO SOLANO,QUILMES,esb24solano@yahoo.com.ar; obs0850024@abc.gov.ar,True,False,False,False,False,False,False,False,False,False,True,False,False,False,06658,"891 3121  , SAN FRANCISCO SOLANO, QUILMES, Buenos Aires, Argentina","891 3121  , SAN FRANCISCO SOLANO, QUILMES, Buenos Aires, Argentina","891 3121, QUILMES, Buenos Aires, Argentina",-58.3115696,-34.7690596,Ej1DYWxsZSA4OTEgMzEyMSwgU2FuIEZyYW5jaXNjbyBTb2xhbm8sIEJ1ZW5vcyBBaXJlcywgQXJnZW50aW5h
Buenos Aires,61802900,ESCUELA SECUNDARIA Nº20,Estatal,Activo,Urbano,AV. HOPOLITO YRIGOYEN RUTA 202 KM 5 Y 1/2 5564  ,1646,4589-4560,6749021,SAN FERNANDO,SAN FERNANDO,secundaria20@hotmail.com,True,False,False,False,False,False,False,False,False,False,True,False,False,False,06749,"AV. HOPOLITO YRIGOYEN RUTA 202 KM 5 Y 1/2 5564  , SAN FERNANDO, SAN FERNANDO, Buenos Aires, Argentina","AV. HOPOLITO YRIGOYEN RUTA 202 KM 5 Y 1/2 5564  , SAN FERNANDO, SAN FERNANDO, Buenos Aires, Argentina","AV. HOPOLITO YRIGOYEN RUTA 202 KM 5 Y 1/2 5564, SAN FERNANDO, Buenos Aires, Argentina",-58.5772644,-34.4537484,EkdIaXDDs2xpdG8gSXJpZ295ZW4gJiBSUDIwMiwgQjE2NDYgU2FuIEZlcm5hbmRvLCBCdWVub3MgQWlyZXMsIEFyZ2VudGluYQ
Buenos Aires,61803300,ESCUELA SECUNDARIA Nº6,Estatal,Activo,Rural,MITRE 130  ,1984,49-1156,6778003,DOMSELAAR,SAN VICENTE,0bs0990006@abc.gov.ar,True,False,True,False,False,False,False,False,False,False,True,False,False,False,06778,"MITRE 130  , DOMSELAAR, SAN VICENTE, Buenos Aires, Argentina","MITRE 130  , DOMSELAAR, SAN VICENTE, Buenos Aires, Argentina","MITRE 130, SAN VICENTE, Buenos Aires, Argentina",-58.5002129,-34.5474942,EkpBdi4gQmFydG9sb23DqSBNaXRyZSAxMzAsIEIxNjAzQ1FPIFZpbGxhIE1hcnRlbGxpLCBCdWVub3MgQWlyZXMsIEFyZ2VudGluYQ
Buenos Aires,61803400,ESC. SECUNDARIA BASICA Nº10,Estatal,Activo,Urbano,CENTENARIO Y SAN FERMIN 339  ,1862,-47,6648001,GUERNICA,PRESIDENTE PERON,sb310peron@gmail.com; obs1290010@abc.gov.ar,True,False,False,False,False,False,False,False,False,False,True,False,False,False,06648,"CENTENARIO Y SAN FERMIN 339  , GUERNICA, PRESIDENTE PERON, Buenos Aires, Argentina","CENTENARIO Y SAN FERMIN 339  , GUERNICA, PRESIDENTE PERON, Buenos Aires, Argentina","CENTENARIO Y SAN FERMIN 339, PRESIDENTE PERON, Buenos Aires, Argentina",,,
Buenos Aires,61803500,ESC. SECUNDARIA BASICA Nº11,Estatal,Activo,Urbano,NAVARRO 1789  las lonas,1862,49-0631,6648001,GUERNICA,PRESIDENTE PERON,esb129011@gmail.com; obs1290011@abc.gov.ar,True,False,False,False,False,False,False,False,False,False,True,False,False,False,06648,"NAVARRO 1789  las lonas, GUERNICA, PRESIDENTE PERON, Buenos Aires, Argentina","NAVARRO 1789  las lonas, GUERNICA, PRESIDENTE PERON, Buenos Aires, Argentina","NAVARRO 1789, PRESIDENTE PERON, Buenos Aires, Argentina",-58.3425775,-34.9156633,EjtOYXZhcnJvIDE3ODksIEIxODYyTUpPIFByZXMuIFBlcm9uLCBCdWVub3MgQWlyZXMsIEFyZ2VudGluYQ
Buenos Aires,61803900,ESCUELA DE EDUCACIÓN SECUNDARIA Nº 50,Estatal,Activo,Urbano,URUGUAY E/ GARCIA Y MITRE 457  ,1708,4489-5383,6568004,MORON,MORON,geoazul@hotmail.com; obs1000015@abc.gov.ar,True,False,False,False,False,False,False,False,False,False,True,False,False,False,06568,"URUGUAY E/ GARCIA Y MITRE 457  , MORON, MORON, Buenos Aires, Argentina","URUGUAY 457  , MORON, MORON, Buenos Aires, Argentina","URUGUAY 457, MORON, Buenos Aires, Argentina",-58.6175512,-34.6534802,Ek1SZXDDumJsaWNhIE9yaWVudGFsIGRlbCBVcnVndWF5IDQ1NywgQjE3MDhKRkkgTW9yw7NuLCBCdWVub3MgQWlyZXMsIEFyZ2VudGluYQ
Buenos Aires,61804000,ESC. SECUNDARIA BASICA Nº17,Estatal,Activo,Urbano,ARREDONDO 2465  ,1708,4627-8776,6568001,CASTELAR,MORON,esb17moron@gmail.com; obs1000017@abc.gov.ar,True,False,False,False,False,False,False,False,False,False,True,False,False,False,06568,"ARREDONDO 2465  , CASTELAR, MORON, Buenos Aires, Argentina","ARREDONDO 2465  , CASTELAR, MORON, Buenos Aires, Argentina","ARREDONDO 2465, MORON, Buenos Aires, Argentina",-58.6433379,-34.648399,EkZOaWNvbMOhcyBkZSBBcnJlZG9uZG8gMjQ2NSwgQjE3MTJCVUsgQ2FzdGVsYXIsIEJ1ZW5vcyBBaXJlcywgQXJnZW50aW5h
Buenos Aires,61804300,ESCUELA DE EDUCACIÓN SECUNDARIA Nº45,Estatal,Activo,Urbano,R. GUTIERREZ E/ MITRE Y GAUNA 453  ,1706,4656-5283,6568003,HAEDO,MORON,sbveinticuatro@yahoo.com.ar; obs1000024@abc.gov.ar,True,False,False,False,False,False,False,False,False,False,True,False,False,False,06568,"R. GUTIERREZ E/ MITRE Y GAUNA 453  , HAEDO, MORON, Buenos Aires, Argentina","R. GUTIERREZ 453  , HAEDO, MORON, Buenos Aires, Argentina","R. GUTIERREZ 453, MORON, Buenos Aires, Argentina",-58.5724595,-34.6378182,ChIJi3nP8fPHvJURMRJJaLt5WLE
Buenos Aires,61804400,ESC. SECUNDARIA BASICA Nº9,Estatal,Activo,Urbano,O´CONNOR 460  ,1706,4654-7005,6568005,VILLA SARMIENTO,MORON,obs1000009@abc.gov.ar,True,False,False,False,False,False,False,False,False,False,True,False,False,False,06568,"O´CONNOR 460  , VILLA SARMIENTO, MORON, Buenos Aires, Argentina","O´CONNOR 460  , VILLA SARMIENTO, MORON, Buenos Aires, Argentina","O´CONNOR 460, MORON, Buenos Aires, Argentina",-58.5630338,-34.6364792,EkdFZHVhcmRvIE8nQ29ubm9yIDQ2MCwgQjE3MDdBS0QgVmlsbGEgU2FybWllbnRvLCBCdWVub3MgQWlyZXMsIEFyZ2VudGluYQ
Buenos Aires,61804401,ANEXO Nº1 DE ESB Nº9,Estatal,Activo,Urbano,VILLEGAS 1169  HAEDO,1706,4650-6823,6568005,VILLA SARMIENTO,MORON,False,True,False,False,False,False,False,False,False,False,False,True,False,False,False,06568,"VILLEGAS 1169  HAEDO, VILLA SARMIENTO, MORON, Buenos Aires, Argentina","VILLEGAS 1169  HAEDO, VILLA SARMIENTO, MORON, Buenos Aires, Argentina","VILLEGAS 1169, MORON, Buenos Aires, Argentina",-58.5882139,-34.6292673,EkhJbnQuIFNlcmFwaW8gVmlsbGVnYXMgMTE2OSwgQjE2ODVGUU8gRWwgUGFsb21hciwgQnVlbm9zIEFpcmVzLCBBcmdlbnRpbmE
Buenos Aires,61804500,ESCUELA SECUNDARIA Nº36,Estatal,Activo,Urbano,CORRIENTES Y HUNGRIA S/N  ,1708,4697-9221,6568004,MORON,MORON,ees36moron@hotmail.com; obs1000026@abc.gov.ar,True,False,False,False,False,False,False,False,False,False,True,False,False,False,06568,"CORRIENTES Y HUNGRIA S/N  , MORON, MORON, Buenos Aires, Argentina","CORRIENTES Y HUNGRIA S/N  , MORON, MORON, Buenos Aires, Argentina","CORRIENTES Y HUNGRIA , MORON, Buenos Aires, Argentina",-58.6417368,-34.6934526,Ej5IdW5ncsOtYSAmIENvcnJpZW50ZXMsIEIxNzEyIENhc3RlbGFyLCBCdWVub3MgQWlyZXMsIEFyZ2VudGluYQ
Buenos Aires,61804600,ESC. SECUNDARIA BASICA Nº18,Estatal,Activo,Urbano,PATAGONIA E/ TEL-AVIV Y PORTUGAL 2648  BARRIO SAN ALBERTO,1714,4481-5147,6410002,ITUZAINGO,ITUZAINGO,obs1360018@abc.gov.ar,True,False,False,False,False,False,False,False,False,False,True,False,False,False,06410,"PATAGONIA E/ TEL-AVIV Y PORTUGAL 2648  BARRIO SAN ALBERTO, ITUZAINGO, ITUZAINGO, Buenos Aires, Argentina","PATAGONIA 2648  BARRIO SAN ALBERTO, ITUZAINGO, ITUZAINGO, Buenos Aires, Argentina","PATAGONIA 2648, ITUZAINGO, Buenos Aires, Argentina",-58.7058054,-34.645768,ChIJtbZ0h7y_vJUR--rO8p9dTiA
Buenos Aires,61804700,ESCUELA DE EDUCACIÓN SECUNDARIA Nº48,Estatal,Activo,Urbano,SOLARI 3475  ,1708,46979340,6568004,MORON,MORON,miriammacht06@hotmail.com; obs1000027@abc.gov.ar,True,False,False,False,False,False,False,False,False,False,True,False,False,False,06568,"SOLARI 3475  , MORON, MORON, Buenos Aires, Argentina","SOLARI 3475  , MORON, MORON, Buenos Aires, Argentina","SOLARI 3475, MORON, Buenos Aires, Argentina",-58.6309563,-34.6823225,EkZNb25zZcOxb3IgVG9tw6FzIFNvbGFyaSAzNDc1LCBCMTcwOEdVTyBNb3LDs24sIEJ1ZW5vcyBBaXJlcywgQXJnZW50aW5h
Buenos Aires,61804800,ESCUELA SECUNDARIA Nº38 PROVINCIAS ARGENTINAS,Estatal,Activo,Urbano,LACARRA 2150  ,1712,4458-2476,6568001,CASTELAR,MORON,obs1000029@abc.gov.ar,True,False,False,False,False,False,False,False,False,False,True,False,False,False,06568,"LACARRA 2150  , CASTELAR, MORON, Buenos Aires, Argentina","LACARRA 2150  , CASTELAR, MORON, Buenos Aires, Argentina","LACARRA 2150, MORON, Buenos Aires, Argentina",-58.6604747,-34.6685511,EkxDbmVsLiBNYXJ0w61uIFAuIGRlIExhY2FycmEgMjE1MCwgQjE3MTJMR1YgQ2FzdGVsYXIsIEJ1ZW5vcyBBaXJlcywgQXJnZW50aW5h
Buenos Aires,61804900,ESCUELA DE EDUCACIÓN SECUNDARIA Nº42,Estatal,Activo,Urbano,ACHAGA ESQ. TIERRA DEL FUEGO 3476  ,1708,4697-2632/9266,6568004,MORON,MORON,bs30moron@gmail.com; obs1000030@abc.gov.ar,True,False,False,False,False,False,False,False,False,False,True,False,False,False,06568,"ACHAGA ESQ. TIERRA DEL FUEGO 3476  , MORON, MORON, Buenos Aires, Argentina","ACHAGA ESQ. TIERRA DEL FUEGO 3476  , MORON, MORON, Buenos Aires, Argentina","ACHAGA ESQ. TIERRA DEL FUEGO 3476, MORON, Buenos Aires, Argentina",-58.6407128,-34.6865601,EjtUaWVycmEgZGUgRnVlZ28gJiBBY2hhZ2EsIENhc3RlbGFyLCBCdWVub3MgQWlyZXMsIEFyZ2VudGluYQ
Buenos Aires,61805000,ESC. SECUNDARIA BASICA Nº15 PAULA A.DE SARMIENTO,Estatal,Activo,Urbano,ASAMBLEA DEL AÑO XIII Y THEVENIN S/N  VILLA CLUB,1686,5435-4154,6408002,HURLINGHAM,HURLINGHAM,0135bs0015@gmail.com; obs1350015@abc.gov.ar,True,False,False,False,False,False,False,False,False,False,True,False,False,False,06408,"ASAMBLEA DEL AÑO XIII Y THEVENIN S/N  VILLA CLUB, HURLINGHAM, HURLINGHAM, Buenos Aires, Argentina","ASAMBLEA DEL AÑO XIII Y THEVENIN S/N  VILLA CLUB, HURLINGHAM, HURLINGHAM, Buenos Aires, Argentina","ASAMBLEA DEL AÑO XIII Y THEVENIN , HURLINGHAM, Buenos Aires, Argentina",-58.6290131,-34.5784341,Ek9Bc2FtYmxlYSBBw7FvIFhJSUkgJiBKb3JnZSBEYW5pZWwgVGhldmVuaW4sIEh1cmxpbmdoYW0sIEJ1ZW5vcyBBaXJlcywgQXJnZW50aW5h
Buenos Aires,61805300,ESC. SECUNDARIA BASICA Nº18,Estatal,Activo,Urbano,ONTIVEROS (E/NIGTHINGALE Y CARUE) 823  ,1688,4450-0263,6408001,CIUDAD VILLA SANTOS TESEI,HURLINGHAM,bs1835@gmail.com; obs1350018@abc.gov.ar,True,False,False,False,False,False,False,False,False,False,True,False,False,False,06408,"ONTIVEROS (E/NIGTHINGALE Y CARUE) 823  , CIUDAD VILLA SANTOS TESEI, HURLINGHAM, Buenos Aires, Argentina","ONTIVEROS (823  , CIUDAD VILLA SANTOS TESEI, HURLINGHAM, Buenos Aires, Argentina","ONTIVEROS (823, HURLINGHAM, Buenos Aires, Argentina",-58.6405489,-34.6260386,ChIJxTg5Hcy4vJURWtICPGy417k
Buenos Aires,61805400,ESCUELA DE EDUCACIÓN SECUNDARIA Nº16,Estatal,Activo,Urbano,REPUBLICANA SUDAFRICANA 2764  ,1714,4458-4950,6410002,ITUZAINGO,ITUZAINGO,clarisamariel72@yahoo.com.ar; obs1360013@abc.gov.ar,True,False,False,False,False,False,False,False,False,False,True,False,False,False,06410,"REPUBLICANA SUDAFRICANA 2764  , ITUZAINGO, ITUZAINGO, Buenos Aires, Argentina","REPUBLICANA SUDAFRICANA 2764  , ITUZAINGO, ITUZAINGO, Buenos Aires, Argentina","REPUBLICANA SUDAFRICANA 2764, ITUZAINGO, Buenos Aires, Argentina",,,
Buenos Aires,61805500,ESC. SECUNDARIA BASICA Nº20,Estatal,Activo,Urbano,MUSTONI (E/ PIOVANO Y MINOGUYE) 2384  LA ESPERANZA,1686,4452-7859,6408002,HURLINGHAM,HURLINGHAM,0135bs0020@gmail.com; obs1350020@abc.gov.ar,True,False,False,False,False,False,False,False,False,False,True,False,False,False,06408,"MUSTONI (E/ PIOVANO Y MINOGUYE) 2384  LA ESPERANZA, HURLINGHAM, HURLINGHAM, Buenos Aires, Argentina","MUSTONI (2384  LA ESPERANZA, HURLINGHAM, HURLINGHAM, Buenos Aires, Argentina","MUSTONI (2384, HURLINGHAM, Buenos Aires, Argentina",-58.6470655,-34.579463,Ej1JbnQuIE11c3RvbmkgMjM4NCwgV2lsbGlhbSBDLiBNb3JyaXMsIEJ1ZW5vcyBBaXJlcywgQXJnZW50aW5h
Buenos Aires,61805600,ESCUELA SECUNDARIA Nº12 AVDR. SBTE PABLO T FELS,Estatal,Activo,Urbano,GABRIEL ARISTOZABAL 915  ,1688,4450-0138,6408001,CIUDAD VILLA SANTOS TESEI,HURLINGHAM,0135ms0012@gmail.com; obs1350021@abc.gov.ar,True,False,False,False,False,False,False,False,False,False,True,False,False,False,06408,"GABRIEL ARISTOZABAL 915  , CIUDAD VILLA SANTOS TESEI, HURLINGHAM, Buenos Aires, Argentina","GABRIEL ARISTOZABAL 915  , CIUDAD VILLA SANTOS TESEI, HURLINGHAM, Buenos Aires, Argentina","GABRIEL ARISTOZABAL 915, HURLINGHAM, Buenos Aires, Argentina",-58.6567825,-34.6199878,EkZHYWJyaWVsIGRlIEFyaXN0aXphYmFsIDkxNSwgV2lsbGlhbSBDLiBNb3JyaXMsIEJ1ZW5vcyBBaXJlcywgQXJnZW50aW5h
Buenos Aires,61805700,ESCUELA DE EDUCACIÓN SECUNDARIA TÉCNICA Nº3 VICTOR MERCANTE,Estatal,Activo,Urbano,ANDONAEGUI (ESQ. TORELLO) 2295  LOS PATITOS,1686,4665-2867,6408002,HURLINGHAM,HURLINGHAM,eest3_hgm@yahoo.com.ar,True,False,False,False,False,False,False,False,False,False,True,True,False,False,06408,"ANDONAEGUI (ESQ. TORELLO) 2295  LOS PATITOS, HURLINGHAM, HURLINGHAM, Buenos Aires, Argentina","ANDONAEGUI (ESQ. TORELLO) 2295  LOS PATITOS, HURLINGHAM, HURLINGHAM, Buenos Aires, Argentina","ANDONAEGUI (ESQ. TORELLO) 2295, HURLINGHAM, Buenos Aires, Argentina",-58.6562537,-34.5967663,EkhQYWRyZSBUb3JlbGxvICYgSm9zw6kgZGUgQW5kb25hZWd1aSwgSHVybGluZ2hhbSwgQnVlbm9zIEFpcmVzLCBBcmdlbnRpbmE
Buenos Aires,61805800,ESC. SECUNDARIA BASICA Nº17,Estatal,Activo,Urbano,VILLEGAS E/ QUIROS Y ESPEJO 1773  BARRIO IPARRAGUIRRE,1714,4623-6980,6410002,ITUZAINGO,ITUZAINGO,obs1360017@abc.gov; obs1360017@abc.gov.ar,True,False,False,False,False,False,False,False,False,False,True,False,False,False,06410,"VILLEGAS E/ QUIROS Y ESPEJO 1773  BARRIO IPARRAGUIRRE, ITUZAINGO, ITUZAINGO, Buenos Aires, Argentina","VILLEGAS 1773  BARRIO IPARRAGUIRRE, ITUZAINGO, ITUZAINGO, Buenos Aires, Argentina","VILLEGAS 1773, ITUZAINGO, Buenos Aires, Argentina",-58.6738124,-34.674258,EkFHcmFsLiBWaWxsZWdhcyAxNzczLCBCMTcxNFBBQyBJdHV6YWluZ8OzLCBCdWVub3MgQWlyZXMsIEFyZ2VudGluYQ
Buenos Aires,61806000,ESCUELA SECUNDARIA Nº9,Estatal,Activo,Urbano,ADRIAN LUNA 3650  SAN DAMIAN,1686,4665-4088,6408003,WILLIAM C MORRIS,HURLINGHAM,hurlinghamsecundaria9@gmail.com,True,False,False,False,False,False,False,False,False,False,True,False,False,False,06408,"ADRIAN LUNA 3650  SAN DAMIAN, WILLIAM C MORRIS, HURLINGHAM, Buenos Aires, Argentina","ADRIAN LUNA 3650  SAN DAMIAN, WILLIAM C MORRIS, HURLINGHAM, Buenos Aires, Argentina","ADRIAN LUNA 3650, HURLINGHAM, Buenos Aires, Argentina",-58.6681436,-34.5844787,EkdBZHJpYW4gZGUgUm9zYXJpbyBMdW5hIDM2NTAsIFdpbGxpYW0gQy4gTW9ycmlzLCBCdWVub3MgQWlyZXMsIEFyZ2VudGluYQ
Buenos Aires,61806700,ESCUELA SECUNDARIA Nº36,Estatal,Activo,Urbano,LANGENHEIM 1616  BARRIO MUNICIPAL,1854,4233-8791,6028008,LONGCHAMPS,ALMIRANTE BROWN,esb67longhamps@yahoo.com.ar; obs0040067@abc.gov.ar,True,False,False,False,False,False,False,False,False,False,True,False,False,False,06028,"LANGENHEIM 1616  BARRIO MUNICIPAL, LONGCHAMPS, ALMIRANTE BROWN, Buenos Aires, Argentina","LANGENHEIM 1616  BARRIO MUNICIPAL, LONGCHAMPS, ALMIRANTE BROWN, Buenos Aires, Argentina","LANGENHEIM 1616, ALMIRANTE BROWN, Buenos Aires, Argentina",,,
Buenos Aires,61806800,ESCUELA DE EDUCACIÓN SECUNDARIA Nº46,Estatal,Activo,Urbano,VILLAFAÑE 642  BARRIO LA ESTHER,1849,6083-1481,6028004,CLAYPOLE,ALMIRANTE BROWN,escb68_004@yahoo.com.ar; obs0040068@abc.gov.ar,True,False,False,False,False,False,False,False,False,False,True,False,False,False,06028,"VILLAFAÑE 642  BARRIO LA ESTHER, CLAYPOLE, ALMIRANTE BROWN, Buenos Aires, Argentina","VILLAFAÑE 642  BARRIO LA ESTHER, CLAYPOLE, ALMIRANTE BROWN, Buenos Aires, Argentina","VILLAFAÑE 642, ALMIRANTE BROWN, Buenos Aires, Argentina",-58.3610036,-34.8284807,EkNBY29zdGEgVmlsbGFmYcOxZSA2NDIsIEIxODQ5QUhPIERvbiBPcmlvbmUsIEJ1ZW5vcyBBaXJlcywgQXJnZW50aW5h
Buenos Aires,61806900,ESC. SECUNDARIA BASICA Nº65,Estatal,Activo,Urbano,VELLOSO Y QUESADA S/N  ,1723,498-4919,6539009,A. FERRARI,MERLO,obs0710065@abc.gov.ar,True,False,False,False,False,False,False,False,False,False,True,False,False,False,06539,"VELLOSO Y QUESADA S/N  , A. FERRARI, MERLO, Buenos Aires, Argentina","VELLOSO Y QUESADA S/N  , A. FERRARI, MERLO, Buenos Aires, Argentina","VELLOSO Y QUESADA , MERLO, Buenos Aires, Argentina",-58.7800954,-34.7026521,EknDgW5nZWwgUXVlc2FkYSAmIEdhcmPDrWEgVmVsbG9zbywgTWFyaWFubyBBY29zdGEsIEJ1ZW5vcyBBaXJlcywgQXJnZW50aW5h
Buenos Aires,61807000,ESCUELA DE EDUCACION SECUNDARIA Nº11,Estatal,Activo,Urbano,HERNANDARIAS E/ QUITO Y R. DE JANEI S/N  SAN MARTA,1806,4234-9856,6270005,TRISTAN SUAREZ,EZEIZA,olmis.silvia@gmail.com,True,False,False,False,False,False,False,False,False,False,True,False,False,False,06270,"HERNANDARIAS E/ QUITO Y R. DE JANEI S/N  SAN MARTA, TRISTAN SUAREZ, EZEIZA, Buenos Aires, Argentina","HERNANDARIAS E/ QUITO Y R. DE JANEI S/N  SAN MARTA, TRISTAN SUAREZ, EZEIZA, Buenos Aires, Argentina","HERNANDARIAS E/ QUITO Y R. DE JANEI , EZEIZA, Buenos Aires, Argentina",,,
Buenos Aires,61807100,ESCUELA SECUNDARIA Nº38,Estatal,Activo,Urbano,ORFILA RICO Y MORGANTI   BARRIO P. CORIMAYO,1852,4299-9991,6028003,BURZACO,ALMIRANTE BROWN,revelantejuan@yahoo.com.ar; obs0040066@abc.gov.ar,True,False,False,False,False,False,False,False,False,False,True,False,False,False,06028,"ORFILA RICO Y MORGANTI   BARRIO P. CORIMAYO, BURZACO, ALMIRANTE BROWN, Buenos Aires, Argentina","ORFILA RICO Y MORGANTI   BARRIO P. CORIMAYO, BURZACO, ALMIRANTE BROWN, Buenos Aires, Argentina","ORFILA RICO Y MORGANTI   BARRIO P. CORIMAYO, BURZACO, ALMIRANTE BROWN, Buenos Aires, Argentina",,,
Buenos Aires,61807200,ESC. SECUNDARIA BASICA Nº23,Estatal,Activo,Urbano,VILLEGAS E/COLON Y FARINA S/N  BARRIO POLICIAL,1842,4263-2796,6260007,MONTE GRANDE,ESTEBAN ECHEVERRIA,secundaria23echeverria@gmail.com; obs0300023@abc.gov.ar,True,False,False,False,False,False,False,False,False,False,True,False,False,False,06260,"VILLEGAS E/COLON Y FARINA S/N  BARRIO POLICIAL, MONTE GRANDE, ESTEBAN ECHEVERRIA, Buenos Aires, Argentina","VILLEGAS E/COLON Y FARINA S/N  BARRIO POLICIAL, MONTE GRANDE, ESTEBAN ECHEVERRIA, Buenos Aires, Argentina","VILLEGAS E/COLON Y FARINA , ESTEBAN ECHEVERRIA, Buenos Aires, Argentina",,,
Buenos Aires,61807300,ESC. SECUNDARIA BASICA Nº39,Estatal,Activo,Urbano,459 E/ 408 Y 409 S/N  ,1890,45-3442,6091007,JUAN MARIA GUTIERREZ,BERAZATEGUI,esb39begui@hotmail.com; obs1190039@abc.gov.ar,True,False,False,False,False,False,False,False,False,False,True,False,False,False,06091,"459 E/ 408 Y 409 S/N  , JUAN MARIA GUTIERREZ, BERAZATEGUI, Buenos Aires, Argentina","459 459 E/ 408 Y 409 S/N  , JUAN MARIA GUTIERREZ, BERAZATEGUI, Buenos Aires, Argentina","459 459 E/ 408 Y 409 , BERAZATEGUI, Buenos Aires, Argentina",-58.1890605,-34.8282418,EkBDYWxsZSA0MDkgJiBDYWxsZSA0NTksIEIxODkwIEd1dGnDqXJyZXosIEJ1ZW5vcyBBaXJlcywgQXJnZW50aW5h
Buenos Aires,61807500,ESC. SECUNDARIA BASICA Nº24,Estatal,Activo,Urbano,LUIS VERNET 3400  ,1842,4272-2610,6260007,MONTE GRANDE,ESTEBAN ECHEVERRIA,sb24echeverria@gmail.com; obs0300024@abc.gov.ar,True,False,False,False,False,False,False,False,False,False,True,False,False,False,06260,"LUIS VERNET 3400  , MONTE GRANDE, ESTEBAN ECHEVERRIA, Buenos Aires, Argentina","LUIS VERNET 3400  , MONTE GRANDE, ESTEBAN ECHEVERRIA, Buenos Aires, Argentina","LUIS VERNET 3400, ESTEBAN ECHEVERRIA, Buenos Aires, Argentina",-58.4881862,-34.7848419,EkRBdi4gTHVpcyBWZXJuZXQgMzQwMCwgQjE4NDJGV1AgTW9udGUgR3JhbmRlLCBCdWVub3MgQWlyZXMsIEFyZ2VudGluYQ
Buenos Aires,61807700,ESCUELA SECUNDARIA Nº38,Estatal,Activo,Urbano,BACH Y MOZART   ,1722,480-5841,6539030,LOMA GRANDE,MERLO,obs0710063@abc.gov.ar,True,False,False,False,False,False,False,False,False,False,True,False,False,False,06539,"BACH Y MOZART   , LOMA GRANDE, MERLO, Buenos Aires, Argentina","BACH Y MOZART   , LOMA GRANDE, MERLO, Buenos Aires, Argentina","BACH Y MOZART   , LOMA GRANDE, MERLO, Buenos Aires, Argentina",,,
Buenos Aires,61807800,ESC. SECUNDARIA BASICA Nº64,Estatal,Activo,Urbano,CORONDA esq. NUÑEZ S/N  BARRIO RIVADAVIA,1761,493-3726,6539005,MERLO,MERLO,obs0710064@abc.gov.ar,True,False,False,False,False,False,False,False,False,False,True,False,False,False,06539,"CORONDA esq. NUÑEZ S/N  BARRIO RIVADAVIA, MERLO, MERLO, Buenos Aires, Argentina","CORONDA esq. NUÑEZ S/N  BARRIO RIVADAVIA, MERLO, MERLO, Buenos Aires, Argentina","CORONDA esq. NUÑEZ , MERLO, Buenos Aires, Argentina",-58.7203013,-34.7105025,EkRNYXJ0w61uZXogZGUgTsO6w7FleiAmIENvcm9uZGEsIEIxNzYxIE1lcmxvLCBCdWVub3MgQWlyZXMsIEFyZ2VudGluYQ
Buenos Aires,61808100,ESCUELA DE EDUCACIÓN SECUNDARIA Nº 70,Estatal,Activo,Urbano,HOMERO MANZI 3954  ,1832,4693-4741,6490005,LOMAS DE ZAMORA,LOMAS DE ZAMORA,esb335olimpo@outlook.com.ar; obs0620035@abc.gov.ar,True,False,False,False,False,False,False,False,False,False,True,False,False,False,06490,"HOMERO MANZI 3954  , LOMAS DE ZAMORA, LOMAS DE ZAMORA, Buenos Aires, Argentina","HOMERO MANZI 3954  , LOMAS DE ZAMORA, LOMAS DE ZAMORA, Buenos Aires, Argentina","HOMERO MANZI 3954, LOMAS DE ZAMORA, Buenos Aires, Argentina",-58.4751605,-34.7338783,EjtIb21lcm8gTWFuemkgMzk1NCwgSW5nZW5pZXJvIEJ1ZGdlLCBCdWVub3MgQWlyZXMsIEFyZ2VudGluYQ
Buenos Aires,61808200,ESCUELA SECUNDARIA Nº19,Estatal,Activo,Urbano,AUTOPISTA RICCHIERI Y NEWBERY S/N  ,1842,4480-0120,6260009,E.ECHEVERRIA,ESTEBAN ECHEVERRIA,secundariaescuelahogar@gmail.com; obs0300028@abc.gov.ar,True,False,False,False,False,False,False,False,False,False,True,False,False,False,06260,"AUTOPISTA RICCHIERI Y NEWBERY S/N  , E.ECHEVERRIA, ESTEBAN ECHEVERRIA, Buenos Aires, Argentina","AUTOPISTA RICCHIERI Y NEWBERY S/N  , E.ECHEVERRIA, ESTEBAN ECHEVERRIA, Buenos Aires, Argentina","AUTOPISTA RICCHIERI Y NEWBERY , ESTEBAN ECHEVERRIA, Buenos Aires, Argentina",,,
Buenos Aires,61808300,ESC. SECUNDARIA BASICA Nº78,Estatal,Activo,Urbano,APENINOS 520  LA ESPERANZA,1759,48-1110,6427016,VIRREY DEL PINO,LA MATANZA,obs0690078@abc.gov.ar,True,False,False,False,False,False,False,False,False,False,True,False,False,False,06427,"APENINOS 520  LA ESPERANZA, VIRREY DEL PINO, LA MATANZA, Buenos Aires, Argentina","APENINOS 520  LA ESPERANZA, VIRREY DEL PINO, LA MATANZA, Buenos Aires, Argentina","APENINOS 520, LA MATANZA, Buenos Aires, Argentina",-58.6435036,-34.8380497,EjZBcGVuaW5vcyA1MjAsIFZpcnJleSBkZWwgUGlubywgQnVlbm9zIEFpcmVzLCBBcmdlbnRpbmE
Buenos Aires,61808800,ESCUELA DE EDUCACIÓN SECUNDARIA Nº51,Estatal,Activo,Urbano,CALLE 1620 e/ CALLE 1647 y CALLE 1663 268  ,1856,58953567,6274002,COLONIA LA CAPILLA,FLORENCIO VARELA,sb24_fv@yahoo.com.ar; obs0320024@abc.gov.ar,True,False,False,False,False,False,False,False,False,False,True,False,False,False,06274,"CALLE 1620 e/ CALLE 1647 y CALLE 1663 268  , COLONIA LA CAPILLA, FLORENCIO VARELA, Buenos Aires, Argentina","CALLE 1620 1620 e/ CALLE 1647 y CALLE 1663 268  , COLONIA LA CAPILLA, FLORENCIO VARELA, Buenos Aires, Argentina","CALLE 1620 1620 e/ CALLE 1647 y CALLE 1663 268, FLORENCIO VARELA, Buenos Aires, Argentina",,,
Buenos Aires,61808900,ESCUELA DE EDUCACIÓN SECUNDARIA Nº43,Estatal,Activo,Urbano,R.ROJAS E/ G.SPANO Y BERMUDEZ 970  ,1852,5083-2800,6028003,BURZACO,ALMIRANTE BROWN,secu19brown@gmail.com; obs0040019@abc.gov.ar,True,False,False,False,False,False,False,False,False,False,True,False,False,False,06028,"R.ROJAS E/ G.SPANO Y BERMUDEZ 970  , BURZACO, ALMIRANTE BROWN, Buenos Aires, Argentina","R.ROJAS 970  , BURZACO, ALMIRANTE BROWN, Buenos Aires, Argentina","R.ROJAS 970, ALMIRANTE BROWN, Buenos Aires, Argentina",-58.3895238,-34.8244827,EjNSaWNhcmRvIFJvamFzIDk3MCwgQnVyemFjbywgQnVlbm9zIEFpcmVzLCBBcmdlbnRpbmE
Buenos Aires,61809000,ESCUELA SECUNDARIA Nº22,Estatal,Activo,Urbano,SANTIAGO BYNNON 3751  ,1847,4219-0288,6028007,JOSE MARMOL,ALMIRANTE BROWN,secundaria22brown@gmail.com,True,False,False,False,False,False,False,False,False,False,True,False,False,False,06028,"SANTIAGO BYNNON 3751  , JOSE MARMOL, ALMIRANTE BROWN, Buenos Aires, Argentina","SANTIAGO BYNNON 3751  , JOSE MARMOL, ALMIRANTE BROWN, Buenos Aires, Argentina","SANTIAGO BYNNON 3751, ALMIRANTE BROWN, Buenos Aires, Argentina",-58.3591894,-34.7808665,ChIJOYdzRsUso5URoiBy8kxedt8
Buenos Aires,61809100,ESCUELA SECUNDARIA Nº40,Estatal,Activo,Urbano,ALVEAR 849  BARRIO SAN JOSE,1846,4269-7665,6028002,BARRIO SAN JOSE,ALMIRANTE BROWN,escuelabasica21@yahoo.com.ar; obs0040021@abc.gov.ar,True,False,False,False,False,False,False,False,False,False,True,False,False,False,06028,"ALVEAR 849  BARRIO SAN JOSE, BARRIO SAN JOSE, ALMIRANTE BROWN, Buenos Aires, Argentina","ALVEAR 849  BARRIO SAN JOSE, BARRIO SAN JOSE, ALMIRANTE BROWN, Buenos Aires, Argentina","ALVEAR 849, ALMIRANTE BROWN, Buenos Aires, Argentina",-58.3480271,-34.7625327,ChIJV_r7FiEto5UR3LNLH2ulCdg
Buenos Aires,61809400,ESCUELA DE EDUCACIÓN SECUNDARIA Nº42,Estatal,Activo,Urbano,GUIDO Y PINTO S/N  BARRIO EL HORNERO,1852,4238-7377,6028003,BURZACO,ALMIRANTE BROWN,pp004039@abc.gov.ar; obs0040037@abc.gov.ar,True,False,False,False,False,False,False,False,False,False,True,False,False,False,06028,"GUIDO Y PINTO S/N  BARRIO EL HORNERO, BURZACO, ALMIRANTE BROWN, Buenos Aires, Argentina","GUIDO Y PINTO S/N  BARRIO EL HORNERO, BURZACO, ALMIRANTE BROWN, Buenos Aires, Argentina","GUIDO Y PINTO , ALMIRANTE BROWN, Buenos Aires, Argentina",-58.407667,-34.8386579,EklUb23DoXMgR3VpZG8gJiBJbnQuIEFsdmFybyBQaW50b3MsIEIxODUyIEJ1cnphY28sIEJ1ZW5vcyBBaXJlcywgQXJnZW50aW5h
Buenos Aires,61809500,ESC. SECUNDARIA BASICA Nº57,Estatal,Activo,Urbano,GORDILLO E/ LAMAS Y FLEMING 2909  EL PROGRESO,1856,42-7460,6028006,GLEW,ALMIRANTE BROWN,esb57@yahoo.com.ar; obs0040057@abc.gov.ar,True,False,False,False,False,False,False,False,False,False,True,False,False,False,06028,"GORDILLO E/ LAMAS Y FLEMING 2909  EL PROGRESO, GLEW, ALMIRANTE BROWN, Buenos Aires, Argentina","GORDILLO 2909  EL PROGRESO, GLEW, ALMIRANTE BROWN, Buenos Aires, Argentina","GORDILLO 2909, ALMIRANTE BROWN, Buenos Aires, Argentina",-58.3958324,-34.8894394,Ej1UaW1vdGVvIEdvcmRpbGxvIDI5MDksIEIxODU2RkZFIEdsZXcsIEJ1ZW5vcyBBaXJlcywgQXJnZW50aW5h
Buenos Aires,61810300,ESCUELA DE EDUCACIÓN SECUNDARIA Nº19,Estatal,Activo,Urbano,RIO TURBIO E/LAS CARABELAS Y LAS ANTILLAS   BARRIO TRES AMERICAS,1813,43-0639,6270002,CARLOS SPEGAZZIN,EZEIZA,sb13ezeiza@gmail.com; obs1300013@abc.gov.ar,True,False,False,False,False,False,False,False,False,False,True,False,False,False,06270,"RIO TURBIO E/LAS CARABELAS Y LAS ANTILLAS   BARRIO TRES AMERICAS, CARLOS SPEGAZZIN, EZEIZA, Buenos Aires, Argentina","RIO TURBIO E/LAS CARABELAS Y LAS ANTILLAS   BARRIO TRES AMERICAS, CARLOS SPEGAZZIN, EZEIZA, Buenos Aires, Argentina","RIO TURBIO E/LAS CARABELAS Y LAS ANTILLAS   BARRIO TRES AMERICAS, CARLOS SPEGAZZIN, EZEIZA, Buenos Aires, Argentina",,,
Buenos Aires,61810400,ESCUELA DE EDUCACIÓN SECUNDARIA Nº16,Estatal,Activo,Urbano,LOS GIRASOLES Y SAAVEDRA 301  VISTA ALEGRE,1806,4386-1068,6270005,TRISTAN SUAREZ,EZEIZA,sb14ezeiza@gmail.com; obs1300014@abc.gov.ar,True,False,False,False,False,False,False,False,False,False,True,False,False,False,06270,"LOS GIRASOLES Y SAAVEDRA 301  VISTA ALEGRE, TRISTAN SUAREZ, EZEIZA, Buenos Aires, Argentina","LOS GIRASOLES Y SAAVEDRA 301  VISTA ALEGRE, TRISTAN SUAREZ, EZEIZA, Buenos Aires, Argentina","LOS GIRASOLES Y SAAVEDRA 301, EZEIZA, Buenos Aires, Argentina",-58.5543073,-34.8955158,EkJMb3MgR2lyYXNvbGVzICYgU2FhdmVkcmEsIFRyaXN0YW4gU3XDoXJleiwgQnVlbm9zIEFpcmVzLCBBcmdlbnRpbmE
Buenos Aires,61810401,EXTENSIÓN I DE ESCUELA DE EDUCACIÓN SECUNDARIA N°16,Estatal,Activo,Urbano,MATIENZO 687  BARRIO VISTA LINDA,1806,4386-1153,6270005,TRISTAN SUAREZ,EZEIZA,secundaria19ezeiza@gmail.com; obs1300019@abc.gov.ar,True,False,False,False,False,False,False,False,False,False,True,False,False,False,06270,"MATIENZO 687  BARRIO VISTA LINDA, TRISTAN SUAREZ, EZEIZA, Buenos Aires, Argentina","MATIENZO 687  BARRIO VISTA LINDA, TRISTAN SUAREZ, EZEIZA, Buenos Aires, Argentina","MATIENZO 687, EZEIZA, Buenos Aires, Argentina",-58.555266,-34.8910567,EjlCLiBNYXRpZW56byA2ODcsIFRyaXN0YW4gU3XDoXJleiwgQnVlbm9zIEFpcmVzLCBBcmdlbnRpbmE
Buenos Aires,61810500,ESCUELA DE EDUCACIÓN SECUNDARIA Nº40,Estatal,Activo,Urbano,LEOPOLDO HERRERA E/JUAN CRUZ VARELA Y LA ROTONDA 435  ,1888,49-5136,6274007,INGENIERO JUAN ALLAN,FLORENCIO VARELA,obs0320040@abc.gov.ar,True,False,False,False,False,False,False,False,False,False,True,False,False,False,06274,"LEOPOLDO HERRERA E/JUAN CRUZ VARELA Y LA ROTONDA 435  , INGENIERO JUAN ALLAN, FLORENCIO VARELA, Buenos Aires, Argentina","LEOPOLDO HERRERA 435  , INGENIERO JUAN ALLAN, FLORENCIO VARELA, Buenos Aires, Argentina","LEOPOLDO HERRERA 435, FLORENCIO VARELA, Buenos Aires, Argentina",-58.2077753,-34.8378564,ElBMZW9wb2xkbyBIZXJyZXJhICYgSnVhbiBDcnV6IFZhcmVsYSwgSW5nZW5pZXJvIEouIEFsbGFuLCBCdWVub3MgQWlyZXMsIEFyZ2VudGluYQ
Buenos Aires,61810600,ESCUELA DE EDUCACIÓN SECUNDARIA Nº43,Estatal,Activo,Urbano,SAN PABLO ESQ. RÍO CARAPACHAY 1723  ,1888,4274-1314,6274076,CURVA DE CHAVEZ,FLORENCIO VARELA,secundaria43fv@gmail.com; obs0320043@abc.gov.ar,True,False,False,False,False,False,False,False,False,False,True,False,False,False,06274,"SAN PABLO ESQ. RÍO CARAPACHAY 1723  , CURVA DE CHAVEZ, FLORENCIO VARELA, Buenos Aires, Argentina","SAN PABLO ESQ. RÍO CARAPACHAY 1723  , CURVA DE CHAVEZ, FLORENCIO VARELA, Buenos Aires, Argentina","SAN PABLO ESQ. RÍO CARAPACHAY 1723, FLORENCIO VARELA, Buenos Aires, Argentina",-58.2643146,-34.8424902,EkpTYW4gUGFibG8gJiBSw61vIENhcmFwYWNoYXksIEIxODUzIFZpbGxhIFZhdHRlb25lLCBCdWVub3MgQWlyZXMsIEFyZ2VudGluYQ
Buenos Aires,61810700,ESCUELA SECUNDARIA Nº14,Estatal,Activo,Urbano,GRECIA 461  SANTA ROSA,1888,4287-5678,6274005,FLORENCIO VARELA,FLORENCIO VARELA,escuelasecundaria_14fv@yahoo.com.ar,True,False,False,False,False,False,False,False,False,False,True,False,False,False,06274,"GRECIA 461  SANTA ROSA, FLORENCIO VARELA, FLORENCIO VARELA, Buenos Aires, Argentina","GRECIA 461  SANTA ROSA, FLORENCIO VARELA, FLORENCIO VARELA, Buenos Aires, Argentina","GRECIA 461, FLORENCIO VARELA, Buenos Aires, Argentina",-58.2911212,-34.8370849,ChIJ-aOjeyUqo5URzHcXgVfo5Qk
Buenos Aires,61810800,ESC. SECUNDARIA BASICA Nº53,Estatal,Activo,Urbano,SAN NICOLAS Y ROSARIO   SAN MARTIN,1888,4237-7199,6274005,FLORENCIO VARELA,FLORENCIO VARELA,esb53fvarela@gmail.com; obs0320053@abc.gov.ar,True,False,False,False,False,False,False,False,False,False,True,False,False,False,06274,"SAN NICOLAS Y ROSARIO   SAN MARTIN, FLORENCIO VARELA, FLORENCIO VARELA, Buenos Aires, Argentina","SAN NICOLAS Y ROSARIO   SAN MARTIN, FLORENCIO VARELA, FLORENCIO VARELA, Buenos Aires, Argentina","SAN NICOLAS Y ROSARIO   SAN MARTIN, FLORENCIO VARELA, FLORENCIO VARELA, Buenos Aires, Argentina",,,
Buenos Aires,61812300,ESC. SECUNDARIA BASICA Nº14,Estatal,Activo,Urbano,ESPAÑA 5640  CORONEL ZAPIOLA,1655,4769-7638,6371004,CIUDAD VILLA BALLESTER,GENERAL SAN MARTIN,sb14favaloro@yahoo.com; 0045bs0014@gmail.com; obs0450014@abc.gov.ar,True,False,False,False,False,False,False,False,False,False,True,False,False,False,06371,"ESPAÑA 5640  CORONEL ZAPIOLA, CIUDAD VILLA BALLESTER, GENERAL SAN MARTIN, Buenos Aires, Argentina","ESPAÑA 5640  CORONEL ZAPIOLA, CIUDAD VILLA BALLESTER, GENERAL SAN MARTIN, Buenos Aires, Argentina","ESPAÑA 5640, GENERAL SAN MARTIN, Buenos Aires, Argentina",-58.5809836,-34.5609187,ChIJ-d_9aIy5vJURGLndFOLtaAU
Buenos Aires,61812400,ESC. SECUNDARIA BASICA Nº16,Estatal,Activo,Urbano,BOULEVARD BALLESTER 554  ,1653,4738-0370,6371004,CIUDAD VILLA BALLESTER,GENERAL SAN MARTIN,0045b0016@gmail.com; 0045bs0016@gmail.com; obs0450016@abc.gov.ar,True,False,False,False,False,False,False,False,False,False,True,False,False,False,06371,"BOULEVARD BALLESTER 554  , CIUDAD VILLA BALLESTER, GENERAL SAN MARTIN, Buenos Aires, Argentina","BOULEVARD BALLESTER 554  , CIUDAD VILLA BALLESTER, GENERAL SAN MARTIN, Buenos Aires, Argentina","BOULEVARD BALLESTER 554, GENERAL SAN MARTIN, Buenos Aires, Argentina",-58.5574773,-34.5439743,EjdCdi4gQmFsbGVzdGVyLCBWaWxsYSBCYWxsZXN0ZXIsIEJ1ZW5vcyBBaXJlcywgQXJnZW50aW5h
Buenos Aires,61812600,ESCUELA DE EDUCACIÓN SECUNDARIA Nº 31,Estatal,Activo,Urbano,SAENZ PEÑA 2953  SAN ANDRES,1651,4508-9158,6371011,SAN ANDRES,GENERAL SAN MARTIN,e0045bs0026@gmail.com.ar; obs0450026@abc.gov.ar,True,False,False,False,False,False,False,False,False,False,True,False,False,False,06371,"SAENZ PEÑA 2953  SAN ANDRES, SAN ANDRES, GENERAL SAN MARTIN, Buenos Aires, Argentina","SAENZ PEÑA 2953  SAN ANDRES, SAN ANDRES, GENERAL SAN MARTIN, Buenos Aires, Argentina","SAENZ PEÑA 2953, GENERAL SAN MARTIN, Buenos Aires, Argentina",-58.5358234,-34.5686002,ChIJG0mCOGy3vJURPV-w5UVdIB0
Buenos Aires,61812700,ESCUELA DE EDUCACIÓN SECUNDARIA Nº 53,Estatal,Activo,Urbano,BARTOLOME MITRE E/ CUBA Y ENSENADA 741  ,1653,4738-1755,6371004,CIUDAD VILLA BALLESTER,GENERAL SAN MARTIN,letecia2010@hotmail.com; 0045bs0027@gmail.com; obs0450027@abc.gov.ar,True,False,False,False,False,False,False,False,False,False,True,False,False,False,06371,"BARTOLOME MITRE E/ CUBA Y ENSENADA 741  , CIUDAD VILLA BALLESTER, GENERAL SAN MARTIN, Buenos Aires, Argentina","BARTOLOME MITRE 741  , CIUDAD VILLA BALLESTER, GENERAL SAN MARTIN, Buenos Aires, Argentina","BARTOLOME MITRE 741, GENERAL SAN MARTIN, Buenos Aires, Argentina",-58.5667561,-34.5515452,EjpCYXJ0b2xvbcOpIE1pdHJlLCBWaWxsYSBCYWxsZXN0ZXIsIEJ1ZW5vcyBBaXJlcywgQXJnZW50aW5h
Buenos Aires,61812800,ESCUELA DE EDUCACIÓN SECUNDARIA Nº28,Estatal,Activo,Urbano,RIO NEGRO E/ LACROZE Y BULEVARD 350  ,1653,47644828,6371004,CIUDAD VILLA BALLESTER,GENERAL SAN MARTIN,esb28_sanmartin@hotmail.com; 0045bs0028@gmail.com; obs0450028@abc.gov.ar,True,False,False,False,False,False,False,False,False,False,True,False,False,False,06371,"RIO NEGRO E/ LACROZE Y BULEVARD 350  , CIUDAD VILLA BALLESTER, GENERAL SAN MARTIN, Buenos Aires, Argentina","RIO NEGRO 350  , CIUDAD VILLA BALLESTER, GENERAL SAN MARTIN, Buenos Aires, Argentina","RIO NEGRO 350, GENERAL SAN MARTIN, Buenos Aires, Argentina",-58.5673785,-34.5374432,EkJSw61vIE5lZ3JvICYgTGFjcm96ZSwgSm9zw6kgTGXDs24gU3XDoXJleiwgQnVlbm9zIEFpcmVzLCBBcmdlbnRpbmE
Buenos Aires,61812900,ESCUELA DE EDUCACIÓN SECUNDARIA Nº 40,Estatal,Activo,Urbano,OMBU ESQ. TUNUYAN 1490  ,1650,4712-7140,6371007,GENERAL SAN MARTIN,GENERAL SAN MARTIN,sb29sanmartin@gmail.com; 0045bs0029@gmail.com; obs0450029@abc.gov.ar,True,False,False,False,False,False,False,False,False,False,True,False,False,False,06371,"OMBU ESQ. TUNUYAN 1490  , GENERAL SAN MARTIN, GENERAL SAN MARTIN, Buenos Aires, Argentina","OMBU ESQ. TUNUYAN 1490  , GENERAL SAN MARTIN, GENERAL SAN MARTIN, Buenos Aires, Argentina","OMBU ESQ. TUNUYAN 1490, GENERAL SAN MARTIN, Buenos Aires, Argentina",-58.5478653,-34.5916999,EjZUdW51ecOhbiAmIE9tYsO6LCBWaWxsYSBMeW5jaCwgQnVlbm9zIEFpcmVzLCBBcmdlbnRpbmE
Buenos Aires,61813000,ESCUELA DE EDUCACIÓN SECUNDARIA Nº 52,Estatal,Activo,Urbano,INFANTA ISABEL E/ PAZ Y PERON 2647  ,1650,4750-0439,6371026,VILLA LIBERTAD,GENERAL SAN MARTIN,0045bs0030@gmail.com; 0045bs0030@gmail.com; obs0450030@abc.gov.ar,True,False,False,False,False,False,False,False,False,False,True,False,False,False,06371,"INFANTA ISABEL E/ PAZ Y PERON 2647  , VILLA LIBERTAD, GENERAL SAN MARTIN, Buenos Aires, Argentina","INFANTA ISABEL 2647  , VILLA LIBERTAD, GENERAL SAN MARTIN, Buenos Aires, Argentina","INFANTA ISABEL 2647, GENERAL SAN MARTIN, Buenos Aires, Argentina",-58.5624793,-34.5875024,ChIJCZfxBNO5vJURPiK4y135uqk
Buenos Aires,61813100,ESC. SECUNDARIA BASICA Nº31,Estatal,Activo,Urbano,90 E/15 Y 17 750  ,1650,5197-9252,6371044,VILLA CONCEPCION,GENERAL SAN MARTIN,feelnt@hotmail.com; 0045bs0031@gmail.com; obs0450031@abc.gov.ar,True,False,False,False,False,False,False,False,False,False,True,False,False,False,06371,"90 E/15 Y 17 750  , VILLA CONCEPCION, GENERAL SAN MARTIN, Buenos Aires, Argentina","90 90 E/15 Y 17 750  , VILLA CONCEPCION, GENERAL SAN MARTIN, Buenos Aires, Argentina","90 90 E/15 Y 17 750, GENERAL SAN MARTIN, Buenos Aires, Argentina",-58.5291572,-34.5487602,ChIJve5woje3vJURtAqQZ0yRUfk
Buenos Aires,61813200,ESCUELA DE EDUCACIÓN SECUNDARIA Nº 32,Estatal,Activo,Urbano,PROFESOR SIMON Y QUINTANA 1439  ,1653,4849-0160,6371004,CIUDAD VILLA BALLESTER,GENERAL SAN MARTIN,0045bs0034@gmail.com; obs0450034@abc.gov.ar,True,False,False,False,False,False,False,False,False,False,True,False,False,False,06371,"PROFESOR SIMON Y QUINTANA 1439  , CIUDAD VILLA BALLESTER, GENERAL SAN MARTIN, Buenos Aires, Argentina","PROFESOR SIMON Y QUINTANA 1439  , CIUDAD VILLA BALLESTER, GENERAL SAN MARTIN, Buenos Aires, Argentina","PROFESOR SIMON Y QUINTANA 1439, GENERAL SAN MARTIN, Buenos Aires, Argentina",-58.5536671,-34.5343414,EkNQcm9mIEcuIFNpbcOzbiAmIFF1aW50YW5hLCBWaWxsYSBCYWxsZXN0ZXIsIEJ1ZW5vcyBBaXJlcywgQXJnZW50aW5h
Buenos Aires,61813700,ESCUELA SECUNDARIA Nº29,Estatal,Activo,Urbano,MELINCUE Y LORIA S/N  RIO ALEGRE,1723,498-9603,6539004,MARIANO ACOSTA,MERLO,False,True,False,False,False,False,False,False,False,False,False,True,False,False,False,06539,"MELINCUE Y LORIA S/N  RIO ALEGRE, MARIANO ACOSTA, MERLO, Buenos Aires, Argentina","MELINCUE Y LORIA S/N  RIO ALEGRE, MARIANO ACOSTA, MERLO, Buenos Aires, Argentina","MELINCUE Y LORIA , MERLO, Buenos Aires, Argentina",-58.837453,-34.690543,EkBNZWxpbmN1w6kgJiBMb3JpYSwgQjE3MjMgTWFyaWFubyBBY29zdGEsIEJ1ZW5vcyBBaXJlcywgQXJnZW50aW5h
Buenos Aires,61813800,ESC. SECUNDARIA BASICA Nº35,Estatal,Activo,Urbano,CHASCOMUS Y JUFRE   BARRIO GOLF,1716,497-2541,6539003,LIBERTAD,MERLO,obs0710035@abc.gov.ar,True,False,False,False,False,False,False,False,False,False,True,False,False,False,06539,"CHASCOMUS Y JUFRE   BARRIO GOLF, LIBERTAD, MERLO, Buenos Aires, Argentina","CHASCOMUS Y JUFRE   BARRIO GOLF, LIBERTAD, MERLO, Buenos Aires, Argentina","CHASCOMUS Y JUFRE   BARRIO GOLF, LIBERTAD, MERLO, Buenos Aires, Argentina",,,
Buenos Aires,61813900,ESC. SECUNDARIA BASICA Nº38,Estatal,Activo,Urbano,SANTO DOMINGO ESQ. RIVAROLA S/N  VILLA MAGDALENA,1716,494-8255,6539003,LIBERTAD,MERLO,manuel_fernandez07@hotmail.com; obs0710038@abc.gov.ar,True,False,False,False,False,False,False,False,False,False,True,False,False,False,06539,"SANTO DOMINGO ESQ. RIVAROLA S/N  VILLA MAGDALENA, LIBERTAD, MERLO, Buenos Aires, Argentina","SANTO DOMINGO ESQ. RIVAROLA S/N  VILLA MAGDALENA, LIBERTAD, MERLO, Buenos Aires, Argentina","SANTO DOMINGO ESQ. RIVAROLA , MERLO, Buenos Aires, Argentina",-58.6943866,-34.7058578,EjlTdG8gRG9taW5nbyAmIFJpdmFyb2xhLCBMaWJlcnRhZCwgQnVlbm9zIEFpcmVzLCBBcmdlbnRpbmE
Buenos Aires,61814000,ESCUELA DE EDUCACIÓN SECUNDARIA Nº50,Estatal,Activo,Urbano,BÉCQUER ESQ. JUAN POSSE   ,1723,498-2578,6539004,MARIANO ACOSTA,MERLO,sanatashot@yahoo.com.ar; obs0710039@abc.gov.ar,True,False,False,False,False,False,False,False,False,False,True,False,False,False,06539,"BÉCQUER ESQ. JUAN POSSE   , MARIANO ACOSTA, MERLO, Buenos Aires, Argentina","BÉCQUER ESQ. JUAN POSSE   , MARIANO ACOSTA, MERLO, Buenos Aires, Argentina","BÉCQUER ESQ. JUAN POSSE   , MARIANO ACOSTA, MERLO, Buenos Aires, Argentina",-58.7900087,-34.7117296,EkNCZWNxdWVyICYgSnVhbiBQb3NzZSwgQjE3MjMgTWFyaWFubyBBY29zdGEsIEJ1ZW5vcyBBaXJlcywgQXJnZW50aW5h
Buenos Aires,61814200,ESCUELA SECUNDARIA Nº26,Estatal,Activo,Urbano,SAN JUAN 1150  ,1718,483-2115,6539008,SAN ANTONIO DE PADUA,MERLO,secundaria26merlo@yahoo.com.ar,True,False,False,False,False,False,False,False,False,False,True,False,False,False,06539,"SAN JUAN 1150  , SAN ANTONIO DE PADUA, MERLO, Buenos Aires, Argentina","SAN JUAN 1150  , SAN ANTONIO DE PADUA, MERLO, Buenos Aires, Argentina","SAN JUAN 1150, MERLO, Buenos Aires, Argentina",-58.7099053,-34.6615513,ChIJs9XA9Y2_vJURbE3S7Umtedw
Buenos Aires,61814300,ESCUELA SECUNDARIA Nº27 LAGO DEL BOSQUE,Estatal,Activo,Urbano,RODIN Y GALENO S/N  ,1722,486-3717,6539005,MERLO,MERLO,equinoccio2009@live.com.ar,True,False,False,False,False,False,False,False,False,False,True,False,False,False,06539,"RODIN Y GALENO S/N  , MERLO, MERLO, Buenos Aires, Argentina","RODIN Y GALENO S/N  , MERLO, MERLO, Buenos Aires, Argentina","RODIN Y GALENO , MERLO, Buenos Aires, Argentina",-58.7432675,-34.6583335,Ei5HYWxlbm8gJiBSb2RpbiwgTWVybG8sIEJ1ZW5vcyBBaXJlcywgQXJnZW50aW5h
Buenos Aires,61814400,ESC. SECUNDARIA BASICA Nº46,Estatal,Activo,Urbano,PORTELA 4749  BARRIO EL OMBU,1761,492-4854,6539007,PONTEVEDRA,MERLO,obs0710046@abc.gov.ar,True,False,False,False,False,False,False,False,False,False,True,False,False,False,06539,"PORTELA 4749  BARRIO EL OMBU, PONTEVEDRA, MERLO, Buenos Aires, Argentina","PORTELA 4749  BARRIO EL OMBU, PONTEVEDRA, MERLO, Buenos Aires, Argentina","PORTELA 4749, MERLO, Buenos Aires, Argentina",-58.6829209,-34.7417776,EjpQb3J0ZWxhIDQ3NDksIEIxNzYxQU9TIFBvbnRldmVkcmEsIEJ1ZW5vcyBBaXJlcywgQXJnZW50aW5h
Buenos Aires,61814500,ESCUELA DE EDUCACIÓN SECUNDARIA Nº58,Estatal,Activo,Urbano,OPERATIVO CONDOR Y FRAGA S/N  BARRIO ARCO IRIS,1722,498-5730,6539005,MERLO,MERLO,obs0710047@abc.gov.ar,True,False,False,False,False,False,False,False,False,False,True,False,False,False,06539,"OPERATIVO CONDOR Y FRAGA S/N  BARRIO ARCO IRIS, MERLO, MERLO, Buenos Aires, Argentina","OPERATIVO CONDOR Y FRAGA S/N  BARRIO ARCO IRIS, MERLO, MERLO, Buenos Aires, Argentina","OPERATIVO CONDOR Y FRAGA , MERLO, Buenos Aires, Argentina",-58.780759,-34.6878137,EjhPcGVyYXRpdm8gQ29uZG9yICYgRnJhZ2EsIE1lcmxvLCBCdWVub3MgQWlyZXMsIEFyZ2VudGluYQ
Buenos Aires,61814600,ESC. SECUNDARIA BASICA Nº48,Estatal,Activo,Urbano,MATACO Y TERAN 2625  ,1716,497-4946,6539003,LIBERTAD,MERLO,iclaudia_garcia@hotmail.com; obs0710048@abc.gov.ar,True,False,False,False,False,False,False,False,False,False,True,False,False,False,06539,"MATACO Y TERAN 2625  , LIBERTAD, MERLO, Buenos Aires, Argentina","MATACO Y TERAN 2625  , LIBERTAD, MERLO, Buenos Aires, Argentina","MATACO Y TERAN 2625, MERLO, Buenos Aires, Argentina",-58.6651167,-34.6915157,EjdUZXJhbiAmIE1hdGFjbywgQjE3MTYgTGliZXJ0YWQsIEJ1ZW5vcyBBaXJlcywgQXJnZW50aW5h
Buenos Aires,61814700,ESCUELA DE EDUCACIÓN SECUNDARIA Nº49,Estatal,Activo,Urbano,SEGUROLA 66  BARRIO SANTA ANITA,1716,497-3263,6539003,LIBERTAD,MERLO,obs0710049@abc.gov.ar,True,False,False,False,False,False,False,False,False,False,True,False,False,False,06539,"SEGUROLA 66  BARRIO SANTA ANITA, LIBERTAD, MERLO, Buenos Aires, Argentina","SEGUROLA 66  BARRIO SANTA ANITA, LIBERTAD, MERLO, Buenos Aires, Argentina","SEGUROLA 66, MERLO, Buenos Aires, Argentina",-58.7021417,-34.6991782,EjdTZWd1cm9sYSA2NiwgQjE3MTZDQkIgTGliZXJ0YWQsIEJ1ZW5vcyBBaXJlcywgQXJnZW50aW5h
Buenos Aires,61814800,ESCUELA DE EDUCACIÓN SECUNDARIA Nº59,Estatal,Activo,Urbano,HUGO DEL CARRIL Y LA NIÑA S/N  BARRIO LA ESTRELLA,1723,498-5446,6539004,MARIANO ACOSTA,MERLO,obs0710050@abc.gov.ar,True,False,False,False,False,False,False,False,False,False,True,False,False,False,06539,"HUGO DEL CARRIL Y LA NIÑA S/N  BARRIO LA ESTRELLA, MARIANO ACOSTA, MERLO, Buenos Aires, Argentina","HUGO DEL CARRIL Y LA NIÑA S/N  BARRIO LA ESTRELLA, MARIANO ACOSTA, MERLO, Buenos Aires, Argentina","HUGO DEL CARRIL Y LA NIÑA , MERLO, Buenos Aires, Argentina",-58.8043591,-34.7235326,EkhMYSBOacOxYSAmIEh1Z28gZGUgQ2FycmlsLCBCMTcyMyBNYXJpYW5vIEFjb3N0YSwgQnVlbm9zIEFpcmVzLCBBcmdlbnRpbmE
Buenos Aires,61815000,ESCUELA SECUNDARIA Nº37,Estatal,Activo,Urbano,ESCOBAR 2417  V. ESPADA,1716,494-0666,6539003,LIBERTAD,MERLO,secundariabasica53@hotmail.com; obs0710053@abc.gov.ar,True,False,False,False,False,False,False,False,False,False,True,False,False,False,06539,"ESCOBAR 2417  V. ESPADA, LIBERTAD, MERLO, Buenos Aires, Argentina","ESCOBAR 2417  V. ESPADA, LIBERTAD, MERLO, Buenos Aires, Argentina","ESCOBAR 2417, MERLO, Buenos Aires, Argentina",-58.68552,-34.7042686,ChIJ_fZc-P3AvJURKAxRfT5ewQo
Buenos Aires,61815200,ESC. SECUNDARIA BASICA Nº36,Estatal,Activo,Urbano,CERRITO Y 167 S/N  LA CAÑADA,1876,4251-8992,6658001,BERNAL,QUILMES,esb36quilmes@ gmail.com; obs0850036@abc.gov.ar,True,False,False,False,False,False,False,False,False,False,True,False,False,False,06658,"CERRITO Y 167 S/N  LA CAÑADA, BERNAL, QUILMES, Buenos Aires, Argentina","CERRITO Y 167 S/N  LA CAÑADA, BERNAL, QUILMES, Buenos Aires, Argentina","CERRITO Y 167 , QUILMES, Buenos Aires, Argentina",-58.3117192,-34.7269191,EkFKdWFuIEpvc8OpIFZhbGxlICYgQ2Vycml0bywgQmVybmFsIE9lc3RlLCBCdWVub3MgQWlyZXMsIEFyZ2VudGluYQ
Buenos Aires,61815300,ESC. SECUNDARIA BASICA Nº37,Estatal,Activo,Urbano,RODOLFO LOPEZ Y B. DE IRIGOYEN 533  ,1878,4224-7924,6658008,QUILMES,QUILMES,esb0037@hotmail.com; obs0850037@abc.gov.ar,True,False,False,False,False,False,False,False,False,False,True,False,False,False,06658,"RODOLFO LOPEZ Y B. DE IRIGOYEN 533  , QUILMES, QUILMES, Buenos Aires, Argentina","RODOLFO LOPEZ Y B. DE IRIGOYEN 533  , QUILMES, QUILMES, Buenos Aires, Argentina","RODOLFO LOPEZ Y B. DE IRIGOYEN 533, QUILMES, Buenos Aires, Argentina",-58.2686831,-34.7226958,EkdCZXJuYXJkbyBkZSBJcmlnb3llbiAmIFJvZG9sZm8gTMOzcGV6LCBRdWlsbWVzLCBCdWVub3MgQWlyZXMsIEFyZ2VudGluYQ
Buenos Aires,61815400,ESC. SECUNDARIA BASICA Nº38,Estatal,Activo,Urbano,AVELLANEDA E/ BELGRANO Y LAVALLE 177  ,1876,4251-8983,6658001,BERNAL,QUILMES,esb38bernal@hotmail.com; obs0850038@abc.gov.ar,True,False,False,False,False,False,False,False,False,False,True,False,False,False,06658,"AVELLANEDA E/ BELGRANO Y LAVALLE 177  , BERNAL, QUILMES, Buenos Aires, Argentina","AVELLANEDA 177  , BERNAL, QUILMES, Buenos Aires, Argentina","AVELLANEDA 177, QUILMES, Buenos Aires, Argentina",-58.2853621,-34.7109926,ChIJV2dIJf8to5URUIDGXKeDLV0
Buenos Aires,61815600,ESCUELA DE EDUCACIÓN SECUNDARIA Nº29,Estatal,Activo,Urbano,CRAMER E/TACUARI Y RAMELLA 721  ,1876,4251-8855,6658001,BERNAL,QUILMES,esb400085@yahoo.com.ar; obs0850040@abc.gov.ar,True,False,False,False,False,False,False,False,False,False,True,False,False,False,06658,"CRAMER E/TACUARI Y RAMELLA 721  , BERNAL, QUILMES, Buenos Aires, Argentina","CRAMER 721  , BERNAL, QUILMES, Buenos Aires, Argentina","CRAMER 721, QUILMES, Buenos Aires, Argentina",-58.2772193,-34.7093219,EitDcmFtZXIgNzIxLCBCZXJuYWwsIEJ1ZW5vcyBBaXJlcywgQXJnZW50aW5h
Buenos Aires,61815700,ESC. SECUNDARIA BASICA Nº41,Estatal,Activo,Urbano,SAN LUIS 4016  LA PRIMAVERA,1879,4280-9678,6658008,QUILMES,QUILMES,secundaria41@hotmail.com; obs0850041@abc.gov.ar,True,False,False,False,False,False,False,False,False,False,True,False,False,False,06658,"SAN LUIS 4016  LA PRIMAVERA, QUILMES, QUILMES, Buenos Aires, Argentina","SAN LUIS 4016  LA PRIMAVERA, QUILMES, QUILMES, Buenos Aires, Argentina","SAN LUIS 4016, QUILMES, Buenos Aires, Argentina",-58.3049473,-34.7375751,EjVTYW4gTHVpcyA0MDE2LCBRdWlsbWVzIE9lc3RlLCBCdWVub3MgQWlyZXMsIEFyZ2VudGluYQ
Buenos Aires,61815800,ESC. SECUNDARIA BASICA Nº45,Estatal,Activo,Urbano,RICARDO ROJAS 5700  EL JALON,1882,4210-6660,6658005,EZPELETA,QUILMES,secundaria45quilmes@hotmail.com; obs0850045@abc.gov.ar,True,False,False,False,False,False,False,False,False,False,True,False,False,False,06658,"RICARDO ROJAS 5700  EL JALON, EZPELETA, QUILMES, Buenos Aires, Argentina","RICARDO ROJAS 5700  EL JALON, EZPELETA, QUILMES, Buenos Aires, Argentina","RICARDO ROJAS 5700, QUILMES, Buenos Aires, Argentina",-58.259379,-34.767519,ChIJAyYW6rguo5URqYPeV-1MHLI
Buenos Aires,61815900,ESC. SECUNDARIA BASICA Nº46,Estatal,Activo,Urbano,CRAVIOTTO 2622  EL DORADO,1879,4210-7473,6658008,QUILMES,QUILMES,sbasica46@yahoo.com.ar; obs0850046@abc.gov.ar,True,False,False,False,False,False,False,False,False,False,True,False,False,False,06658,"CRAVIOTTO 2622  EL DORADO, QUILMES, QUILMES, Buenos Aires, Argentina","CRAVIOTTO 2622  EL DORADO, QUILMES, QUILMES, Buenos Aires, Argentina","CRAVIOTTO 2622, QUILMES, Buenos Aires, Argentina",-58.2686309,-34.7561108,ChIJz0boe5Auo5URW8T6U2U4wdU
Buenos Aires,61816000,ESC. SECUNDARIA BASICA Nº47,Estatal,Activo,Urbano,REP DEL LIBANO 5070  LA SARITA,1879,4280-8114,6658008,QUILMES,QUILMES,esbn47@gmail.com; obs0850047@abc.gov.ar,True,False,False,False,False,False,False,False,False,False,True,False,False,False,06658,"REP DEL LIBANO 5070  LA SARITA, QUILMES, QUILMES, Buenos Aires, Argentina","REP DEL LIBANO 5070  LA SARITA, QUILMES, QUILMES, Buenos Aires, Argentina","REP DEL LIBANO 5070, QUILMES, Buenos Aires, Argentina",-58.3160394,-34.7420997,EkNSZXDDumJsaWNhIGRlbCBMw61iYW5vIDUwNzAsIFF1aWxtZXMgT2VzdGUsIEJ1ZW5vcyBBaXJlcywgQXJnZW50aW5h
Buenos Aires,61816100,ESC. SECUNDARIA BASICA Nº48,Estatal,Activo,Urbano,ECHEVERRIA E/ LAVALLE Y MORENO 192  ,1878,4257-1840,6658008,QUILMES,QUILMES,sb48quilmes@yahoo.com.ar; obs0850048@abc.gov.ar,True,False,False,False,False,False,False,False,False,False,True,False,False,False,06658,"ECHEVERRIA E/ LAVALLE Y MORENO 192  , QUILMES, QUILMES, Buenos Aires, Argentina","ECHEVERRIA 192  , QUILMES, QUILMES, Buenos Aires, Argentina","ECHEVERRIA 192, QUILMES, Buenos Aires, Argentina",-58.2450043,-34.7378171,EjFFY2hldmVycsOtYSAxOTIsIFF1aWxtZXMsIEJ1ZW5vcyBBaXJlcywgQXJnZW50aW5h
Buenos Aires,61816200,ESCUELA SECUNDARIA Nº23,Estatal,Activo,Urbano,839 E/ 876 Y 877 546  ,1881,4280-8742,6658010,VILLA LA FLORIDA,QUILMES,secundaria50quilmes@yahoo.cmo.ar; obs0850050@abc.gov.ar,True,False,False,False,False,False,False,False,False,False,True,False,False,False,06658,"839 E/ 876 Y 877 546  , VILLA LA FLORIDA, QUILMES, Buenos Aires, Argentina","839 839 E/ 876 Y 877 546  , VILLA LA FLORIDA, QUILMES, Buenos Aires, Argentina","839 839 E/ 876 Y 877 546, QUILMES, Buenos Aires, Argentina",-58.294924,-34.7664305,EkBDYWxsZSA4NzcgJiBDYWxsZSA4MzksIFZpbGxhIGxhIEZsb3JpZGEsIEJ1ZW5vcyBBaXJlcywgQXJnZW50aW5h
Buenos Aires,61816300,ESC. SECUNDARIA BASICA Nº51,Estatal,Activo,Urbano,387 (AIME TSCHIFELLY) 2831  ,1879,4280-9860,6658008,QUILMES,QUILMES,egb51quilmes@hotmail.com; obs0850051@abc.gov.ar,True,False,False,False,False,False,False,False,False,False,True,False,False,False,06658,"387 (AIME TSCHIFELLY) 2831  , QUILMES, QUILMES, Buenos Aires, Argentina","387 (AIME TSCHIFELLY) 2831  , QUILMES, QUILMES, Buenos Aires, Argentina","387 (AIME TSCHIFELLY) 2831, QUILMES, Buenos Aires, Argentina",-58.3029011,-34.7349202,EjxBaW3DqSBUc2NoaWZmZWx5IDM4NywgUXVpbG1lcyBPZXN0ZSwgQnVlbm9zIEFpcmVzLCBBcmdlbnRpbmE
Buenos Aires,61816400,ESC. SECUNDARIA BASICA Nº53,Estatal,Activo,Urbano,PANAMA Y ASUNCION 420  VILLA AUGUSTA,1882,4216-5717,6658005,EZPELETA,QUILMES,esb53.0085@gmail.com; obs0850053@abc.gov.ar,True,False,False,False,False,False,False,False,False,False,True,False,False,False,06658,"PANAMA Y ASUNCION 420  VILLA AUGUSTA, EZPELETA, QUILMES, Buenos Aires, Argentina","PANAMA Y ASUNCION 420  VILLA AUGUSTA, EZPELETA, QUILMES, Buenos Aires, Argentina","PANAMA Y ASUNCION 420, QUILMES, Buenos Aires, Argentina",-58.243473,-34.7495419,EjZBc3VuY2nDs24gJiBQYW5hbcOhLCBFenBlbGV0YSwgQnVlbm9zIEFpcmVzLCBBcmdlbnRpbmE
Buenos Aires,61816500,ESC. SECUNDARIA BASICA Nº54,Estatal,Activo,Urbano,846 E/ 882 Y 883 1202  LA FLORIDA,1881,4280-8728,6658008,QUILMES,QUILMES,escuelasecundaria54quilmes@yahoo.com.ar; obs0850054@abc.gov.ar,True,False,False,False,False,False,False,False,False,False,True,False,False,False,06658,"846 E/ 882 Y 883 1202  LA FLORIDA, QUILMES, QUILMES, Buenos Aires, Argentina","846 846 E/ 882 Y 883 1202  LA FLORIDA, QUILMES, QUILMES, Buenos Aires, Argentina","846 846 E/ 882 Y 883 1202, QUILMES, Buenos Aires, Argentina",-58.2958265,-34.7727795,EkBDYWxsZSA4ODIgJiBDYWxsZSA4NDYsIFZpbGxhIGxhIEZsb3JpZGEsIEJ1ZW5vcyBBaXJlcywgQXJnZW50aW5h
Buenos Aires,61816700,ESC. SECUNDARIA BASICA Nº56,Estatal,Activo,Urbano,DESAGUADERO E/R.GALLEGOS Y SGO. DEL ES 5180  BARRIO FERROVIARIO,1882,4216-1278,6658005,EZPELETA,QUILMES,basica56@yahoo.com.ar; obs0850056@abc.gov.ar,True,False,False,False,False,False,False,False,False,False,True,False,False,False,06658,"DESAGUADERO E/R.GALLEGOS Y SGO. DEL ES 5180  BARRIO FERROVIARIO, EZPELETA, QUILMES, Buenos Aires, Argentina","DESAGUADERO 5180  BARRIO FERROVIARIO, EZPELETA, QUILMES, Buenos Aires, Argentina","DESAGUADERO 5180, QUILMES, Buenos Aires, Argentina",-58.2245486,-34.7463874,ChIJqawh9Bkvo5URPXvT0gzl9Gg
Buenos Aires,61816800,ESC. SECUNDARIA BASICA Nº57,Estatal,Activo,Urbano,852 405  LA FLORIDA,1881,4200-7689,6658009,SAN FRANCISCO SOLANO,QUILMES,esb57quilmes@hotmail.com; obs0850057@abc.gov.ar,True,False,False,False,False,False,False,False,False,False,True,False,False,False,06658,"852 405  LA FLORIDA, SAN FRANCISCO SOLANO, QUILMES, Buenos Aires, Argentina","852 405  LA FLORIDA, SAN FRANCISCO SOLANO, QUILMES, Buenos Aires, Argentina","852 405, QUILMES, Buenos Aires, Argentina",-58.2863275,-34.7725696,EjhDYWxsZSA4NTIgNDA1LCBWaWxsYSBsYSBGbG9yaWRhLCBCdWVub3MgQWlyZXMsIEFyZ2VudGluYQ
Buenos Aires,61817000,ESC. SECUNDARIA BASICA Nº59,Estatal,Activo,Urbano,JUAN B. JUSTO E/ 335 Y ANDRADE 3402  ,1879,4280-8045,6658008,QUILMES,QUILMES,esecundaria59@yahoo.com.ar; obs0850059@abc.gov.ar,True,False,False,False,False,False,False,False,False,False,True,False,False,False,06658,"JUAN B. JUSTO E/ 335 Y ANDRADE 3402  , QUILMES, QUILMES, Buenos Aires, Argentina","JUAN B. JUSTO 335 Y ANDRADE 3402  , QUILMES, QUILMES, Buenos Aires, Argentina","JUAN B. JUSTO 335 Y ANDRADE 3402, QUILMES, Buenos Aires, Argentina",,,
Buenos Aires,61817200,ESC. SECUNDARIA BASICA Nº61,Estatal,Activo,Urbano,190 MONSEÑOR DE ANDREA sn  ,1876,4270-9741,6658008,QUILMES,QUILMES,esb61quilmes@hotmail.com; obs0850061@abc.gov.ar,True,False,False,False,False,False,False,False,False,False,True,False,False,False,06658,"190 MONSEÑOR DE ANDREA sn  , QUILMES, QUILMES, Buenos Aires, Argentina","190 MONSEÑOR DE ANDREA sn  , QUILMES, QUILMES, Buenos Aires, Argentina","190, QUILMES, Buenos Aires, Argentina",-58.2436216,-34.7253009,ChIJawh5tE8uo5URGwTBIrAVLlg
Buenos Aires,61817300,ESCUELA SECUNDARIA Nº31,Estatal,Activo,Urbano,LA RIOJA E/ URRESTARAZU Y ROCA A. 1637  LA CAÑADA,1872,4251-9470,6658008,QUILMES,QUILMES,secundariabasica63@yahoo.com.ar; obs0850063@abc.gov.ar,True,False,False,False,False,False,False,False,False,False,True,False,False,False,06658,"LA RIOJA E/ URRESTARAZU Y ROCA A. 1637  LA CAÑADA, QUILMES, QUILMES, Buenos Aires, Argentina","LA RIOJA 1637  LA CAÑADA, QUILMES, QUILMES, Buenos Aires, Argentina","LA RIOJA 1637, QUILMES, Buenos Aires, Argentina",-58.2842793,-34.7235847,Ei9MYSBSaW9qYSAxNjM3LCBRdWlsbWVzLCBCdWVub3MgQWlyZXMsIEFyZ2VudGluYQ
Buenos Aires,61817400,ESCUELA DE EDUCACION SECUNDARIA Nº36,Estatal,Activo,Urbano,CALLE 187 E/ MONTEVIDEO Y COM FRANCO 609  ,1876,4270-7046,6658001,BERNAL,QUILMES,bs085064@hotmail.com; obs0850064@abc.gov.ar,True,False,False,False,False,False,False,False,False,False,True,False,False,False,06658,"CALLE 187 E/ MONTEVIDEO Y COM FRANCO 609  , BERNAL, QUILMES, Buenos Aires, Argentina","CALLE 187 187 E/ MONTEVIDEO Y COM FRANCO 609  , BERNAL, QUILMES, Buenos Aires, Argentina","CALLE 187 187 E/ MONTEVIDEO Y COM FRANCO 609, QUILMES, Buenos Aires, Argentina",,,
Buenos Aires,61817500,ESC. SECUNDARIA BASICA Nº67,Estatal,Activo,Urbano,819 921  ,1879,4280-6968,6658008,QUILMES,QUILMES,085escb67@gmail.com; obs0850067@abc.gov.ar,True,False,False,False,False,False,False,False,False,False,True,False,False,False,06658,"819 921  , QUILMES, QUILMES, Buenos Aires, Argentina","819 921  , QUILMES, QUILMES, Buenos Aires, Argentina","819 921, QUILMES, Buenos Aires, Argentina",-58.3067177,-34.7541577,EjVDYWxsZSA4MTkgOTIxLCBRdWlsbWVzIE9lc3RlLCBCdWVub3MgQWlyZXMsIEFyZ2VudGluYQ
Buenos Aires,61817600,ESCUELA DE EDUCACIÓN SECUNDARIA Nº 32,Estatal,Activo,Urbano,AVENIDA PERÓN 190  ,1876,4246-7415,6658001,BERNAL,QUILMES,secundariabasica69@yahoo.com.ar; obs0850069@abc.gov.ar,True,False,False,False,False,False,False,False,False,False,True,False,False,False,06658,"AVENIDA PERÓN 190  , BERNAL, QUILMES, Buenos Aires, Argentina","AVENIDA PERÓN 190  , BERNAL, QUILMES, Buenos Aires, Argentina","AVENIDA PERÓN 190, QUILMES, Buenos Aires, Argentina",-58.261443,-34.7273256,Ej9QcmVzLiBKdWFuIERvbWluZ28gUGVyw7NuIDE5MCwgUXVpbG1lcywgQnVlbm9zIEFpcmVzLCBBcmdlbnRpbmE
Buenos Aires,61817700,ESC. SECUNDARIA BASICA Nº70,Estatal,Activo,Urbano,BOEDO E/ 182 Y 183 1253  VILLA GAETE,1876,4270-9781,6658001,BERNAL,QUILMES,esb70quilmes@hotmail.com.ar; obs0850070@abc.gov.ar,True,False,False,False,False,False,False,False,False,False,True,False,False,False,06658,"BOEDO E/ 182 Y 183 1253  VILLA GAETE, BERNAL, QUILMES, Buenos Aires, Argentina","BOEDO 182 Y 183 1253  VILLA GAETE, BERNAL, QUILMES, Buenos Aires, Argentina","BOEDO 182 Y 183 1253, QUILMES, Buenos Aires, Argentina",-58.2773321,-34.7152802,ChIJgQzISwYuo5UROu_-5Evd50s
Buenos Aires,61817800,ESC. SECUNDARIA BASICA Nº72,Estatal,Activo,Urbano,VICENTE LOPEZ E/ BOLIVIA Y 401 BIS 3980  ,1882,4278-2496,6658005,EZPELETA,QUILMES,es72@live.com; obs0850072@abc.gov.ar,True,False,False,False,False,False,False,False,False,False,True,False,False,False,06658,"VICENTE LOPEZ E/ BOLIVIA Y 401 BIS 3980  , EZPELETA, QUILMES, Buenos Aires, Argentina","VICENTE LOPEZ 401 BIS 3980  , EZPELETA, QUILMES, Buenos Aires, Argentina","VICENTE LOPEZ 401 BIS 3980, QUILMES, Buenos Aires, Argentina",-58.2472973,-34.7457659,ChIJN90sZPAuo5URN1aDJY9MyAc
Buenos Aires,61818000,ESC. SECUNDARIA BASICA Nº75,Estatal,Activo,Urbano,CALLE 820 Y 893   BARRIO DREYMAR,1879,4271-0642,6658009,SAN FRANCISCO SOLANO,QUILMES,esecundaria@yahoo.com.ar; obs0850075@abc.gov.ar,True,False,False,False,False,False,False,False,False,False,True,False,False,False,06658,"CALLE 820 Y 893   BARRIO DREYMAR, SAN FRANCISCO SOLANO, QUILMES, Buenos Aires, Argentina","CALLE 820 Y 893   BARRIO DREYMAR, SAN FRANCISCO SOLANO, QUILMES, Buenos Aires, Argentina","CALLE 820 Y 893, QUILMES, Buenos Aires, Argentina",-58.3065314,-34.7549064,EjVDYWxsZSA4MjAgODkzLCBRdWlsbWVzIE9lc3RlLCBCdWVub3MgQWlyZXMsIEFyZ2VudGluYQ
Buenos Aires,61818100,ESC. SECUNDARIA BASICA Nº77,Estatal,Activo,Urbano,YAPEYU E/AVELLANEDA Y OBLIGADO 555  ,1876,4252-2323,6658001,BERNAL,QUILMES,escuela77quilmes@yahoo.com.ar; obs0850077@abc.gov.ar,True,False,False,False,False,False,False,False,False,False,True,False,False,False,06658,"YAPEYU E/AVELLANEDA Y OBLIGADO 555  , BERNAL, QUILMES, Buenos Aires, Argentina","YAPEYU 555  , BERNAL, QUILMES, Buenos Aires, Argentina","YAPEYU 555, QUILMES, Buenos Aires, Argentina",-58.2917821,-34.713806,EkVDb21iYXRlIFZ1ZWx0YSBkZSBPYmxpZ2FkbyAmIFlhcGV5w7osIEJlcm5hbCwgQnVlbm9zIEFpcmVzLCBBcmdlbnRpbmE
Buenos Aires,61818200,ESC. SECUNDARIA BASICA Nº8,Estatal,Activo,Urbano,ESPAÑA E/ BELGRANO Y CASTELLI 115  ,1865,48-4014,6778008,SAN VICENTE,SAN VICENTE,mitanor71@hotmail.com; obs0990008@abc.gov.ar,True,False,False,False,False,False,False,False,False,False,True,False,False,False,06778,"ESPAÑA E/ BELGRANO Y CASTELLI 115  , SAN VICENTE, SAN VICENTE, Buenos Aires, Argentina","ESPAÑA 115  , SAN VICENTE, SAN VICENTE, Buenos Aires, Argentina","ESPAÑA 115, SAN VICENTE, Buenos Aires, Argentina",-58.4129749,-35.0340686,EjpFc3Bhw7FhIDExNSwgQjE4NjVFU0MgU2FuIFZpY2VudGUsIEJ1ZW5vcyBBaXJlcywgQXJnZW50aW5h
Buenos Aires,61818300,ESC. SECUNDARIA BASICA Nº10,Estatal,Activo,Urbano,S. ARCURI E/ VIDAL Y PALACIOS 102  BARRIO LA ESPERANZA,1864,42-6087,6778001,ALEJANDRO KORN,SAN VICENTE,pp099015@abc.gov.ar; obs0990010@abc.gov.ar,True,False,False,False,False,False,False,False,False,False,True,False,False,False,06778,"S. ARCURI E/ VIDAL Y PALACIOS 102  BARRIO LA ESPERANZA, ALEJANDRO KORN, SAN VICENTE, Buenos Aires, Argentina","S. ARCURI 102  BARRIO LA ESPERANZA, ALEJANDRO KORN, SAN VICENTE, Buenos Aires, Argentina","S. ARCURI 102, SAN VICENTE, Buenos Aires, Argentina",-58.3883088,-34.9894272,EkVTYWx2YWRvciBBcmN1cmkgMTAyLCBCMTg2NENHRCBBbGVqYW5kcm8gS29ybiwgQnVlbm9zIEFpcmVzLCBBcmdlbnRpbmE
Buenos Aires,61818400,ESC. SECUNDARIA BASICA Nº12,Estatal,Activo,Urbano,BOMPLAND E/ TOSSO Y COSTA 462  BARRIO VERSALLES,1864,42-4338,6778001,ALEJANDRO KORN,SAN VICENTE,akesb312@hotmail.com; obs0990012@abc.gov.ar,True,False,False,False,False,False,False,False,False,False,True,False,False,False,06778,"BOMPLAND E/ TOSSO Y COSTA 462  BARRIO VERSALLES, ALEJANDRO KORN, SAN VICENTE, Buenos Aires, Argentina","BOMPLAND 462  BARRIO VERSALLES, ALEJANDRO KORN, SAN VICENTE, Buenos Aires, Argentina","BOMPLAND 462, SAN VICENTE, Buenos Aires, Argentina",-58.3748954,-34.9941174,Ej5Cb25wbGFuZCA0NjIsIEIxODY0RktGIEFsZWphbmRybyBLb3JuLCBCdWVub3MgQWlyZXMsIEFyZ2VudGluYQ
Buenos Aires,61818402,ANEXO Nº1 DE ESB Nº12,Estatal,Activo,Urbano,BUENOS AIRES 1310  LOS NARANJOS,1864,42-6048,6778001,ALEJANDRO KORN,SAN VICENTE,False,True,False,False,False,False,False,False,False,False,False,True,False,False,False,06778,"BUENOS AIRES 1310  LOS NARANJOS, ALEJANDRO KORN, SAN VICENTE, Buenos Aires, Argentina","BUENOS AIRES 1310  LOS NARANJOS, ALEJANDRO KORN, SAN VICENTE, Buenos Aires, Argentina","BUENOS AIRES 1310, SAN VICENTE, Buenos Aires, Argentina",-58.4287001,-35.0345791,EkBCdWVub3MgQWlyZXMgMTMxMCwgQjE4NjVERFAgU2FuIFZpY2VudGUsIEJ1ZW5vcyBBaXJlcywgQXJnZW50aW5h
Buenos Aires,61818500,ESCUELA DE EDUCACIÓN SECUNDARIA Nº 51,Estatal,Activo,Urbano,SAN MARTIN E/ PELLEGRINI Y SANTA FE 620  ,1708,4629-0213,6568004,MORON,MORON,obs1000014@abc.gov.ar,True,False,False,False,False,False,False,False,False,False,True,False,False,False,06568,"SAN MARTIN E/ PELLEGRINI Y SANTA FE 620  , MORON, MORON, Buenos Aires, Argentina","SAN MARTIN 620  , MORON, MORON, Buenos Aires, Argentina","SAN MARTIN 620, MORON, Buenos Aires, Argentina",-58.6227029,-34.6550297,ChIJb0Svi2fHvJURmlv6ibPjjZs
Buenos Aires,61818600,ESCUELA SECUNDARIA Nº7 RICARDO GUTIERREZ,Estatal,Activo,Urbano,KIERNAN Y PROF. CASTAGNA S/N  VILLA TESEI,1686,4459-7309,6408001,CIUDAD VILLA SANTOS TESEI,HURLINGHAM,0135ms0007@gmail.com,True,False,False,False,False,False,False,False,False,False,True,False,False,False,06408,"KIERNAN Y PROF. CASTAGNA S/N  VILLA TESEI, CIUDAD VILLA SANTOS TESEI, HURLINGHAM, Buenos Aires, Argentina","KIERNAN Y PROF. CASTAGNA S/N  VILLA TESEI, CIUDAD VILLA SANTOS TESEI, HURLINGHAM, Buenos Aires, Argentina","KIERNAN Y PROF. CASTAGNA , HURLINGHAM, Buenos Aires, Argentina",-58.6509256,-34.6265135,Ek1Qcm9mIERvbWluZ28gQ2FzdGFnbmEgJiBKdWFuIEIuIEtpZXJuYW4sIFZpbGxhIFRlc2VpLCBCdWVub3MgQWlyZXMsIEFyZ2VudGluYQ
Buenos Aires,61818700,ESCUELA DE EDUCACIÓN SECUNDARIA N°46,Estatal,Activo,Urbano,PRES. HIPÓLITO YRIGOYEN E/GRAL. MANUEL BELGRANO Y 25 DE MAYO 850  ,1708,4696-3612,6568004,MORON,MORON,claudenko@hotmail.com; obs1000020@abc.gov.ar,True,False,False,False,False,False,False,False,False,False,True,False,False,False,06568,"PRES. HIPÓLITO YRIGOYEN E/GRAL. MANUEL BELGRANO Y 25 DE MAYO 850  , MORON, MORON, Buenos Aires, Argentina","PRES. HIPÓLITO YRIGOYEN 25 DE MAYO 850  , MORON, MORON, Buenos Aires, Argentina","PRES. HIPÓLITO YRIGOYEN 25 DE MAYO 850, MORON, Buenos Aires, Argentina",-58.619829,-34.660162,ChIJIUwteWnHvJURwDw3ixI9ESQ
Buenos Aires,61818800,ESCUELA DE EDUCACIÓN SECUNDARIA Nº21 NUESTRA SEÑORA DE LAS MERCEDES,Estatal,Activo,Urbano,AVDA. VERGARA ESQ. A. FARIAS 352  ,1712,4627-9225,6568004,MORON,MORON,ees44castelar@gmail.com; obs1000021@abc.gov.ar,True,False,False,False,False,False,False,False,False,False,True,False,False,False,06568,"AVDA. VERGARA ESQ. A. FARIAS 352  , MORON, MORON, Buenos Aires, Argentina","AVDA. VERGARA ESQ. A. FARIAS 352  , MORON, MORON, Buenos Aires, Argentina","AVDA. VERGARA ESQ. A. FARIAS 352, MORON, Buenos Aires, Argentina",,,
Buenos Aires,61818900,ESCUELA DE EDUCACIÓN SECUNDARIA Nº40,Estatal,Activo,Urbano,AVDA. EVA PERON 2352  ,1708,4697-2898,6568004,MORON,MORON,es25moron@hotmail.com; obs1000025@abc.gov.ar,True,False,False,False,False,False,False,False,False,False,True,False,False,False,06568,"AVDA. EVA PERON 2352  , MORON, MORON, Buenos Aires, Argentina","AVDA. EVA PERON 2352  , MORON, MORON, Buenos Aires, Argentina","AVDA. EVA PERON 2352, MORON, Buenos Aires, Argentina",-58.6312052,-34.6744286,ChIJSaTF0zvHvJURO99b6M70Y1w
Buenos Aires,61819000,ESC. SECUNDARIA BASICA Nº8,Estatal,Activo,Urbano,SAN JUSTO E/ CERRITO Y SCHWEITZ 3574  VILLA LEON,1714,4621-2047,6410002,ITUZAINGO,ITUZAINGO,obs1360008@abc.gov.ar,True,False,False,False,False,False,False,False,False,False,True,False,False,False,06410,"SAN JUSTO E/ CERRITO Y SCHWEITZ 3574  VILLA LEON, ITUZAINGO, ITUZAINGO, Buenos Aires, Argentina","SAN JUSTO 3574  VILLA LEON, ITUZAINGO, ITUZAINGO, Buenos Aires, Argentina","SAN JUSTO 3574, ITUZAINGO, Buenos Aires, Argentina",-58.701309,-34.6338296,EjxTYW4gSnVzdG8gMzU3NCwgQjE3MTRLUVAgSXR1emFpbmfDsywgQnVlbm9zIEFpcmVzLCBBcmdlbnRpbmE
Buenos Aires,61819100,ESC. SECUNDARIA BASICA Nº9 25 DE MAYO,Estatal,Activo,Urbano,ACASSUSO 1900  PARQUE JHONSHON,1686,4662-8310,6408002,HURLINGHAM,HURLINGHAM,esb9hurlingham@yahoo.com.ar; obs1350009@abc.gov.ar,True,False,False,False,False,False,False,False,False,False,True,False,False,False,06408,"ACASSUSO 1900  PARQUE JHONSHON, HURLINGHAM, HURLINGHAM, Buenos Aires, Argentina","ACASSUSO 1900  PARQUE JHONSHON, HURLINGHAM, HURLINGHAM, Buenos Aires, Argentina","ACASSUSO 1900, HURLINGHAM, Buenos Aires, Argentina",-58.6437164,-34.5930993,EjJBY2Fzc3VzbyAxOTAwLCBIdXJsaW5naGFtLCBCdWVub3MgQWlyZXMsIEFyZ2VudGluYQ
Buenos Aires,61819200,ESC. SECUNDARIA BASICA Nº8,Estatal,Activo,Urbano,RECAGNO 500  VILLA CLUB,1686,4662-1022,6408002,HURLINGHAM,HURLINGHAM,0135bs0008@gmail.com; obs1350008@abc.gov.ar,True,False,False,False,False,False,False,False,False,False,True,False,False,False,06408,"RECAGNO 500  VILLA CLUB, HURLINGHAM, HURLINGHAM, Buenos Aires, Argentina","RECAGNO 500  VILLA CLUB, HURLINGHAM, HURLINGHAM, Buenos Aires, Argentina","RECAGNO 500, HURLINGHAM, Buenos Aires, Argentina",-58.639293,-34.5749241,ChIJx1SdkVa5vJURp_-vhhObKDc
Buenos Aires,61819300,ESCUELA DE EDUCACIÓN SECUNDARIA Nº15,Estatal,Activo,Urbano,BAGNAT E/TERRERO Y POSADAS 955  BARRIO GASTRONOMICO,1714,4624-7695,6410002,ITUZAINGO,ITUZAINGO,leobrunen@gmail.com; obs1360009@abc.gov.ar,True,False,False,False,False,False,False,False,False,False,True,False,False,False,06410,"BAGNAT E/TERRERO Y POSADAS 955  BARRIO GASTRONOMICO, ITUZAINGO, ITUZAINGO, Buenos Aires, Argentina","BAGNAT 955  BARRIO GASTRONOMICO, ITUZAINGO, ITUZAINGO, Buenos Aires, Argentina","BAGNAT 955, ITUZAINGO, Buenos Aires, Argentina",-58.6837656,-34.6574386,EkRQcm9mIENhcmxvcyBCYWduYXQgOTU1LCBCMTcxNEpLSyBJdHV6YWluZ8OzLCBCdWVub3MgQWlyZXMsIEFyZ2VudGluYQ
Buenos Aires,61819400,ESCUELA DE EDUCACIÓN SECUNDARIA Nº10 LEONARDO ROSALES,Estatal,Activo,Urbano,BALBOA 151  ,1688,4459-6482,6408001,CIUDAD VILLA SANTOS TESEI,HURLINGHAM,ofeliblanc@hotmail.com; obs1350010@abc.gov.ar,True,False,False,False,False,False,False,False,False,False,True,False,False,False,06408,"BALBOA 151  , CIUDAD VILLA SANTOS TESEI, HURLINGHAM, Buenos Aires, Argentina","BALBOA 151  , CIUDAD VILLA SANTOS TESEI, HURLINGHAM, Buenos Aires, Argentina","BALBOA 151, HURLINGHAM, Buenos Aires, Argentina",-58.6295754,-34.6124824,EkFWYXNjbyBOw7rDsWV6IGRlIEJhbGJvYSAxNTEsIFZpbGxhIFRlc2VpLCBCdWVub3MgQWlyZXMsIEFyZ2VudGluYQ
Buenos Aires,61819500,ESC. SECUNDARIA BASICA Nº31,Estatal,Activo,Urbano,LA PLATA 730  ,1684,4758-3159,6568002,EL PALOMAR,MORON,esb31moron@hotmail.com; leonardommonzon@hotmail.com; obs1000031@abc.gov.ar,True,False,False,False,False,False,False,False,False,False,True,False,False,False,06568,"LA PLATA 730  , EL PALOMAR, MORON, Buenos Aires, Argentina","LA PLATA 730  , EL PALOMAR, MORON, Buenos Aires, Argentina","LA PLATA 730, MORON, Buenos Aires, Argentina",-58.6183259,-34.6399124,Ej5Sw61vIGRlIGxhIFBsYXRhIDczMCwgQjE3MDhGQUQgTW9yw7NuLCBCdWVub3MgQWlyZXMsIEFyZ2VudGluYQ
Buenos Aires,61819600,ESCUELA DE EDUCACIÓN SECUNDARIA Nº43,Estatal,Activo,Urbano,SANTA TERESA 2046  ,1708,4696-3955,6568004,MORON,MORON,obs1000032@abc.gov.ar,True,False,False,False,False,False,False,False,False,False,True,False,False,False,06568,"SANTA TERESA 2046  , MORON, MORON, Buenos Aires, Argentina","SANTA TERESA 2046  , MORON, MORON, Buenos Aires, Argentina","SANTA TERESA 2046, MORON, Buenos Aires, Argentina",-58.6125395,-34.6725663,EjlTdGEgVGVyZXNhIDIwNDYsIEIxNzA4R0FaIE1vcsOzbiwgQnVlbm9zIEFpcmVzLCBBcmdlbnRpbmE
Buenos Aires,61819700,ESC. SECUNDARIA BASICA Nº33,Estatal,Activo,Urbano,NEUQUEN 529  ,1684,4751-2599/3319,6568002,EL PALOMAR,MORON,secundariatreintaytresoron@yahoo.com; sb_33moron@hotmail.com; obs1000033@abc.gov.ar,True,False,False,False,False,False,False,False,False,False,True,False,False,False,06568,"NEUQUEN 529  , EL PALOMAR, MORON, Buenos Aires, Argentina","NEUQUEN 529  , EL PALOMAR, MORON, Buenos Aires, Argentina","NEUQUEN 529, MORON, Buenos Aires, Argentina",-58.5901778,-34.6082572,ChIJ4_MUllq4vJURFqeRas7u0Iw
